store_name,store_number,address,address2,city,state,zip_code,country,phone_number,latitude,longitude,store_hours,store_type,other_fields,coming_soon
Einstein Bros. Bagels,6226,"LaGuardia Airport, Central Terminal B Center Food Court",Central  Terminal B,Flushing,NY,11371,US,(516)792-3957,-73.86567633,40.77218588,"Mon 05:00 - 22:00, Tue 05:00 - 22:00, Wnd 05:00 - 22:00, Thr 05:00 - 22:00, Fri 05:00 - 22:00, Sat 05:00 - 22:00, Sun 05:00 - 22:00",,,0
Einstein Bros. Bagels,6048,1 Normal Ave,College Hall,Montclair,NJ,7043,US,(973) 665-9346,-74.19855788,40.85912881,"Mon 07:00 - 19:00, Tue 07:00 - 19:00, Wnd 07:00 - 19:00, Thr 07:00 - 19:00, Fri 07:00 - 16:00",,,0
Einstein Bros. Bagels,6283,300 Pompton Rd,Academic Bldg,Wayne,NJ,7474,US,973-720-3300,-74.19869828,40.94505939,"Mon 07:30 - 19:00, Tue 07:30 - 19:00, Wnd 07:30 - 19:00, Thr 07:30 - 19:00, Fri 07:30 - 19:00",,,0
Einstein Bros. Bagels,6240,555 Broadway,Victory,Dobbs Ferry,NY,10522,US,(914) 674-7251,-73.8706542,41.02189734,"Mon 07:00 - 19:00, Tue 07:00 - 19:00, Wnd 07:00 - 19:00, Thr 07:00 - 19:00, Fri 07:00 - 14:00",,,0
Einstein Bros. Bagels,6163,1073 N Benson Rd,Barone Campus Center,Fairfield,CT,6824,US,(203) 254-4000,-73.25762402,41.15910552,"Mon 08:00 - 17:00, Tue 08:00 - 17:00, Wnd 08:00 - 17:00, Thr 08:00 - 17:00, Fri 08:00 - 17:00, Sat 08:00 - 13:00",,,0
Einstein Bros. Bagels,3594,5550 Wilshire Blvd,,Los Angeles,CA,90036,US,(323) 330-9501,-118.3497599,34.06217681,"Mon 05:00 - 17:00, Tue 05:00 - 17:00, Wnd 05:00 - 17:00, Thr 05:00 - 17:00, Fri 05:00 - 17:00, Sat 06:00 - 16:00, Sun 06:00 - 16:00",,,0
Einstein Bros. Bagels,2209,605 S Lake Ave,,Pasadena,CA,91106,US,(626) 449-6415,-118.1324541,34.13550729,"Mon 05:00 - 17:00, Tue 05:00 - 17:00, Wnd 05:00 - 17:00, Thr 05:00 - 17:00, Fri 05:00 - 17:00, Sat 06:00 - 16:00, Sun 06:00 - 16:00",,,0
Einstein Bros. Bagels,3614,10759 W Pico Blvd,,Los Angeles,CA,90064,US,(424) 293-4495,-118.4265982,34.04133737,"Mon 05:00 - 15:00, Tue 05:00 - 15:00, Wnd 05:00 - 15:00, Thr 05:00 - 15:00, Fri 05:00 - 15:00, Sat 06:00 - 15:00, Sun 06:00 - 15:00",,,0
Einstein Bros. Bagels,2701,2205 Black Rock Tpke,,Fairfield,CT,6825,US,(203) 334-5906,-73.2535487,41.18142,"Mon 05:00 - 17:00, Tue 05:00 - 17:00, Wnd 05:00 - 17:00, Thr 05:00 - 17:00, Fri 05:00 - 17:00, Sat 06:00 - 16:00, Sun 06:00 - 15:00",,,0
Einstein Bros. Bagels,6271,5151 Park Ave,Jack Welch College of Bus. & Comm.,Fairfield,CT,6825,US,(203) 396-8031,-73.24338584,41.22478705,"Mon 08:00 - 19:00, Tue 08:00 - 19:00, Wnd 08:00 - 19:00, Thr 08:00 - 19:00, Fri 08:00 - 16:00, Sat 09:00 - 13:00",,,0
Einstein Bros. Bagels,6296,181 White Street,Haas Library,Danbury,CT,6810,US,203-837-9424,-73.44626665,41.4013312,"Mon 08:00 - 19:00, Tue 08:00 - 19:00, Wnd 08:00 - 19:00, Thr 08:00 - 19:00, Fri 08:00 - 14:00, Sat 10:00 - 14:00",,,0
Einstein Bros. Bagels,1758,1615 Big Oak Rd,,Yardley,PA,19067,US,(215) 321-6500,-74.86381409,40.19801343,"Mon 05:00 - 16:00, Tue 05:00 - 16:00, Wnd 05:00 - 16:00, Thr 05:00 - 16:00, Fri 05:00 - 16:00, Sat 06:00 - 16:00, Sun 06:00 - 15:00",,,0
Einstein Bros. Bagels,2079,28 Doublewoods Rd Ste A,,Langhorne,PA,19047,US,(215) 504-9103,-74.92879594,40.21730624,"Mon 05:00 - 16:00, Tue 05:00 - 16:00, Wnd 05:00 - 16:00, Thr 05:00 - 16:00, Fri 05:00 - 16:00, Sat 06:00 - 16:00, Sun 06:00 - 15:00",,,0
Einstein Bros. Bagels,6030,3500 N Broad St,Medical School Building,Philadelphia,PA,19140,US,(215) 707-7521,-75.15217527,40.006259,"Mon 07:00 - 16:30, Tue 07:00 - 16:30, Wnd 07:00 - 16:30, Thr 07:00 - 16:30, Fri 07:00 - 16:30",,,0
Einstein Bros. Bagels,3511,1755 N 13th St,Howard Gittis Student Center,Philadelphia,PA,19122,US,(215) 204-6786,-75.15510267,39.97967407,"Mon 07:00 - 20:00, Tue 07:00 - 20:00, Wnd 07:00 - 20:00, Thr 07:00 - 20:00, Fri 07:00 - 20:00, Sun 12:00 - 16:00",,,0
Einstein Bros. Bagels,6289,5600 City Avenue,Merion Hall,Philadelphia,PA,19131,US,610-660-2992,-75.24288396,39.99590812,"Mon 08:00 - 20:00, Tue 08:00 - 20:00, Wnd 08:00 - 20:00, Thr 08:00 - 20:00, Fri 08:00 - 14:00",,,0
Einstein Bros. Bagels,6268,3500 Civic Center Blvd,Buerger Center for Advanced Pediatric Ca,Philadelphia,PA,19104,US,267-425-8246,-75.19426133,39.94705298,"Mon 07:00 - 16:30, Tue 07:00 - 16:30, Wnd 07:00 - 16:30, Thr 07:00 - 16:30, Fri 07:00 - 16:30",,,0
Einstein Bros. Bagels,2594,27 Paoli Shopping Ctr,,Paoli,PA,19301,US,(610) 296-1200,-75.47752133,40.04154698,"Mon 05:00 - 17:00, Tue 05:00 - 17:00, Wnd 05:00 - 17:00, Thr 05:00 - 17:00, Fri 05:00 - 17:00, Sat 06:00 - 16:00, Sun 06:00 - 15:00",,,0
Einstein Bros. Bagels,6308,600 N Campus Dr,School of Engineering,Glassboro,NJ,8028,US,(856)-256-5238,-75.1150588989,39.7081604004,"Mon 07:30 - 19:30, Tue 07:30 - 19:30, Wnd 07:30 - 19:30, Thr 07:30 - 19:30, Fri 07:30 - 15:00",,,0
Einstein Bros. Bagels,6276,525 E 15th Street,Harris Hall,Chester,PA,19013,US,610-490-7025,-75.35920602,39.86047443,"Mon 07:30 - 14:30, Tue 07:30 - 14:30, Wnd 07:30 - 14:30, Thr 07:30 - 14:30, Fri 07:30 - 14:30, Sat 08:00 - 13:00, Sun 08:00 - 13:00",,,0
Caribou Coffee & Einstein Bros. Bagels,8590,1LMU Drive,MS 8420,Los Angeles,CA,90045,US,1-888-227-4268,-118.4161377,33.96967697,"Mon 05:00 - 21:00, Tue 05:00 - 21:00, Wnd 05:00 - 21:00, Thr 05:00 - 21:00, Fri 05:00 - 21:00, Sat 06:00 - 21:00, Sun 06:00 - 20:00",,,0
Einstein Bros. Bagels,2144,3711 E Foothill Blvd,,Pasadena,CA,91107,US,(626) 351-0352,-118.0729923,34.15105304,"Mon 05:00 - 17:00, Tue 05:00 - 17:00, Wnd 05:00 - 17:00, Thr 05:00 - 17:00, Fri 05:00 - 17:00, Sat 06:00 - 16:00, Sun 06:00 - 16:00",,,0
Einstein Bros. Bagels,3612,23240 Hawthorne Blvd Ste B,,Torrance,CA,90505,US,(310) 698-1117,-118.3504377,33.81492243,"Mon 05:00 - 15:00, Tue 05:00 - 15:00, Wnd 05:00 - 15:00, Thr 05:00 - 15:00, Fri 05:00 - 15:00, Sat 06:00 - 15:00, Sun 06:00 - 15:00",,,0
Einstein Bros. Bagels,3469,2310-A Bellflower Blvd,,Long Beach,CA,90815,US,(562) 431-1705,-118.1249947,33.80007796,"Mon 05:00 - 15:00, Tue 05:00 - 15:00, Wnd 05:00 - 15:00, Thr 05:00 - 15:00, Fri 05:00 - 15:00, Sat 06:00 - 15:00, Sun 06:00 - 15:00",,,0
Einstein Bros. Bagels,3629,4508 E Los Coyotes Diagonal,,Long Beach,CA,90815,US,(562) 742-2142,-118.1404671,33.79076638,"Mon 05:00 - 17:00, Tue 05:00 - 17:00, Wnd 05:00 - 17:00, Thr 05:00 - 17:00, Fri 05:00 - 17:00, Sat 06:00 - 16:00, Sun 06:00 - 16:00",,,0
Einstein Bros. Bagels,6142,"3801 W. Temple Ave, Building 164",College of Business Adminstration Bldg,Pomona,CA,91768,US,909-979-6003,-117.8200028,34.06170014,"Mon 07:00 - 19:00, Tue 07:00 - 19:00, Wnd 07:00 - 19:00, Thr 07:00 - 19:00, Fri 07:00 - 16:00",,,0
Einstein Bros. Bagels,2176,16304 Beach Blvd,,Westminster,CA,92683,US,(714) 847-4609,-117.9886618,33.72630588,"Mon 05:00 - 15:00, Tue 05:00 - 15:00, Wnd 05:00 - 15:00, Thr 05:00 - 15:00, Fri 05:00 - 15:00, Sat 06:00 - 15:00, Sun 06:00 - 15:00",,,0
Einstein Bros. Bagels,6097,386 N Center St #204,Argyros Forum,Orange,CA,92866,US,1-800-224-3578,-117.8503586,33.79306956,"Mon 07:00 - 19:00, Tue 07:00 - 19:00, Wnd 07:00 - 19:00, Thr 07:00 - 19:00, Fri 07:00 - 19:00",,,0
Einstein Bros. Bagels,2816,17675 Harvard Ave,,Irvine,CA,92614,US,(949) 756-8903,-117.8320838,33.6760249,"Mon 05:00 - 16:00, Tue 05:00 - 16:00, Wnd 05:00 - 16:00, Thr 05:00 - 16:00, Fri 05:00 - 16:00, Sat 06:00 - 16:00, Sun 06:00 - 16:00",,,0
Einstein Bros. Bagels,3354,G318 Student Center,Bldg 204,Irvine,CA,92697,US,(949) 824-7190,-117.842505,33.64890542,"Mon 07:30 - 21:00, Tue 07:30 - 21:00, Wnd 07:30 - 21:00, Thr 07:30 - 21:00, Fri 07:30 - 18:00",,,0
Einstein Bros. Bagels,4013,27695 Santa Margarita Pkwy Ste A,,Mission Viejo,CA,92691,US,(949) 855-2243,-117.6473323,33.65385951,"Mon 05:30 - 16:00, Tue 05:30 - 16:00, Wnd 05:30 - 16:00, Thr 05:30 - 16:00, Fri 05:30 - 16:00, Sat 06:00 - 15:00, Sun 06:00 - 15:00",,,0
Einstein Bros. Bagels,3047,2183 Vista Way,,Oceanside,CA,92054,US,(760) 433-8330,-117.3409988,33.18245317,"Mon 05:00 - 15:00, Tue 05:00 - 15:00, Wnd 05:00 - 15:00, Thr 05:00 - 15:00, Fri 05:00 - 15:00, Sat 06:00 - 15:00, Sun 06:00 - 15:00",,,0
Einstein Bros. Bagels,2309,1006 N El Camino Real Ste B,,Encinitas,CA,92024,US,(760) 753-6514,-117.26408,33.06460451,"Mon 06:00 - 17:00, Tue 06:00 - 17:00, Wnd 06:00 - 17:00, Thr 06:00 - 17:00, Fri 06:00 - 17:00, Sat 06:00 - 16:00, Sun 06:00 - 15:00",,,0
Einstein Bros. Bagels,3463,30 N La Salle St Lbby 100E,,Chicago,IL,60602,US,(312) 346-5110,-87.63303154,41.88313933,"Mon 05:00 - 17:00, Tue 05:00 - 17:00, Wnd 05:00 - 17:00, Thr 05:00 - 17:00, Fri 05:00 - 17:00",,,0
Einstein Bros. Bagels,6273,237 Jefferson Ave,Center for Rehabilitation Education,Scranton,PA,18510,US,(570) 941 4507,-75.66049741,41.40744675,"Mon 07:00 - 20:00, Tue 07:00 - 20:00, Wnd 07:00 - 20:00, Thr 07:00 - 20:00, Fri 07:00 - 15:00",,,0
Einstein Bros. Bagels,3400,700 S New St,Lawrence Hall,West Chester,PA,19383,US,(610) 436-2730,-75.6012473,39.93898626,"Mon 07:00 - 15:00, Tue 07:00 - 15:00, Wnd 07:00 - 15:00, Thr 07:00 - 15:00, Fri 07:00 - 15:00, Sat 08:00 - 14:00, Sun 08:00 - 14:00",,,0
Einstein Bros. Bagels,6031,200 Bloomfield Ave,Gengras Student Center,West Hartford,CT,6117,US,(860) 768-4683,-72.714865,41.79656131,"Mon 07:30 - 14:00, Tue 07:30 - 14:00, Wnd 07:30 - 14:00, Thr 07:30 - 14:00, Fri 07:30 - 14:00",,,0
Einstein Bros. Bagels,2246,1732 Marsh Rd,,Wilmington,DE,19810,US,(302) 478-7488,-75.50580422,39.80215167,"Mon 05:00 - 17:00, Tue 05:00 - 17:00, Wnd 05:00 - 17:00, Thr 05:00 - 17:00, Fri 05:00 - 17:00, Sat 06:00 - 16:00, Sun 06:00 - 15:00",,,0
Einstein Bros. Bagels,6245,1600 Rockland Rd,Lobby,Wilmington,DE,19803,US,(302) 651-4000 X0326,-75.55516,39.779327,"Mon 00:00 - 00:00, Tue 00:00 - 00:00, Wnd 00:00 - 00:00, Thr 00:00 - 00:00, Fri 00:00 - 00:00, Sat 00:00 - 00:00, Sun 00:00 - 00:00",,,0
Einstein Bros. Bagels,6176,221 Academy Street,ISE Lab - Science and Engineering,Newark,DE,19716,US,(302) 831-8949,-75.74922702,39.67913331,"Mon 07:30 - 17:00, Tue 07:30 - 17:00, Wnd 07:30 - 17:00, Thr 07:30 - 17:00, Fri 07:30 - 17:00",,,0
Einstein Bros. Bagels,6171,240 Mgm Grand Dr,Food Court,Mashantucket,CT,6338,US,(860) 312-8497,-71.96405692,41.47719,"Mon 08:30 - 17:00, Tue 08:30 - 17:00, Wnd 08:30 - 17:00, Thr 08:30 - 17:00, Fri 08:30 - 00:00, Sat 08:30 - 00:00, Sun 08:30 - 17:00",,,0
Einstein Bros. Bagels,6148,4400 Vestal Pkwy E,University Union,Binghamton,NY,13902,US,(607) 777-4645,-75.96700175,42.08768446,"Mon 07:30 - 19:00, Tue 07:30 - 19:00, Wnd 07:30 - 19:00, Thr 07:30 - 19:00, Fri 07:30 - 17:00",,,0
Einstein Bros. Bagels,2049,600 Marketplace Dr,,Bel Air,MD,21014,US,(410) 638-2768,-76.35106463,39.52375369,"Mon 05:00 - 17:00, Tue 05:00 - 17:00, Wnd 05:00 - 17:00, Thr 05:00 - 17:00, Fri 05:00 - 17:00, Sat 06:00 - 16:00, Sun 06:00 - 15:00",,,0
Einstein Bros. Bagels,3138,901 Goucher Blvd,,Towson,MD,21286,US,(410) 825-0420,-76.58383606,39.39528966,"Mon 05:00 - 16:00, Tue 05:00 - 16:00, Wnd 05:00 - 16:00, Thr 05:00 - 16:00, Fri 05:00 - 16:00, Sat 06:00 - 16:00, Sun 06:00 - 15:00",,,0
Einstein Bros. Bagels,6103,West Village Commons 424 Emerson Dr,West Village Commons Building,Towson,MD,21252,US,(410) 704-3321,-76.61834448,39.39297743,"Mon 07:30 - 19:00, Tue 07:30 - 19:00, Wnd 07:30 - 19:00, Thr 07:30 - 19:00, Fri 07:30 - 16:00, Sun 09:00 - 14:00",,,0
Einstein Bros. Bagels,6190,6701 N Charles St,Lab Entrance,Towson,MD,21204,US,443-881-0968,-76.62444855,39.39095131,"Mon 06:00 - 17:00, Tue 06:00 - 17:00, Wnd 06:00 - 17:00, Thr 06:00 - 17:00, Fri 06:00 - 17:00",,,0
Einstein Bros. Bagels,3419,600 N Wolfe St #CMSC-1,Childrens Hospital Bldg - Food Court,Baltimore,MD,21287,US,(410) 955-6302,-76.59226234,39.29711199,"Mon 06:00 - 19:00, Tue 06:00 - 19:00, Wnd 06:00 - 19:00, Thr 06:00 - 19:00, Fri 06:00 - 19:00, Sat 06:00 - 19:00, Sun 06:00 - 19:00",,,0
Einstein Bros. Bagels,6217,2500 W North Ave,Health & Human Services Bldg,Baltimore,MD,21216,US,(443) 386-5403,-76.65887445,39.30893544,"Mon 07:00 - 18:00, Tue 07:00 - 18:00, Wnd 07:00 - 18:00, Thr 07:00 - 18:00, Fri 07:00 - 18:00, Sat 08:00 - 18:00",,,0
Einstein Bros. Bagels,2679,595 Gov Ritchie Highway,,Severna Park,MD,21146,US,(410) 544-9470,-76.54293517,39.07513781,"Mon 05:00 - 17:00, Tue 05:00 - 17:00, Wnd 05:00 - 17:00, Thr 05:00 - 17:00, Fri 05:00 - 17:00, Sat 06:00 - 16:00, Sun 06:00 - 15:00",,,0
Einstein Bros. Bagels,2525,911 Lomas Santa Fe Dr,,Solana Beach,CA,92075,US,(858) 793-3637,-117.25522,32.99422549,"Mon 06:00 - 17:00, Tue 06:00 - 17:00, Wnd 06:00 - 17:00, Thr 06:00 - 17:00, Fri 06:00 - 17:00, Sat 06:00 - 16:00, Sun 06:00 - 15:00",,,0
Einstein Bros. Bagels,890,3545 Del Mar Heights Rd Ste C9,,San Diego,CA,92130,US,(858) 792-7848,-117.2304406,32.95382259,"Mon 05:30 - 17:00, Tue 05:30 - 17:00, Wnd 05:30 - 17:00, Thr 05:30 - 17:00, Fri 05:30 - 17:00, Sat 06:00 - 16:00, Sun 06:00 - 15:00",,,0
Einstein Bros. Bagels,893,15721 Bernardo Heights Pkwy Ste G,,San Diego,CA,92128,US,(858) 451-6106,-117.0591182,33.00245164,"Mon 05:30 - 17:00, Tue 05:30 - 17:00, Wnd 05:30 - 17:00, Thr 05:30 - 17:00, Fri 05:30 - 17:00, Sat 06:00 - 16:00, Sun 06:00 - 15:00",,,0
Einstein Bros. Bagels,2900,4150 Regents Park Row Ste 180,,La Jolla,CA,92037,US,(858) 458-0392,-117.2175557,32.8730326,"Mon 05:00 - 17:00, Tue 05:00 - 17:00, Wnd 05:00 - 17:00, Thr 05:00 - 17:00, Fri 05:00 - 17:00, Sat 06:00 - 16:00, Sun 06:00 - 15:00",,,0
Einstein Bros. Bagels,892,1772 Garnet Ave Ste F,,San Diego,CA,92109,US,(858) 272-9321,-117.2377997,32.80164633,"Mon 06:00 - 17:00, Tue 06:00 - 17:00, Wnd 06:00 - 17:00, Thr 06:00 - 17:00, Fri 06:00 - 17:00, Sat 06:00 - 16:00, Sun 06:00 - 15:00",,,0
Einstein Bros. Bagels,3363,39000 Bob Hope Dr,Delores Hope Cancer Center,Rancho Mirage,CA,92270,US,(760) 837-8711,-116.4071549,33.76222312,"Mon 07:00 - 16:00, Tue 07:00 - 16:00, Wnd 07:00 - 16:00, Thr 07:00 - 16:00, Fri 07:00 - 16:00",,,0
Einstein Bros. Bagels,1683,3675 Murphy Canyon Rd Ste 104,,San Diego,CA,92123,US,(858) 569-6944,-117.1151806,32.80874677,"Mon 05:00 - 17:00, Tue 05:00 - 17:00, Wnd 05:00 - 17:00, Thr 05:00 - 17:00, Fri 05:00 - 17:00, Sat 05:00 - 16:00, Sun 06:00 - 15:00",,,0
Einstein Bros. Bagels,2442,3305 Rosecrans St Ste B,,San Diego,CA,92110,US,(619) 523-6795,-117.2071823,32.74794022,"Mon 05:00 - 17:00, Tue 05:00 - 17:00, Wnd 05:00 - 17:00, Thr 05:00 - 17:00, Fri 05:00 - 17:00, Sat 06:00 - 16:00, Sun 06:00 - 15:00",,,0
Einstein Bros. Bagels,886,5638 Mission Center Rd Ste 101,,San Diego,CA,92108,US,(619) 688-0670,-117.157611,32.77380121,"Mon 05:30 - 17:00, Tue 05:30 - 17:00, Wnd 05:30 - 17:00, Thr 05:30 - 17:00, Fri 05:30 - 17:00, Sat 06:00 - 16:00, Sun 06:00 - 15:00",,,0
Einstein Bros. Bagels,6191,3665 N Harbor Dr,"Terminal 2, San Diego Airport",San Diego,CA,92101,US,(619) 686-8572,-117.2036326,32.7319731,"Mon 05:00 - 22:00, Tue 05:00 - 22:00, Wnd 05:00 - 22:00, Thr 05:00 - 22:00, Fri 05:00 - 22:00, Sat 05:00 - 22:00, Sun 05:00 - 22:00",,,0
Einstein Bros. Bagels,3048,10460 Friars Rd,,San Diego,CA,92120,US,(619) 521-9993,-117.0982271,32.79223326,"Mon 05:30 - 17:00, Tue 05:30 - 17:00, Wnd 05:30 - 17:00, Thr 05:30 - 17:00, Fri 05:30 - 17:00, Sat 06:00 - 16:00, Sun 06:00 - 15:00",,,0
Einstein Bros. Bagels,6172,3665 N Harbor Dr,"Terminal 1, San Diego Airport",San Diego,CA,92101,US,(619) 686-5870,-117.1965339,32.73260748,"Mon 04:30 - 22:00, Tue 04:30 - 22:00, Wnd 04:30 - 22:00, Thr 04:30 - 22:00, Fri 04:30 - 22:00, Sat 04:30 - 22:00, Sun 04:30 - 22:00",,,0
Einstein Bros. Bagels,891,420 Robinson Ave Ste B,,San Diego,CA,92103,US,(619) 295-1510,-117.1613715,32.74727189,"Mon 06:00 - 15:00, Tue 06:00 - 15:00, Wnd 06:00 - 15:00, Thr 06:00 - 15:00, Fri 06:00 - 15:00, Sat 06:00 - 15:00, Sun 06:00 - 15:00",,,0
Einstein Bros. Bagels,3325,9872 Mission Gorge Rd,,Santee,CA,92071,US,(619) 937-0480,-116.9808458,32.84162081,"Mon 06:00 - 17:00, Tue 06:00 - 17:00, Wnd 06:00 - 17:00, Thr 06:00 - 17:00, Fri 06:00 - 17:00, Sat 06:00 - 16:00, Sun 06:00 - 15:00",,,0
Einstein Bros. Bagels,3505,400 N Dearborn St,,Chicago,IL,60654,US,(312) 755-0413,-87.62983627,41.88935354,"Mon 05:00 - 18:00, Tue 05:00 - 18:00, Wnd 05:00 - 18:00, Thr 05:00 - 18:00, Fri 05:00 - 18:00, Sat 07:00 - 16:00, Sun 07:00 - 15:00",,,0
Einstein Bros. Bagels,3493,300 E Ohio St,Doubletree Hotel,Chicago,IL,60611,US,(312) 787-6100,-87.62007073,41.89270582,"Mon 06:00 - 14:30, Tue 06:00 - 14:00, Wnd 06:00 - 14:00, Thr 06:00 - 14:00, Fri 06:00 - 14:00, Sat 06:00 - 14:00, Sun 06:00 - 14:00",,,0
Einstein Bros. Bagels,1242,109 E Pearson St,,Chicago,IL,60611,US,(312) 881-5056,-87.62570714,41.89749809,"Mon 05:00 - 17:00, Tue 05:00 - 17:00, Wnd 05:00 - 17:00, Thr 05:00 - 17:00, Fri 05:00 - 17:00, Sat 06:00 - 16:00, Sun 06:00 - 15:00",,,0
Einstein Bros. Bagels,6286,5225 South Harper Court,Harper Court,Chicago,IL,60615,US,773-947-0485,-87.58858776,41.80019267,"Mon 06:00 - 16:00, Tue 06:00 - 16:00, Wnd 06:00 - 16:00, Thr 06:00 - 16:00, Fri 06:00 - 16:00, Sat 06:00 - 16:00, Sun 06:00 - 16:00",,,0
Einstein Bros. Bagels,3358,5706 S University Ave,Hutchison Commons C Hutchison Commons,Chicago,IL,60637,US,(773) 834-1018,-87.59827987,41.79123976,"Mon 07:00 - 23:00, Tue 07:00 - 23:00, Wnd 07:00 - 23:00, Thr 07:00 - 23:00, Fri 07:00 - 23:00, Sat 09:00 - 23:00, Sun 09:00 - 23:00",,,0
Einstein Bros. Bagels,6235,3225 W Foster Ave,Johnson Building,Chicago,IL,60625,US,(773) 244-4714,-87.71206369,41.97543014,"Mon 07:00 - 18:00, Tue 07:00 - 18:00, Wnd 07:00 - 18:00, Thr 07:00 - 18:00, Fri 07:00 - 18:00",,,0
Einstein Bros. Bagels,6204,2160 S 1st Ave Bldg 150,Outpatient Center,Maywood,IL,60153,US,(708) 327-1217,-87.83478219,41.86086106,"Mon 07:00 - 16:00, Tue 07:00 - 16:00, Wnd 07:00 - 16:00, Thr 07:00 - 16:00, Fri 07:00 - 16:00",,,0
Einstein Bros. Bagels,1399,1745 Sherman Ave,,Evanston,IL,60201,US,(847) 328-9888,-87.68161321,42.04980719,"Mon 05:00 - 17:00, Tue 05:00 - 17:00, Wnd 05:00 - 17:00, Thr 05:00 - 17:00, Fri 05:00 - 17:00, Sat 06:00 - 16:00, Sun 06:00 - 15:00",,,0
Einstein Bros. Bagels,6085,2001 Sheridan Rd,Jacobs Center,Evanston,IL,60208,US,(847) 467-4175,-87.67664964,42.05411958,"Mon 07:00 - 21:00, Tue 07:00 - 21:00, Wnd 07:00 - 21:00, Thr 07:00 - 21:00, Fri 07:00 - 21:00",,,0
Einstein Bros. Bagels,3312,2245B North Sheridan Blvd,Pancoe Life Sciences Bldg,Evanston,IL,60208,US,(847) 491-5856,-87.67362182,42.05752315,"Mon 08:00 - 16:00, Tue 08:00 - 16:00, Wnd 08:00 - 16:00, Thr 08:00 - 16:00, Fri 08:00 - 15:00",,,0
Einstein Bros. Bagels,2327,23 S Prospect Ave,,Park Ridge,IL,60068,US,(847) 823-9892,-87.82979567,42.0103115,"Mon 05:00 - 17:00, Tue 05:00 - 17:00, Wnd 05:00 - 17:00, Thr 05:00 - 17:00, Fri 05:00 - 17:00, Sat 06:00 - 16:00, Sun 06:00 - 15:00",,,0
Einstein Bros. Bagels,1197,54 S Washington St,,Hinsdale,IL,60521,US,(630) 794-9888,-87.92942959,41.80170482,"Mon 05:00 - 17:00, Tue 05:00 - 17:00, Wnd 05:00 - 17:00, Thr 05:00 - 17:00, Fri 05:00 - 17:00, Sat 06:00 - 16:00, Sun 06:00 - 15:00",,,0
Einstein Bros. Bagels,743,1401 Waukegan Rd Ste B,,Glenview,IL,60025,US,(847) 486-8700,-87.79802557,42.08037144,"Mon 05:00 - 17:00, Tue 05:00 - 17:00, Wnd 05:00 - 17:00, Thr 05:00 - 17:00, Fri 05:00 - 17:00, Sat 06:00 - 16:00, Sun 06:00 - 15:00",,,0
Einstein Bros. Bagels,2996,44 Main St,,Wayland,MA,1778,US,(508) 655-6420,-71.36405631,42.31704317,"Mon 05:00 - 17:00, Tue 05:00 - 17:00, Wnd 05:00 - 17:00, Thr 05:00 - 17:00, Fri 05:00 - 17:00, Sat 06:00 - 17:00, Sun 06:00 - 16:00",,,0
Einstein Bros. Bagels,6173,125 Clinton St,Cedarcrest Hall,Mansfield,PA,16933,US,(570) 662-4343,-77.07097986,41.80268985,"Mon 07:30 - 00:00, Tue 07:30 - 00:00, Wnd 07:30 - 00:00, Thr 07:30 - 00:00, Fri 07:30 - 18:00",,,0
Einstein Bros. Bagels,6216,800 S Rolling Rd,Library,Baltimore,MD,21228,US,(443) 840-5798,-76.73476235,39.25189002,"Mon 08:00 - 14:30, Tue 08:00 - 14:30, Wnd 08:00 - 14:30, Thr 08:00 - 14:30, Fri 08:00 - 14:30",,,0
Einstein Bros. Bagels,6238,107 Farm Fuel Road,Concourse C,Baltimore,MD,21240,US,(410) 691-6119,-76.66879749,39.18217073,"Mon 05:00 - 21:00, Tue 05:00 - 21:00, Wnd 05:00 - 21:00, Thr 05:00 - 21:00, Fri 05:00 - 21:00, Sat 05:00 - 21:00, Sun 05:00 - 21:00",,,0
Einstein Bros. Bagels,2714,9250 Baltimore National Pike,,Ellicott City,MD,21042,US,(410) 465-6574,-76.8304003,39.27778844,"Mon 05:00 - 17:00, Tue 05:00 - 17:00, Wnd 05:00 - 17:00, Thr 05:00 - 17:00, Fri 05:00 - 17:00, Sat 06:00 - 16:00, Sun 06:00 - 15:00",,,0
Einstein Bros. Bagels,3580,2101 Somerville Rd Ste 145,,Annapolis,MD,21401,US,(443) 603-0493,-76.53961147,38.98340088,"Mon 05:00 - 16:00, Tue 05:00 - 16:00, Wnd 05:00 - 16:00, Thr 05:00 - 16:00, Fri 05:00 - 16:00, Sat 06:00 - 16:00, Sun 06:00 - 15:00",,,0
Einstein Bros. Bagels,6236,131 Woodland Rd,Arnow Campus Center,Auburndale,MA,2466,US,(617) 243-2492,-71.24730594,42.3426648,"Mon 08:30 - 20:00, Tue 08:00 - 20:00, Wnd 08:00 - 20:00, Thr 08:00 - 20:00, Fri 08:00 - 20:00, Sat 11:00 - 18:00, Sun 11:00 - 18:00",,,0
Einstein Bros. Bagels,3440,415 South St MS 211,Shapiro Student Center,Waltham,MA,2453,US,(781) 736-4343,-71.26018243,42.36585003,"Mon 08:00 - 14:00, Tue 08:00 - 14:00, Wnd 08:00 - 14:00, Thr 08:00 - 14:00, Fri 08:00 - 20:00, Sat 11:00 - 20:00, Sun 11:00 - 23:30",,,0
Einstein Bros. Bagels,6160,640 Bay Rd,Scoville Learning Center,Queensbury,NY,12804,US,518-743-2200,-73.65385343,43.35322901,"Mon 07:00 - 21:00, Tue 07:00 - 21:00, Wnd 07:00 - 21:00, Thr 07:00 - 21:00, Fri 07:00 - 17:00",,,0
Einstein Bros. Bagels,3398,175 Forest St,LAC 395,Waltham,MA,2452,US,(781) 788-6407,-71.22000383,42.38805087,"Mon 08:00 - 21:00, Tue 08:00 - 21:00, Wnd 08:00 - 21:00, Thr 08:00 - 21:00, Fri 08:00 - 21:00, Sat 12:00 - 18:00, Sun 12:00 - 21:00",,,0
Einstein Bros. Bagels,3492,725 Commonwealth Ave,Cas Building,Boston,MA,2215,US,(617) 353-6683,-71.10561615,42.35024111,"Mon 07:30 - 15:30, Tue 07:30 - 15:30, Wnd 07:30 - 15:30, Thr 07:30 - 15:30, Fri 07:30 - 14:00",,,0
Einstein Bros. Bagels,6255,80 Boylston St,Coffee Cafe,Boston,MA,2116,US,(617) 824-8056,-71.06495,42.351955,"Mon 07:00 - 22:00, Tue 07:00 - 22:00, Wnd 07:00 - 22:00, Thr 07:00 - 22:00, Fri 07:00 - 22:00, Sat 07:00 - 19:00, Sun 07:00 - 19:00",,,0
Einstein Bros. Bagels,1673,40 Drum Hill Rd,,Chelmsford,MA,1824,US,(978) 441-2553,-71.36059259,42.6250326,"Mon 05:00 - 16:00, Tue 05:00 - 16:00, Wnd 05:00 - 16:00, Thr 05:00 - 16:00, Fri 05:00 - 16:00, Sat 06:00 - 16:00, Sun 06:00 - 15:00",,,0
Einstein Bros. Bagels,6153,1 University Ave,Onley Hall,Lowell,MA,1854,US,(978) 934-5764,-71.32552947,42.6555593,"Mon 07:00 - 19:00, Tue 07:00 - 19:00, Wnd 07:00 - 19:00, Thr 07:00 - 19:00, Fri 07:00 - 17:00",,,0
Einstein Bros. Bagels,2385,8397 Colesville Rd,,Silver Spring,MD,20910,US,(301) 587-2136,-77.03217906,38.99406123,"Mon 05:00 - 17:00, Tue 05:00 - 17:00, Wnd 05:00 - 17:00, Thr 05:00 - 17:00, Fri 05:00 - 17:00, Sat 06:00 - 16:00, Sun 06:00 - 15:00",,,0
Einstein Bros. Bagels,4080,6302 Del Cerro Blvd,,San Diego,CA,92120,US,(619) 582-1603,-117.0616997,32.78372048,"Mon 06:00 - 16:00, Tue 06:00 - 16:00, Wnd 06:00 - 16:00, Thr 06:00 - 16:00, Fri 06:00 - 16:00, Sat 06:00 - 15:00, Sun 06:00 - 15:00",,,0
Einstein Bros. Bagels,2426,8736 Lake Murray Blvd,,San Diego,CA,92119,US,(619) 697-2097,-117.0126317,32.80292406,"Mon 05:30 - 17:00, Tue 05:30 - 17:00, Wnd 05:30 - 17:00, Thr 05:30 - 17:00, Fri 05:30 - 17:00, Sat 06:00 - 16:00, Sun 06:00 - 15:00",,,0
Einstein Bros. Bagels,6055,45280 Seeley Dr,Argyros Health Center,La Quinta,CA,92253,US,(760) 610-7364,-116.2942454,33.71906394,"Mon 07:00 - 16:00, Tue 07:00 - 16:00, Wnd 07:00 - 16:00, Thr 07:00 - 16:00, Fri 07:00 - 16:00",,,0
Einstein Bros. Bagels,884,374 E H St Ste 1701,,Chula Vista,CA,91910,US,(619) 427-2511,-117.0493078,32.6399824,"Mon 06:00 - 17:00, Tue 06:00 - 17:00, Wnd 06:00 - 17:00, Thr 06:00 - 17:00, Fri 06:00 - 17:00, Sat 06:00 - 16:00, Sun 06:00 - 15:00",,,0
Einstein Bros. Bagels,3395,Langford Lake Rd,Bldg 918,Fort Irwin,CA,92310,US,(760) 386-2002,-116.6894065,35.26114329,"Mon 07:00 - 16:00, Tue 07:00 - 16:00, Wnd 07:00 - 16:00, Thr 07:00 - 16:00, Fri 07:00 - 16:00",,,0
Einstein Bros. Bagels,3525,1 Grand Ave #171B,Cal Poly Canyon Village,San Luis Obispo,CA,93407,US,(805) 756-1953,-120.6595709,35.30761183,"Mon 06:00 - 17:00, Tue 06:00 - 17:00, Wnd 06:00 - 17:00, Thr 06:00 - 17:00, Fri 06:00 - 17:00, Sat 06:00 - 17:00, Sun 06:00 - 17:00",,,0
Einstein Bros. Bagels,3448,9540 W Flamingo Rd Ste 170,,Las Vegas,NV,89147,US,(702) 240-0248,-115.3000611,36.11542365,"Mon 05:00 - 17:00, Tue 05:00 - 17:00, Wnd 05:00 - 17:00, Thr 05:00 - 17:00, Fri 05:00 - 17:00, Sat 06:00 - 16:00, Sun 06:00 - 15:00",,,0
Einstein Bros. Bagels,3533,6870 S Rainbow Blvd Ste 100,,Las Vegas,NV,89118,US,(702) 407-9224,-115.241511,36.06345782,"Mon 05:00 - 16:00, Tue 05:00 - 16:00, Wnd 05:00 - 16:00, Thr 05:00 - 16:00, Fri 05:00 - 16:00, Sat 06:00 - 16:00, Sun 06:00 - 15:00",,,0
Einstein Bros. Bagels,3601,3837 Blue Diamond Rd,,Las Vegas,NV,89139,US,(702) 802-6929,-115.1911863,36.03941444,"Mon 05:00 - 17:00, Tue 05:00 - 17:00, Wnd 05:00 - 17:00, Thr 05:00 - 17:00, Fri 05:00 - 17:00, Sat 06:00 - 16:00, Sun 06:00 - 15:00",,,0
Einstein Bros. Bagels,1799,9041 W Sahara Ave Ste 300,,Las Vegas,NV,89117,US,(702) 254-0919,-115.2943066,36.14384325,"Mon 05:00 - 16:00, Tue 05:00 - 16:00, Wnd 05:00 - 16:00, Thr 05:00 - 16:00, Fri 05:00 - 16:00, Sat 06:00 - 16:00, Sun 06:00 - 15:00",,,0
Einstein Bros. Bagels,1281,4010 S Rainbow Blvd Ste B,,Las Vegas,NV,89103,US,(702) 365-8855,-115.2425215,36.11615657,"Mon 05:00 - 16:00, Tue 05:00 - 16:00, Wnd 05:00 - 16:00, Thr 05:00 - 16:00, Fri 05:00 - 16:00, Sat 06:00 - 16:00, Sun 06:00 - 15:00",,,0
Einstein Bros. Bagels,3203,1990 Village Center Cir Ste 2,,Las Vegas,NV,89134,US,(702) 304-1192,-115.3051347,36.19185772,"Mon 05:00 - 17:00, Tue 05:00 - 17:00, Wnd 05:00 - 17:00, Thr 05:00 - 17:00, Fri 05:00 - 17:00, Sat 06:00 - 16:00, Sun 06:00 - 15:00",,,0
Einstein Bros. Bagels,3458,9480 S Eastern Ave Bldg C,,Las Vegas,NV,89123,US,(702) 947-6310,-115.1173834,36.01780477,"Mon 05:00 - 17:00, Tue 05:00 - 17:00, Wnd 05:00 - 17:00, Thr 05:00 - 17:00, Fri 05:00 - 17:00, Sat 06:00 - 16:00, Sun 06:00 - 15:00",,,0
Einstein Bros. Bagels,3600,4415 W Flamingo Rd,,Las Vegas,NV,89103,US,(702) 701-5043,-115.2002736,36.11481277,"Mon 05:00 - 16:00, Tue 05:00 - 16:00, Wnd 05:00 - 16:00, Thr 05:00 - 16:00, Fri 05:00 - 16:00, Sat 06:00 - 16:00, Sun 06:00 - 15:00",,,0
Einstein Bros. Bagels,6084,1200 Louisiana St,Hyatt Regency Houston,Houston,TX,77002,US,(713) 375-4771,-95.36944646,29.75707523,"Mon 03:00 - 03:00, Tue 03:00 - 03:00, Wnd 03:00 - 03:00, Thr 03:00 - 03:00, Fri 03:00 - 03:00, Sat 03:00 - 03:00, Sun 03:00 - 03:00",,,0
Einstein Bros. Bagels,2305,3407 Montrose Blvd Ste B2,,Houston,TX,77006,US,(713) 521-3842,-95.39062712,29.74211164,"Mon 05:00 - 16:00, Tue 05:00 - 16:00, Wnd 05:00 - 16:00, Thr 05:00 - 16:00, Fri 05:00 - 16:00, Sat 06:00 - 16:00, Sun 06:00 - 16:00",,,0
Einstein Bros. Bagels,6070,3100 Cleburne St,New Science Building,Houston,TX,77004,US,713-313-4832,-95.36490787,29.72364763,"Mon 07:00 - 17:00, Tue 07:00 - 17:00, Wnd 07:00 - 17:00, Thr 07:00 - 17:00, Fri 07:00 - 15:00",,,0
Einstein Bros. Bagels,3403,4800 Calhoun Rd,Phillip Hoffman Building,Houston,TX,77204,US,(713) 743-8619,-95.34380304,29.72154284,"Mon 06:00 - 16:00, Tue 06:00 - 16:00, Wnd 06:00 - 16:00, Thr 06:00 - 16:00, Fri 06:00 - 16:00, Sat 06:00 - 15:00, Sun 06:00 - 14:00",,,0
Einstein Bros. Bagels,1748,5300 Kirby Dr,,Houston,TX,77005,US,(713) 528-1992,-95.41889519,29.725164,"Mon 05:00 - 17:00, Tue 05:00 - 17:00, Wnd 05:00 - 17:00, Thr 05:00 - 17:00, Fri 05:00 - 17:00, Sat 06:00 - 16:00, Sun 06:00 - 16:00",,,0
Einstein Bros. Bagels,6277,6277 Bertner Ave,1 Mid Campus Building,Houston,TX,77030,US,713-745-6375,-95.39862,29.70061,"Mon 06:30 - 16:00, Tue 06:30 - 16:00, Wnd 06:30 - 16:00, Thr 06:30 - 16:00, Fri 06:30 - 16:00",,,0
Einstein Bros. Bagels,3365,5525 Weslayan St,,Houston,TX,77005,US,(713) 668-4190,-95.44113167,29.72214495,"Mon 05:00 - 17:00, Tue 05:00 - 17:00, Wnd 05:00 - 17:00, Thr 05:00 - 17:00, Fri 05:00 - 17:00, Sat 06:00 - 16:00, Sun 06:00 - 16:00",,,0
Einstein Bros. Bagels,6109,1 Trinity Pl,Coates University Center,San Antonio,TX,78212,US,210-999-8374,-98.48184103,29.46268587,"Mon 07:00 - 22:00, Tue 07:00 - 22:00, Wnd 07:00 - 22:00, Thr 07:00 - 22:00, Fri 07:00 - 22:00, Sat 10:00 - 14:00, Sun 10:00 - 22:00",,,0
Einstein Bros. Bagels,6096,2405 Gun Shed,IMCOM,San Antonio,TX,78234,US,(210) 271-3496,-98.45622261,29.44980062,"Mon 06:30 - 16:00, Tue 06:00 - 16:00, Wnd 06:00 - 16:00, Thr 06:00 - 16:00, Fri 06:00 - 16:00",,,0
Einstein Bros. Bagels,6064,3100 Schofield Rd #1179,Primary Care Clinic,Fort Sam Houston,TX,78234,US,210-223-1300,-98.44046042,29.45440427,"Mon 08:00 - 17:00, Tue 08:00 - 17:00, Wnd 08:00 - 17:00, Thr 08:00 - 17:00, Fri 08:00 - 17:00",,,0
Einstein Bros. Bagels,3568,7959 Fredericksburg Rd Ste 217,,San Antonio,TX,78229,US,(210) 614-2245,-98.56961344,29.51172482,"Mon 05:00 - 16:00, Tue 05:00 - 16:00, Wnd 05:00 - 16:00, Thr 05:00 - 16:00, Fri 05:00 - 16:00, Sat 06:00 - 15:00, Sun 07:00 - 15:00",,,0
Einstein Bros. Bagels,3567,12730 W Interstate 10 Ste 314,,San Antonio,TX,78230,US,(210) 699-7400,-98.593045,29.56261921,"Mon 05:00 - 16:00, Tue 05:00 - 16:00, Wnd 05:00 - 16:00, Thr 05:00 - 16:00, Fri 05:00 - 16:00, Sat 06:00 - 16:00, Sun 07:00 - 16:00",,,0
Einstein Bros. Bagels,6106,1 Utsa Cir,University Center,San Antonio,TX,78249,US,1-800-224-3564,-98.61779644,29.58525375,"Mon 07:00 - 21:00, Tue 07:00 - 21:00, Wnd 07:00 - 21:00, Thr 07:00 - 21:00, Fri 07:00 - 19:00",,,0
Einstein Bros. Bagels,3429,1 Utsa Cir,University Center,San Antonio,TX,78249,US,(210) 458-4036,-98.61776472,29.58544993,"Mon 06:00 - 18:00, Tue 06:00 - 18:00, Wnd 06:00 - 18:00, Thr 06:00 - 18:00, Fri 06:00 - 18:00, Sat 07:00 - 15:00, Sun 07:00 - 14:00",,,0
Einstein Bros. Bagels,3548,2797 Pfingsten Rd,,Glenview,IL,60026,US,(847) 272-4493,-87.84782189,42.10536316,"Mon 05:00 - 17:00, Tue 05:00 - 17:00, Wnd 05:00 - 17:00, Thr 05:00 - 17:00, Fri 05:00 - 17:00, Sat 06:00 - 16:00, Sun 06:00 - 15:00",,,0
Einstein Bros. Bagels,1362,443-445 N Main Street,,Glen Ellyn,IL,60137,US,(630) 790-8881,-88.06656008,41.87562762,"Mon 05:00 - 17:00, Tue 05:00 - 17:00, Wnd 05:00 - 17:00, Thr 05:00 - 17:00, Fri 05:00 - 17:00, Sat 06:00 - 16:00, Sun 06:00 - 15:00",,,0
Einstein Bros. Bagels,2613,19114 Montgomery Village Ave,,Gaithersburg,MD,20886,US,(301) 926-8509,-77.20551699,39.17080738,"Mon 05:00 - 16:00, Tue 05:00 - 16:00, Wnd 05:00 - 16:00, Thr 05:00 - 16:00, Fri 05:00 - 16:00, Sat 06:00 - 16:00, Sun 06:00 - 15:00",,,0
Einstein Bros. Bagels,2235,8542 Connecticut Ave Ste A,,Chevy Chase,MD,20815,US,(301) 656-0766,-77.07746624,38.99544155,"Mon 05:00 - 17:00, Tue 05:00 - 17:00, Wnd 05:00 - 17:00, Thr 05:00 - 17:00, Fri 05:00 - 17:00, Sat 06:00 - 16:00, Sun 06:00 - 15:00",,,0
Einstein Bros. Bagels,1910,531 Quince Orchard Rd,,Gaithersburg,MD,20878,US,(301) 947-4208,-77.21933316,39.1447419,"Mon 05:00 - 17:00, Tue 05:00 - 17:00, Wnd 05:00 - 17:00, Thr 05:00 - 17:00, Fri 05:00 - 17:00, Sat 06:00 - 16:00, Sun 06:00 - 15:00",,,0
Einstein Bros. Bagels,6067,50 Massachusetts Ave NE,Union Station,Washington,DC,20002,US,(202) 589-1740,-77.00546351,38.89783714,"Mon 04:00 - 22:00, Tue 04:00 - 22:00, Wnd 04:00 - 22:00, Thr 04:00 - 22:00, Fri 04:00 - 22:00, Sat 05:00 - 22:00, Sun 05:00 - 22:00",,,0
Einstein Bros. Bagels,1996,2233 Wisconsin Ave NW Ste 101,,Washington,DC,20007,US,(202) 448-9473,-77.07109539,38.9200516,"Mon 05:00 - 16:00, Tue 05:00 - 16:00, Wnd 05:00 - 16:00, Thr 05:00 - 16:00, Fri 05:00 - 16:00, Sat 06:00 - 16:00, Sun 06:00 - 15:00",,,0
Einstein Bros. Bagels,3297,4400 Massachusetts Ave NW,Mary Graydon Center,Washington,DC,20016,US,(202) 885-3179,-77.08899735,38.93674757,"Mon 07:30 - 15:00, Tue 07:30 - 15:00, Wnd 07:30 - 15:00, Thr 07:30 - 15:00, Fri 07:30 - 15:00",,,0
Einstein Bros. Bagels,6166,3800 Reservoir Rd NW,Car Barn,Washington,DC,20007,US,(202) 687-6766,-77.07001452,38.90567084,"Mon 08:30 - 16:00, Tue 08:30 - 16:00, Wnd 08:30 - 16:00, Thr 08:30 - 16:00, Fri 08:30 - 16:00",,,0
Einstein Bros. Bagels,6210,376 Hale St,"Life Sciences, Busines & Technology Bldg",Beverly,MA,1915,US,978-232-2110,-70.84267337,42.55397721,"Mon 07:00 - 21:00, Tue 07:00 - 21:00, Wnd 07:00 - 21:00, Thr 07:00 - 21:00, Fri 07:00 - 21:00, Sat 08:00 - 15:00",,,0
Einstein Bros. Bagels,2712,15810B Crain Hwy,,Brandywine,MD,20613,US,(240) 546-2000,-76.87463461,38.6767745,"Mon 05:00 - 17:00, Tue 05:00 - 17:00, Wnd 05:00 - 17:00, Thr 05:00 - 17:00, Fri 05:00 - 17:00, Sat 06:00 - 16:00, Sun 06:00 - 15:00",,,0
Einstein Bros. Bagels,3470,401 Dulany St,,Alexandria,VA,22314,US,(703) 535-1584,-77.06396153,38.80310262,"Mon 07:00 - 16:00, Tue 07:00 - 16:00, Wnd 07:00 - 16:00, Thr 07:00 - 16:00, Fri 07:00 - 16:00",,,0
Einstein Bros. Bagels,2922,3556D S Jefferson St,,Falls Church,VA,22041,US,(703) 998-5022,-77.12078523,38.84789316,"Mon 05:30 - 17:00, Tue 05:30 - 17:00, Wnd 05:30 - 17:00, Thr 05:30 - 17:00, Fri 05:30 - 17:00, Sat 06:00 - 16:00, Sun 06:00 - 15:00",,,0
Einstein Bros. Bagels,2922,3556D S Jefferson St,,Falls Church,VA,22041,US,(703) 998-5022,-77.12078523,38.84789316,"Mon 05:30 - 17:00, Tue 05:30 - 17:00, Wnd 05:30 - 17:00, Thr 05:30 - 17:00, Fri 05:30 - 17:00, Sat 06:00 - 16:00, Sun 06:00 - 15:00",,,0
Einstein Bros. Bagels,3617,913 W Broad St,,Falls Church,VA,22046,US,(703) 663-1831,-77.1827939,38.88954143,"Mon 05:00 - 17:00, Tue 05:00 - 17:00, Wnd 05:00 - 17:00, Thr 05:00 - 17:00, Fri 05:00 - 17:00, Sat 06:00 - 16:00, Sun 06:00 - 15:00",,,0
Einstein Bros. Bagels,1485,1825 Fountain Drive,,Reston,VA,20190,US,(703) 787-0600,-77.35646141,38.96115735,"Mon 05:00 - 16:00, Tue 05:00 - 16:00, Wnd 05:00 - 16:00, Thr 05:00 - 16:00, Fri 05:00 - 16:00, Sat 06:00 - 16:00, Sun 06:00 - 15:00",,,0
Einstein Bros. Bagels,2681,9490 Main St,,Fairfax,VA,22031,US,(703) 250-4045,-77.27141822,38.84176515,"Mon 05:00 - 17:00, Tue 05:00 - 17:00, Wnd 05:00 - 17:00, Thr 05:00 - 17:00, Fri 05:00 - 17:00, Sat 06:00 - 16:00, Sun 06:00 - 15:00",,,0
Einstein Bros. Bagels,2680,8317 Old Keene Mill Rd,,Springfield,VA,22152,US,(703) 913-6175,-77.23240515,38.77907944,"Mon 05:00 - 17:00, Tue 05:00 - 17:00, Wnd 05:00 - 17:00, Thr 05:00 - 17:00, Fri 05:00 - 17:00, Sat 06:00 - 16:00, Sun 06:00 - 15:00",,,0
Einstein Bros. Bagels,6129,5757 Wayne Newton Blvd,"Terminal 1, B Gates",Las Vegas,NV,89111,US,(702) 261-4171,-115.151103,36.08290872,"Mon 06:00 - 20:00, Tue 06:00 - 20:00, Wnd 06:00 - 20:00, Thr 06:00 - 20:00, Fri 06:00 - 20:00, Sat 06:00 - 20:00, Sun 06:00 - 20:00",,,0
Einstein Bros. Bagels,2811,2570 S Decatur Blvd,,Las Vegas,NV,89102,US,(702) 227-8776,-115.2074615,36.14330082,"Mon 05:00 - 17:00, Tue 05:00 - 17:00, Wnd 05:00 - 17:00, Thr 05:00 - 17:00, Fri 05:00 - 17:00, Sat 06:00 - 16:00, Sun 06:00 - 15:00",,,0
Einstein Bros. Bagels,3148,7541 W Lake Mead Blvd Ste 1,,Las Vegas,NV,89128,US,(702) 838-0042,-115.2587752,36.19566446,"Mon 05:00 - 17:00, Tue 05:00 - 17:00, Wnd 05:00 - 17:00, Thr 05:00 - 17:00, Fri 05:00 - 17:00, Sat 06:00 - 16:00, Sun 06:00 - 15:00",,,0
Einstein Bros. Bagels,3204,7291 S Eastern Ave Ste A,,Las Vegas,NV,89119,US,(702) 407-5130,-115.1206985,36.05761881,"Mon 05:00 - 16:00, Tue 05:00 - 16:00, Wnd 05:00 - 16:00, Thr 05:00 - 16:00, Fri 05:00 - 16:00, Sat 06:00 - 16:00, Sun 06:00 - 15:00",,,0
Einstein Bros. Bagels,3532,360 E Tropicana Ave Ste A101,,Las Vegas,NV,89169,US,(702) 262-1619,-115.1562727,36.10167305,"Mon 05:00 - 16:00, Tue 05:00 - 16:00, Wnd 05:00 - 16:00, Thr 05:00 - 16:00, Fri 05:00 - 16:00, Sat 05:00 - 15:00, Sun 05:00 - 15:00",,,0
Einstein Bros. Bagels,2803,8300 W Cheyenne Ave,,Las Vegas,NV,89129,US,(702) 645-3771,-115.2748027,36.2188014,"Mon 05:00 - 17:00, Tue 05:00 - 17:00, Wnd 05:00 - 17:00, Thr 05:00 - 17:00, Fri 05:00 - 17:00, Sat 06:00 - 16:00, Sun 06:00 - 15:00",,,0
Einstein Bros. Bagels,6083,4505 S Maryland Pkwy #457001,Student Recreation & Wellness Ctr.,Las Vegas,NV,89154,US,1-800-224-3579,-115.1418353,36.10339724,"Mon 08:00 - 22:00, Tue 08:00 - 22:00, Wnd 08:00 - 22:00, Thr 08:00 - 22:00, Fri 07:00 - 17:00, Sat 09:30 - 16:00, Sun 15:00 - 22:00",,,0
Einstein Bros. Bagels,1520,4626 S Maryland Pkwy,,Las Vegas,NV,89119,US,(702) 795-7800,-115.1369373,36.10570884,"Mon 05:00 - 16:00, Tue 05:00 - 16:00, Wnd 05:00 - 16:00, Thr 05:00 - 16:00, Fri 05:00 - 16:00, Sat 06:00 - 16:00, Sun 06:00 - 15:00",,,0
Einstein Bros. Bagels,6082,4505 S Maryland Pkwy,Science & Engineering Bldg. (SEB),Las Vegas,NV,89154,US,(702) 774-1454,-115.1416207,36.11096702,"Mon 07:00 - 17:30, Tue 07:00 - 17:30, Wnd 07:00 - 17:30, Thr 07:00 - 17:30, Fri 07:00 - 14:00",,,0
Einstein Bros. Bagels,3449,6770 N Durango Dr Ste 140,,Las Vegas,NV,89149,US,(702) 655-6932,-115.2873149,36.28379059,"Mon 05:00 - 17:00, Tue 05:00 - 17:00, Wnd 05:00 - 17:00, Thr 05:00 - 17:00, Fri 05:00 - 17:00, Sat 06:00 - 16:00, Sun 06:00 - 15:00",,,0
Einstein Bros. Bagels,1214,1405 W Sunset Rd Ste 107,,Henderson,NV,89014,US,(702) 547-6300,-115.0471702,36.06345388,"Mon 05:00 - 17:00, Tue 05:00 - 17:00, Wnd 05:00 - 17:00, Thr 05:00 - 17:00, Fri 05:00 - 17:00, Sat 06:00 - 16:00, Sun 06:00 - 15:00",,,0
Einstein Bros. Bagels,6019,Pvt Bolio Street,Bldg 517,Presidio of Monterey,CA,93944,US,(831) 372-2234,-121.899991,36.6069612,"Mon 06:00 - 15:00, Tue 06:00 - 15:00, Wnd 06:00 - 15:00, Thr 06:00 - 15:00, Fri 06:00 - 15:00",,,0
Einstein Bros. Bagels,6246,1661 Airport Blvd,Terminal A21,San Jose,CA,95110,US,(408) 390-5090,-121.9297624,37.3698025,"Mon 05:00 - 22:00, Tue 05:00 - 22:00, Wnd 05:00 - 22:00, Thr 05:00 - 22:00, Fri 05:00 - 22:00, Sat 05:00 - 22:00, Sun 05:00 - 22:00",,,0
Einstein Bros. Bagels,6050,25800 Carlos Bee Blvd,New Student Union,Hayward,CA,94542,US,(510) 885-7006,-122.0539302,37.65695559,"Mon 07:00 - 20:00, Tue 07:00 - 20:00, Wnd 07:30 - 20:00, Thr 07:00 - 20:00, Fri 07:00 - 16:00",,,0
Einstein Bros. Bagels,3206,122 N 2nd St,Hotel Lobby,Phoenix,AZ,85004,US,(602) 440-3185,-112.0715787,33.45011206,"Mon 06:00 - 15:00, Tue 06:00 - 15:00, Wnd 06:00 - 15:00, Thr 06:00 - 15:00, Fri 06:00 - 15:00, Sat 06:00 - 15:00, Sun 06:00 - 15:00",,,0
Einstein Bros. Bagels,2081,530 E McDowell Rd Ste 111,,Phoenix,AZ,85004,US,(602) 262-4202,-112.0659387,33.46638604,"Mon 05:00 - 17:00, Tue 05:00 - 17:00, Wnd 05:00 - 17:00, Thr 05:00 - 17:00, Fri 05:00 - 17:00, Sat 06:00 - 15:00, Sun 06:00 - 15:00",,,0
Einstein Bros. Bagels,3090,1641 E Camelback Rd,,Phoenix,AZ,85016,US,(602) 265-7291,-112.0456949,33.50864571,"Mon 05:00 - 17:00, Tue 05:00 - 17:00, Wnd 05:00 - 17:00, Thr 05:00 - 17:00, Fri 05:00 - 17:00, Sat 06:00 - 16:00, Sun 06:00 - 15:00",,,0
Einstein Bros. Bagels,6284,3300 W. Camelback Rd.,Student Union,Phoenix,AZ,85017,US,,-112.1299626,33.51327552,"Mon 07:00 - 23:00, Tue 07:00 - 23:00, Wnd 07:00 - 23:00, Thr 07:00 - 23:00, Fri 07:00 - 23:00, Sat 08:00 - 22:00, Sun 08:00 - 22:00",,,0
Einstein Bros. Bagels,1232,4401 E Indian School Rd,,Phoenix,AZ,85018,US,(602) 808-2022,-111.9863827,33.49455275,"Mon 05:00 - 17:00, Tue 05:00 - 17:00, Wnd 05:00 - 17:00, Thr 05:00 - 17:00, Fri 05:00 - 17:00, Sat 06:00 - 16:00, Sun 06:00 - 15:00",,,0
Einstein Bros. Bagels,2987,600 W Sam Houston Pkwy N Ste 700,,Houston,TX,77024,US,(713) 463-8687,-95.56214956,29.77533472,"Mon 05:00 - 17:00, Tue 05:00 - 17:00, Wnd 05:00 - 17:00, Thr 05:00 - 17:00, Fri 05:00 - 17:00, Sat 06:00 - 16:00, Sun 06:00 - 16:00",,,0
Einstein Bros. Bagels,3543,1275 Eldridge Pkwy Ste 200,,Houston,TX,77077,US,(281) 596-8402,-95.62468685,29.76330437,"Mon 05:00 - 16:00, Tue 05:00 - 16:00, Wnd 05:00 - 16:00, Thr 05:00 - 16:00, Fri 05:00 - 16:00, Sat 06:00 - 16:00, Sun 06:00 - 16:00",,,0
Einstein Bros. Bagels,6010,3100  Terminal Drive,George Bush Intercontinental,Houston,TX,77205,US,,-95.33848708,29.98552088,"Mon 06:00 - 21:00, Tue 06:00 - 21:00, Wnd 06:00 - 21:00, Thr 06:00 - 21:00, Fri 06:00 - 21:00, Sat 06:00 - 21:00, Sun 06:00 - 21:00",,,0
Einstein Bros. Bagels,6139,2800 N Terminal Rd,Terminal  E,Houston,TX,77032,US,1-800-224-3575,-95.33517598,29.98531318,"Mon 05:00 - 22:00, Tue 05:00 - 22:00, Wnd 05:00 - 22:00, Thr 05:00 - 22:00, Fri 05:00 - 22:00, Sat 05:00 - 22:00, Sun 05:00 - 22:00",,,0
Einstein Bros. Bagels,2799,923 Bay Area Blvd,,Houston,TX,77058,US,(281) 461-3200,-95.12114002,29.55462159,"Mon 05:00 - 16:00, Tue 05:00 - 16:00, Wnd 05:00 - 16:00, Thr 05:00 - 16:00, Fri 05:00 - 16:00, Sat 06:00 - 16:00, Sun 06:00 - 16:00",,,0
Einstein Bros. Bagels,6294,2240 Gulf Freeway South,,League City,TX,77573,US,,-95.0988235474,29.4806807452,"Mon 07:00 - 14:00, Tue 07:00 - 14:00, Wnd 07:00 - 14:00, Thr 07:00 - 14:00, Fri 07:00 - 14:00",,,0
Einstein Bros. Bagels,6295,301 8th St,,Galveston,TX,77550,US,409-266-9947,-94.77692294,29.3109802,"Mon 06:30 - 14:00, Tue 06:30 - 14:00, Wnd 06:30 - 14:00, Thr 06:30 - 14:00, Fri 06:30 - 14:00, Sat 06:30 - 14:00, Sun 06:30 - 14:00",,,0
Einstein Bros. Bagels,3431,1802 Avenue I,Lowman Student Center: Pawprint Food Cou,Huntsville,TX,77340,US,(936) 294-1916,-95.54813875,30.7149302,"Mon 06:00 - 18:00, Tue 06:00 - 18:00, Wnd 06:30 - 18:00, Thr 06:00 - 18:00, Fri 06:00 - 18:00, Sat 07:00 - 18:00, Sun 07:00 - 16:00",,,0
Einstein Bros. Bagels,6089,1802 Avenue I,Performing Arts,Huntsville,TX,77340,US,1-800-224-3568,-95.5462753,30.71619996,"Mon 08:00 - 15:00, Tue 08:00 - 15:00, Wnd 08:00 - 15:00, Thr 08:00 - 15:00, Fri 08:00 - 15:00",,,0
Einstein Bros. Bagels,6187,233 Houston Street Bldg 495,Sbisa,College Station,TX,77843,US,979-845-1641,-96.3440178,30.61708442,"Mon 07:00 - 15:00, Tue 07:00 - 15:00, Wnd 07:00 - 15:00, Thr 07:00 - 15:00, Fri 08:00 - 15:00, Sat 08:00 - 15:00",,,0
Einstein Bros. Bagels,3489,375 New Ranch Bldg,New Ranch,Lake Charles,LA,70609,US,(337) 529-7822,-93.21638,30.179876,"Mon 07:00 - 18:00, Tue 07:00 - 18:00, Wnd 07:00 - 18:00, Thr 07:00 - 18:00, Fri 07:00 - 14:00",,,0
Einstein Bros. Bagels,3430,1950 North Street,Ralph Steen Library,Nacogdoches,TX,75962,US,(936) 468-1268,-94.64691127,31.6205305,"Mon 06:00 - 18:00, Tue 06:00 - 18:00, Wnd 06:00 - 18:00, Thr 06:00 - 18:00, Fri 06:00 - 18:00, Sat 06:30 - 16:00, Sun 07:00 - 15:00",,,0
Einstein Bros. Bagels,3638,2424 FM 685 #100,,Pflugerville,TX,78660,US,(512) 358-4752,-97.59826563,30.46283205,"Mon 05:00 - 16:00, Tue 05:00 - 16:00, Wnd 05:00 - 16:00, Thr 05:00 - 16:00, Fri 05:00 - 16:00, Sat 06:00 - 16:00, Sun 07:00 - 16:00",,,0
Einstein Bros. Bagels,6133,550 C St W,AFPC Bldg,Randolph Afb,TX,78150,US,210-566-3267,-98.28631,29.533415,"Mon 06:00 - 15:00, Tue 06:00 - 15:00, Wnd 06:00 - 15:00, Thr 06:00 - 15:00, Fri 06:00 - 15:00",,,0
Einstein Bros. Bagels,3596,156 S State Highway 46 Ste 100,,New Braunfels,TX,78130,US,(830) 358-5055,-98.09544699,29.70098737,"Mon 05:00 - 17:00, Tue 05:00 - 17:00, Wnd 05:00 - 17:00, Thr 05:00 - 17:00, Fri 05:00 - 17:00, Sat 06:00 - 16:00, Sun 07:00 - 15:00",,,0
Einstein Bros. Bagels,3539,700 Moore Street,The Den,San Marcos,TX,78666,US,(512) 245-9925,-97.93897035,29.88831401,"Mon 07:00 - 20:00, Tue 07:00 - 20:00, Wnd 07:00 - 20:00, Thr 07:00 - 20:00, Fri 07:00 - 20:00",,,0
Einstein Bros. Bagels,3606,6611 S MoPac Expy,,Austin,TX,78749,US,(512) 605-6470,-97.83556231,30.21955951,"Mon 05:00 - 15:00, Tue 05:00 - 15:00, Wnd 05:00 - 15:00, Thr 05:00 - 15:00, Fri 05:00 - 15:00, Sat 06:00 - 15:00, Sun 07:00 - 15:00",,,0
Einstein Bros. Bagels,3633,12532 FM 2244 Rd Bldg 2,,Bee Cave,TX,78738,US,(512) 687-0681,-97.93637517,30.30572853,"Mon 05:00 - 15:00, Tue 05:00 - 15:00, Wnd 05:00 - 15:00, Thr 05:00 - 15:00, Fri 05:00 - 15:00, Sat 06:00 - 15:00, Sun 07:00 - 15:00",,,0
Einstein Bros. Bagels,2846,2404 Guadalupe St,,Austin,TX,78705,US,(512) 457-8722,-97.7417623,30.28806686,"Mon 05:00 - 17:00, Tue 05:00 - 17:00, Wnd 05:00 - 17:00, Thr 05:00 - 17:00, Fri 05:00 - 17:00, Sat 06:00 - 16:00, Sun 07:00 - 16:00",,,0
Einstein Bros. Bagels,3111,3022 W Anderson Ln,,Austin,TX,78757,US,(512) 374-9666,-97.74053831,30.36120997,"Mon 05:00 - 17:00, Tue 05:00 - 17:00, Wnd 05:00 - 17:00, Thr 05:00 - 17:00, Fri 05:00 - 17:00, Sat 06:00 - 16:00, Sun 07:00 - 16:00",,,0
Einstein Bros. Bagels,1908,4607 W Braker Ln Ste 500,,Austin,TX,78759,US,(512) 338-6711,-97.7450853,30.39987583,"Mon 05:00 - 17:00, Tue 05:00 - 17:00, Wnd 05:00 - 17:00, Thr 05:00 - 17:00, Fri 05:00 - 17:00, Sat 06:00 - 16:00, Sun 07:00 - 16:00",,,0
Einstein Bros. Bagels,3462,12400 N Interstate 35 Ste A,,Austin,TX,78753,US,(512) 973-0226,-97.67608297,30.40425689,"Mon 05:00 - 17:00, Tue 05:00 - 17:00, Wnd 05:00 - 17:00, Thr 05:00 - 17:00, Fri 05:00 - 17:00, Sat 06:00 - 16:00, Sun 07:00 - 16:00",,,0
Einstein Bros. Bagels,3487,1465 E Whitestone Blvd Ste H100,,Cedar Park,TX,78613,US,(512) 259-3985,-97.80971058,30.5278313,"Mon 05:00 - 16:00, Tue 05:00 - 16:00, Wnd 05:00 - 16:00, Thr 05:00 - 16:00, Fri 05:00 - 16:00, Sat 06:00 - 16:00, Sun 07:00 - 16:00",,,0
Einstein Bros. Bagels,3638,2424 FM 685 #100,,Pflugerville,TX,78660,US,(512) 358-4752,-97.59826563,30.46283205,"Mon 05:00 - 16:00, Tue 05:00 - 16:00, Wnd 05:00 - 16:00, Thr 05:00 - 16:00, Fri 05:00 - 16:00, Sat 06:00 - 16:00, Sun 07:00 - 16:00",,,0
Einstein Bros. Bagels,3349,18010 Battalion Ave,18010,Ft Hood,TX,76544,US,(254) 532-7293,-97.76621299,31.14202028,"Mon 06:00 - 14:00, Tue 06:00 - 14:00, Wnd 06:00 - 14:00, Thr 06:00 - 14:00, Fri 06:00 - 14:00, Sat 06:00 - 14:00, Sun 06:00 - 14:00",,,0
Einstein Bros. Bagels,6052,6300 Ocean Dr,Island Hall,Corpus Christi,TX,78412,US,361-825-3979,-97.3240709,27.71101721,"Mon 08:00 - 19:00, Tue 08:00 - 19:00, Wnd 08:00 - 19:00, Thr 08:00 - 19:00, Fri 08:00 - 14:30",,,0
Einstein Bros. Bagels,6105,1311 South 5th Street,Bill Daniels Student Center,Waco,TX,76796,US,254-710-3329,-97.12104476,31.54692053,"Mon 07:00 - 20:00, Tue 07:00 - 20:00, Wnd 07:00 - 20:00, Thr 07:00 - 20:00, Fri 07:00 - 16:00",,,0
Einstein Bros. Bagels,6316,2601 W. Avenue N,,San Angelo,TX,76901,US,,-100.4663550854,31.4434276521,"Mon 07:30 - 18:00, Tue 07:30 - 18:00, Wnd 07:30 - 18:00, Thr 07:30 - 18:00, Fri 07:30 - 18:00, Sat 10:00 - 15:00, Sun 10:00 - 15:00",,,0
Einstein Bros. Bagels,3491,523 Fawell Blvd,Art Center Bldg,Glen Ellyn,IL,60137,US,(630) 942-2666,-88.0696824,41.84254109,"Mon 06:00 - 15:00, Tue 06:00 - 15:00, Wnd 06:00 - 15:00, Thr 06:00 - 15:00, Fri 06:00 - 15:00, Sat 06:00 - 15:00, Sun 06:00 - 15:00",,,0
Einstein Bros. Bagels,6219,901 MacArthur Blvd,,Munster,IN,46321,US,,-87.50619,41.55065,"Mon 06:00 - 16:00, Tue 06:00 - 16:00, Wnd 06:00 - 16:00, Thr 06:00 - 16:00, Fri 06:00 - 16:00",,,0
Einstein Bros. Bagels,3516,1422 N Meacham Rd,,Schaumburg,IL,60173,US,(847) 285-5237,-88.04582348,42.05518516,"Mon 05:00 - 16:00, Tue 05:00 - 16:00, Wnd 05:00 - 16:00, Thr 05:00 - 16:00, Fri 05:00 - 16:00, Sat 06:00 - 16:00, Sun 06:00 - 15:00",,,0
Einstein Bros. Bagels,3495,1727 Freedom Dr Ste 101,,Naperville,IL,60563,US,(630) 955-1138,-88.12675719,41.80214222,"Mon 05:00 - 17:00, Tue 05:00 - 17:00, Wnd 05:00 - 17:00, Thr 05:00 - 17:00, Fri 05:00 - 17:00, Sat 06:00 - 16:00, Sun 06:00 - 15:00",,,0
Einstein Bros. Bagels,1282,625 S County Farm Rd,,Wheaton,IL,60187,US,(630) 871-9888,-88.1420933,41.85924056,"Mon 05:00 - 17:00, Tue 05:00 - 17:00, Wnd 05:00 - 17:00, Thr 05:00 - 17:00, Fri 05:00 - 17:00, Sat 06:00 - 16:00, Sun 06:00 - 15:00",,,0
Einstein Bros. Bagels,2089,987 E Dundee Rd,,Palatine,IL,60074,US,(847) 991-9888,-88.01960268,42.13880886,"Mon 05:00 - 16:00, Tue 05:00 - 16:00, Wnd 05:00 - 16:00, Thr 05:00 - 16:00, Fri 05:00 - 16:00, Sat 06:00 - 16:00, Sun 06:00 - 15:00",,,0
Einstein Bros. Bagels,3177,185 Milwaukee Ave,,Lincolnshire,IL,60069,US,(847) 478-5240,-87.93198098,42.20356518,"Mon 05:00 - 16:00, Tue 05:00 - 16:00, Wnd 05:00 - 16:00, Thr 05:00 - 16:00, Fri 05:00 - 16:00, Sat 06:00 - 16:00, Sun 06:00 - 15:00",,,0
Einstein Bros. Bagels,1236,22 Jackson Ave,,Naperville,IL,60540,US,(630) 416-9888,-88.14888781,41.77175714,"Mon 05:00 - 16:00, Tue 05:00 - 16:00, Wnd 05:00 - 16:00, Thr 05:00 - 16:00, Fri 05:00 - 16:00, Sat 06:00 - 16:00, Sun 06:00 - 15:00",,,0
Einstein Bros. Bagels,1198,728 N Western Ave,,Lake Forest,IL,60045,US,(847) 615-9888,-87.84036699,42.252923,"Mon 05:00 - 17:00, Tue 05:00 - 17:00, Wnd 05:00 - 17:00, Thr 05:00 - 17:00, Fri 05:00 - 17:00, Sat 06:00 - 16:00, Sun 06:00 - 15:00",,,0
Einstein Bros. Bagels,1468,208 S Cook St,,Barrington,IL,60010,US,(847) 842-9888,-88.13502379,42.1529644,"Mon 05:00 - 16:00, Tue 05:00 - 16:00, Wnd 05:00 - 16:00, Thr 05:00 - 16:00, Fri 05:00 - 16:00, Sat 06:00 - 16:00, Sun 06:00 - 15:00",,,0
Einstein Bros. Bagels,1738,1443 Peterson Rd,,Libertyville,IL,60048,US,(847) 549-9888,-87.98182024,42.30519768,"Mon 05:00 - 17:00, Tue 05:00 - 17:00, Wnd 05:00 - 17:00, Thr 05:00 - 17:00, Fri 05:00 - 17:00, Sat 06:00 - 16:00, Sun 06:00 - 15:00",,,0
Einstein Bros. Bagels,2435,6641 Grand Ave Ste A,,Gurnee,IL,60031,US,(847) 855-0130,-87.97043836,42.3849651,"Mon 05:00 - 16:00, Tue 05:00 - 16:00, Wnd 05:00 - 16:00, Thr 05:00 - 16:00, Fri 05:00 - 16:00, Sat 06:00 - 16:00, Sun 06:00 - 15:00",,,0
Einstein Bros. Bagels,2434,289 N Randall Rd,,Lake In The Hills,IL,60156,US,(847) 458-9862,-88.33475187,42.17990645,"Mon 05:00 - 15:00, Tue 05:00 - 15:00, Wnd 05:00 - 15:00, Thr 05:00 - 15:00, Fri 05:00 - 15:00, Sat 06:00 - 16:00, Sun 06:00 - 15:00",,,0
Einstein Bros. Bagels,3300,2001 Alford Park Dr,Student Library,Kenosha,WI,53140,US,(262) 597-8165,-87.8207629,42.62278778,"Mon 07:00 - 20:00, Tue 07:00 - 20:00, Wnd 07:00 - 20:00, Thr 07:00 - 20:00, Fri 07:00 - 20:00, Sat 10:00 - 18:00, Sun 10:00 - 20:00",,,0
Einstein Bros. Bagels,3536,1550 N Dysart Rd Ste A1,,Goodyear,AZ,85395,US,(623) 536-3155,-112.3415999,33.46378618,"Mon 05:00 - 17:00, Tue 05:00 - 17:00, Wnd 05:00 - 17:00, Thr 05:00 - 17:00, Fri 05:00 - 17:00, Sat 06:00 - 16:00, Sun 07:00 - 15:00",,,0
Einstein Bros. Bagels,3616,13746 W Bell Rd,,Surprise,AZ,85374,US,(623) 277-4996,-112.3547591,33.64141866,"Mon 05:00 - 16:00, Tue 05:00 - 16:00, Wnd 05:00 - 16:00, Thr 05:00 - 16:00, Fri 05:00 - 16:00, Sat 06:00 - 16:00, Sun 06:00 - 15:00",,,0
Einstein Bros. Bagels,1609,10 Fort Eddy Rd,,Concord,NH,3301,US,(603) 225-9776,-71.53117114,43.21009561,"Mon 05:00 - 17:00, Tue 05:00 - 17:00, Wnd 05:00 - 17:00, Thr 05:00 - 17:00, Fri 05:00 - 17:00, Sat 06:00 - 16:00, Sun 06:00 - 15:00",,,0
Einstein Bros. Bagels,2680,8317 Old Keene Mill Rd,,Springfield,VA,22152,US,(703) 913-6175,-77.23240515,38.77907944,"Mon 05:00 - 17:00, Tue 05:00 - 17:00, Wnd 05:00 - 17:00, Thr 05:00 - 17:00, Fri 05:00 - 17:00, Sat 06:00 - 16:00, Sun 06:00 - 15:00",,,0
Einstein Bros. Bagels,6087,4400 University Dr,University Hall,Fairfax,VA,22030,US,(703) 593-7084,-77.30788724,38.83504864,"Mon 07:30 - 18:00, Tue 07:30 - 18:00, Wnd 07:30 - 18:00, Thr 07:30 - 18:00, Fri 07:30 - 18:00",,,0
Einstein Bros. Bagels,6080,4400 University Dr,Engineering Bldg,Fairfax,VA,22030,US,(703) 993-5573,-77.30521039,38.82753205,"Mon 07:30 - 17:00, Tue 07:30 - 17:00, Wnd 07:30 - 17:00, Thr 07:30 - 17:00, Fri 07:30 - 17:00",,,0
Einstein Bros. Bagels,6184,1 Winooski Park,Quad Commons,Colchester,VT,5439,US,(802)-654-2224,-73.16459192,44.49533111,"Mon 07:30 - 00:00, Tue 07:30 - 00:00, Wnd 07:30 - 00:00, Thr 07:30 - 00:00, Fri 07:30 - 02:00, Sat 11:00 - 02:00, Sun 11:00 - 00:00",,,0
Einstein Bros. Bagels,6161,319 Pratt St,Hadley Union Building,Indiana,PA,15701,US,(724) 357-5710,-79.1549733,40.61947688,"Mon 07:00 - 20:00, Tue 07:00 - 20:00, Wnd 07:00 - 20:00, Thr 07:00 - 20:00, Fri 07:00 - 20:00, Sat 11:00 - 20:00, Sun 11:00 - 20:00",,,0
Einstein Bros. Bagels,6228,81 Rugar Street,,Plattsburgh,NY,12901,US,(518) 564-2207,-73.46751944,44.69739724,"Mon 07:00 - 17:00, Tue 07:00 - 17:00, Wnd 07:00 - 17:00, Thr 07:00 - 17:00, Fri 07:00 - 17:00",,,0
Einstein Bros. Bagels,1912,5607 W Broad St,,Richmond,VA,23230,US,(804) 285-7370,-77.50276231,37.58861994,"Mon 05:00 - 17:00, Tue 05:00 - 17:00, Wnd 05:00 - 17:00, Thr 05:00 - 17:00, Fri 05:00 - 17:00, Sat 06:00 - 16:00, Sun 06:00 - 15:00",,,0
Einstein Bros. Bagels,6076,1200 E Marshall St,Gateway Building,Richmond,VA,23298,US,(804) 628-3364,-77.43053073,37.54031205,"Mon 05:30 - 22:30, Tue 05:30 - 22:30, Wnd 05:30 - 22:30, Thr 05:30 - 22:30, Fri 05:30 - 22:30, Sat 06:00 - 21:00, Sun 06:00 - 21:00",,,0
Einstein Bros. Bagels,6073,810 Cathedral Pl,Schafer Hall,Richmond,VA,23284,US,757-585-5848,-77.45331436,37.54833484,"Mon 07:00 - 21:00, Tue 07:00 - 21:00, Wnd 07:00 - 21:00, Thr 07:00 - 21:00, Fri 07:00 - 15:00",,,0
Einstein Bros. Bagels,2875,3320 Pump Rd,,Richmond,VA,23233,US,(804) 364-1109,-77.61551604,37.64727722,"Mon 05:00 - 17:00, Tue 05:00 - 17:00, Wnd 05:00 - 17:00, Thr 05:00 - 17:00, Fri 05:00 - 17:00, Sat 06:00 - 16:00, Sun 06:00 - 15:00",,,0
Einstein Bros. Bagels,1714,1368 Gaskins Rd,,Richmond,VA,23238,US,(804) 741-9880,-77.59078,37.6056,"Mon 05:00 - 17:00, Tue 05:00 - 17:00, Wnd 05:00 - 17:00, Thr 05:00 - 17:00, Fri 05:00 - 17:00, Sat 06:00 - 16:00, Sun 06:00 - 15:00",,,0
Einstein Bros. Bagels,1913,3058 Stony Point Rd,,Richmond,VA,23235,US,(804) 320-0988,-77.56579233,37.5371238,"Mon 05:00 - 17:00, Tue 05:00 - 17:00, Wnd 05:00 - 17:00, Thr 05:00 - 17:00, Fri 05:00 - 17:00, Sat 06:00 - 16:00, Sun 06:00 - 15:00",,,0
Einstein Bros. Bagels,1913,3058 Stony Point Rd,,Richmond,VA,23235,US,(804) 320-0988,-77.56579233,37.5371238,"Mon 05:00 - 17:00, Tue 05:00 - 17:00, Wnd 05:00 - 17:00, Thr 05:00 - 17:00, Fri 05:00 - 17:00, Sat 06:00 - 16:00, Sun 06:00 - 15:00",,,0
Einstein Bros. Bagels,6127,4427 Hampton Blvd,Library,Norfolk,VA,23508,US,(757) 683-7012,-76.30517148,36.88427619,"Mon 08:00 - 12:00, Tue 08:00 - 12:00, Wnd 08:00 - 12:00, Thr 08:00 - 12:00, Fri 08:00 - 18:00, Sat 11:00 - 16:00, Sun 11:00 - 00:00",,,0
Einstein Bros. Bagels,6037,562 Quarters Rd Bldg 12420,Logistics University Bookstore,Fort Lee,VA,23801,US,(804) 732-1925,-77.34560245,37.22552561,"Mon 07:00 - 14:00, Tue 07:00 - 14:00, Wnd 07:00 - 14:00, Thr 07:00 - 14:00, Fri 07:00 - 14:00",,,0
Einstein Bros. Bagels,6104,400 Emmet Street,UVA Bookstore,Charlottesville,VA,22903,US,434-243-8921,-78.50728577,38.03618015,"Mon 08:30 - 15:00, Tue 08:30 - 15:00, Wnd 08:30 - 15:00, Thr 08:30 - 15:00, Fri 08:30 - 15:00",,,0
Einstein Bros. Bagels,6108,85 Engineers Way,ITE Rice Hall,Charlottesville,VA,22903,US,(434) 924-4423,-78.51069275,38.03163252,"Mon 08:00 - 15:00, Tue 08:00 - 15:00, Wnd 08:00 - 15:00, Thr 08:00 - 15:00, Fri 08:30 - 15:00",,,0
Einstein Bros. Bagels,4069,1148 Volvo Pkwy,,Chesapeake,VA,23320,US,(757) 410-3646,-76.21997,36.769497,"Mon 06:00 - 15:00, Tue 06:00 - 15:00, Wnd 06:00 - 15:00, Thr 06:00 - 15:00, Fri 06:00 - 15:00, Sat 07:00 - 15:00, Sun 07:00 - 15:00",,,0
Einstein Bros. Bagels,6007,201 High St,Lancer Cafe - Student Union,Farmville,VA,23909,US,(434) 395-2640,-78.3967966,37.29899496,"Mon 07:30 - 00:00, Tue 07:30 - 00:00, Wnd 07:30 - 00:00, Thr 07:30 - 00:00, Fri 07:30 - 00:00, Sat 12:00 - 00:00, Sun 12:00 - 00:00",,,0
Einstein Bros. Bagels,4055,4910 Baum Blvd,,Pittsburgh,PA,15213,US,(412) 688-0813,-79.94612734,40.45454988,"Mon 05:00 - 17:00, Tue 05:00 - 17:00, Wnd 05:00 - 17:00, Thr 05:00 - 17:00, Fri 05:00 - 17:00, Sat 06:00 - 16:00, Sun 06:00 - 15:00",,,0
Einstein Bros. Bagels,3322,230 S Bouquet St,Posvar Hall,Pittsburgh,PA,15213,US,(412) 624-6424,-79.95436534,40.44161789,"Mon 07:30 - 18:00, Tue 07:30 - 18:00, Wnd 07:30 - 18:00, Thr 07:30 - 18:00, Fri 07:30 - 15:00",,,0
Einstein Bros. Bagels,3357,230 S Bouquet St,Benedum Hall,Pittsburgh,PA,15213,US,(412) 624-7833,-79.95863005,40.44359425,"Mon 07:30 - 18:00, Tue 07:30 - 18:00, Wnd 07:30 - 18:00, Thr 07:30 - 18:00, Fri 07:30 - 15:00",,,0
Einstein Bros. Bagels,4077,436 7th Ave,Koppers Bldg,Pittsburgh,PA,15219,US,(412) 904-1491,-79.99523111,40.44209047,"Mon 05:30 - 17:00, Tue 05:30 - 17:00, Wnd 05:30 - 17:00, Thr 05:30 - 17:00, Fri 05:30 - 17:00",,,0
Einstein Bros. Bagels,4074,1741 E State Route 69,,Prescott,AZ,86301,US,(928) 445-4594,-112.4383462,34.54905136,"Mon 05:30 - 17:00, Tue 05:30 - 17:00, Wnd 05:30 - 17:00, Thr 05:30 - 17:00, Fri 05:30 - 17:00, Sat 05:30 - 17:00, Sun 06:00 - 17:00",,,0
Einstein Bros. Bagels,4064,15 S River Rd,,Saint George,UT,84790,US,(435) 703-9484,-113.5550578,37.10677848,"Mon 05:30 - 16:00, Tue 05:30 - 16:00, Wnd 05:30 - 16:00, Thr 05:30 - 16:00, Fri 05:30 - 16:00, Sat 06:30 - 16:00, Sun 06:30 - 15:00",,,0
Einstein Bros. Bagels,3616,13746 W Bell Rd,,Surprise,AZ,85374,US,(623) 277-4996,-112.3547591,33.64141866,"Mon 05:00 - 16:00, Tue 05:00 - 16:00, Wnd 05:00 - 16:00, Thr 05:00 - 16:00, Fri 05:00 - 16:00, Sat 06:00 - 16:00, Sun 06:00 - 15:00",,,0
Einstein Bros. Bagels,4038,7942 W Bell Rd Ste C7,,Glendale,AZ,85308,US,(623) 277-4261,-112.230236,33.63925751,"Mon 05:30 - 17:00, Tue 05:30 - 17:00, Wnd 05:30 - 17:00, Thr 05:30 - 17:00, Fri 05:30 - 17:00, Sat 05:30 - 17:00, Sun 06:00 - 17:00",,,0
Einstein Bros. Bagels,2703,5894 W Thunderbird Rd Ste A,,Glendale,AZ,85306,US,(602) 547-8448,-112.1855174,33.61120237,"Mon 05:00 - 17:00, Tue 05:00 - 17:00, Wnd 05:00 - 17:00, Thr 05:00 - 17:00, Fri 05:00 - 17:00, Sat 06:00 - 16:00, Sun 06:00 - 15:00",,,0
Einstein Bros. Bagels,1530,4304 W Bell Rd Ste B,,Glendale,AZ,85308,US,(602) 547-0959,-112.1525244,33.63974701,"Mon 05:00 - 16:00, Tue 05:00 - 16:00, Wnd 05:00 - 16:00, Thr 05:00 - 16:00, Fri 05:00 - 16:00, Sat 06:00 - 16:00, Sun 06:00 - 15:00",,,0
Caribou Coffee & Einstein Bros. Bagels,1357,2080 W. Northern Ave,,Phoenix,AZ,85021,US,602-973-1556,-112.1034139,33.55315469,"Mon 05:00 - 19:00, Tue 05:00 - 19:00, Wnd 05:00 - 19:00, Thr 05:00 - 19:00, Fri 05:00 - 19:00, Sat 06:00 - 19:00, Sun 06:00 - 19:00",,,0
Einstein Bros. Bagels,2021,1820 W Northern Ave,,Phoenix,AZ,85021,US,(602) 216-6275,-112.0982411,33.55392146,"Mon 05:00 - 16:00, Tue 05:00 - 16:00, Wnd 05:00 - 16:00, Thr 05:00 - 16:00, Fri 05:00 - 16:00, Sat 06:00 - 16:00, Sun 06:00 - 15:00",,,0
Einstein Bros. Bagels,3201,16842 N 7th St Ste 3-5,,Phoenix,AZ,85022,US,(602) 866-8010,-112.0660817,33.63902697,"Mon 05:00 - 16:00, Tue 05:30 - 16:00, Wnd 05:30 - 16:00, Thr 05:30 - 16:00, Fri 05:30 - 16:00, Sat 06:00 - 16:00, Sun 06:00 - 15:00",,,0
Einstein Bros. Bagels,4051,29605 N Cave Creek Rd Ste 112,,Cave Creek,AZ,85331,US,(480) 214-9490,-111.9910389,33.75398708,"Mon 05:30 - 17:00, Tue 05:30 - 17:00, Wnd 05:30 - 17:00, Thr 05:30 - 17:00, Fri 05:30 - 17:00, Sat 05:30 - 17:00, Sun 06:00 - 17:00",,,0
Einstein Bros. Bagels,2400,4030 E Thunderbird Rd,,Phoenix,AZ,85032,US,(602) 788-8301,-111.994206,33.6123638,"Mon 05:00 - 15:00, Tue 05:00 - 15:00, Wnd 05:00 - 15:00, Thr 05:00 - 15:00, Fri 05:00 - 15:00, Sat 06:00 - 15:00, Sun 06:00 - 15:00",,,0
Einstein Bros. Bagels,3291,21001 N Tatum Blvd Ste 80-1650,,Phoenix,AZ,85050,US,(480) 585-3920,-111.9752975,33.67940265,"Mon 05:00 - 17:00, Tue 05:00 - 17:00, Wnd 05:00 - 17:00, Thr 05:00 - 17:00, Fri 05:00 - 17:00, Sat 06:00 - 16:00, Sun 06:00 - 15:00",,,0
Einstein Bros. Bagels,1688,4912 E Shea Blvd,,Scottsdale,AZ,85254,US,(480) 607-0822,-111.9760137,33.58368658,"Mon 05:00 - 16:00, Tue 05:00 - 16:00, Wnd 05:00 - 16:00, Thr 05:00 - 16:00, Fri 05:00 - 16:00, Sat 06:00 - 16:00, Sun 06:00 - 15:00",,,0
Einstein Bros. Bagels,3313,1290 S Normal Ave,Memorial Union,Tempe,AZ,85287,US,(480) 727-7904,-111.9343732116,33.417775331,"Mon 07:00 - 14:30, Tue 07:00 - 14:30, Wnd 07:00 - 14:30, Thr 07:00 - 14:30, Fri 07:00 - 14:30, Sat 11:00 - 14:00",,,0
Caribou Coffee & Einstein Bros. Bagels,3646,725 South Rural Road,,Tempe,AZ,85281,US,(480) 303-6606,-111.9257928,33.42247597,"Mon 05:30 - 21:00, Tue 05:30 - 21:00, Wnd 05:30 - 21:00, Thr 05:30 - 21:00, Fri 05:30 - 21:00, Sat 06:00 - 21:00, Sun 06:00 - 20:00",,,0
Einstein Bros. Bagels,1194,2825 N Scottsdale Rd Ste 151,,Scottsdale,AZ,85257,US,(480) 874-0808,-111.9240456,33.47974191,"Mon 05:00 - 16:00, Tue 05:00 - 16:00, Wnd 05:00 - 16:00, Thr 05:00 - 16:00, Fri 05:00 - 16:00, Sat 06:00 - 16:00, Sun 06:00 - 15:00",,,0
Einstein Bros. Bagels,3599,6204 N Scottsdale Rd,,Scottsdale,AZ,85253,US,(480) 951-0078,-111.927415,33.52912432,"Mon 05:30 - 15:00, Tue 05:30 - 15:00, Wnd 05:30 - 15:00, Thr 05:30 - 15:00, Fri 05:30 - 15:00, Sat 06:00 - 15:00, Sun 06:00 - 15:00",,,0
Einstein Bros. Bagels,1259,4803 E Ray Rd Ste 102,,Phoenix,AZ,85044,US,(480) 705-5001,-111.9801268,33.31900284,"Mon 05:00 - 17:00, Tue 05:00 - 17:00, Wnd 05:00 - 17:00, Thr 05:00 - 17:00, Fri 05:00 - 17:00, Sat 06:00 - 16:00, Sun 06:00 - 15:00",,,0
Einstein Bros. Bagels,1688,4912 E Shea Blvd,,Scottsdale,AZ,85254,US,(480) 607-0822,-111.9760137,33.58368658,"Mon 05:00 - 16:00, Tue 05:00 - 16:00, Wnd 05:00 - 16:00, Thr 05:00 - 16:00, Fri 05:00 - 16:00, Sat 06:00 - 16:00, Sun 06:00 - 15:00",,,0
Einstein Bros. Bagels,1279,6350 S McClintock Dr Ste 102,,Tempe,AZ,85283,US,(480) 777-2203,-111.9117151,33.36439623,"Mon 05:00 - 17:00, Tue 05:00 - 17:00, Wnd 05:00 - 17:00, Thr 05:00 - 17:00, Fri 05:00 - 17:00, Sat 06:00 - 16:00, Sun 06:00 - 15:00",,,0
Einstein Bros. Bagels,1364,9880 S Rural Rd Ste 111,,Tempe,AZ,85284,US,(480) 705-7111,-111.9287657,33.32211905,"Mon 05:00 - 15:00, Tue 05:00 - 15:00, Wnd 05:00 - 15:00, Thr 05:00 - 15:00, Fri 05:00 - 15:00, Sat 06:00 - 16:00, Sun 06:00 - 15:00",,,0
Caribou Coffee & Einstein Bros. Bagels,3557,10250 N 90th St,,Scottsdale,AZ,85258,US,(480) 451-1796,-111.8869791,33.58006519,"Mon 05:00 - 21:00, Tue 05:00 - 21:00, Wnd 05:00 - 21:00, Thr 05:00 - 21:00, Fri 05:00 - 21:00, Sat 06:00 - 21:00, Sun 06:00 - 20:00",,,0
Einstein Bros. Bagels,3324,6501 E Greenway Pkwy Bldg 5,,Scottsdale,AZ,85254,US,(480) 905-9214,-111.9408132,33.62413601,"Mon 05:00 - 17:00, Tue 05:00 - 17:00, Wnd 05:00 - 17:00, Thr 05:00 - 17:00, Fri 05:00 - 17:00, Sat 06:00 - 16:00, Sun 06:00 - 15:00",,,0
Einstein Bros. Bagels,3305,2560 W Chandler Blvd Ste 2,,Chandler,AZ,85224,US,(480) 855-5955,-111.8891135,33.30669278,"Mon 05:00 - 16:00, Tue 05:00 - 16:00, Wnd 05:00 - 16:00, Thr 05:00 - 16:00, Fri 05:00 - 16:00, Sat 06:00 - 16:00, Sun 06:00 - 15:00",,,0
Einstein Bros. Bagels,1258,15768 N Frank Lloyd Wright Blvd,,Scottsdale,AZ,85260,US,(480) 314-7383,-111.8891821,33.62899765,"Mon 05:00 - 17:00, Tue 05:00 - 17:00, Wnd 05:00 - 17:00, Thr 05:00 - 17:00, Fri 05:00 - 17:00, Sat 06:00 - 16:00, Sun 06:00 - 15:00",,,0
Einstein Bros. Bagels,3136,1919 S Gilbert Rd,,Mesa,AZ,85204,US,(480) 539-9501,-111.7878392,33.38017443,"Mon 05:00 - 17:00, Tue 05:00 - 17:00, Wnd 05:00 - 17:00, Thr 05:00 - 17:00, Fri 05:00 - 17:00, Sat 06:00 - 16:00, Sun 06:00 - 15:00",,,0
Einstein Bros. Bagels,4012,4500 S Broadway Ave,,Tyler,TX,75703,US,(903) 509-2929,-95.30022534,32.30079942,"Mon 06:00 - 18:00, Tue 06:00 - 18:00, Wnd 06:00 - 18:00, Thr 06:00 - 18:00, Fri 06:00 - 18:00, Sat 06:00 - 18:00, Sun 07:00 - 17:00",,,0
"""COMING SOON"" - Einstein Bros. Bagels",6317,3900 Union Blvd,University Center,Tyler,TX,75799,US,903-566-7074,-95.2534103394,32.3152885437,"Mon 07:00 - 14:00, Tue 07:00 - 14:00, Wnd 07:00 - 14:00, Thr 07:00 - 14:00, Fri 07:00 - 13:30",,,0
Einstein Bros. Bagels,6181,1200 Sycamore St,Hagee Communications Center,Waxahachie,TX,75165,US,(972) 923-5505,-96.8520631,32.40426487,"Mon 07:00 - 22:30, Tue 07:00 - 22:30, Wnd 07:00 - 22:30, Thr 07:00 - 22:30, Fri 07:00 - 19:00, Sat 09:00 - 15:00",,,0
Einstein Bros. Bagels,4061,2016 Highway #287,,Mansfield,TX,76063,US,(817) 435-5674,-97.14763618,32.59997204,"Mon 05:00 - 16:00, Tue 05:00 - 16:00, Wnd 05:00 - 16:00, Thr 05:00 - 16:00, Fri 05:00 - 16:00, Sat 06:00 - 16:00, Sun 06:00 - 15:00",,,0
Einstein Bros. Bagels,1761,3827 Lemmon Ave,,Dallas,TX,75219,US,(214) 526-5221,-96.80674085,32.81245612,"Mon 05:00 - 15:00, Tue 05:00 - 15:00, Wnd 05:00 - 15:00, Thr 05:00 - 15:00, Fri 05:00 - 15:00, Sat 06:00 - 15:00, Sun 06:00 - 15:00",,,0
Einstein Bros. Bagels,2856,6333 E Mockingbird Ln Ste 153,,Dallas,TX,75214,US,(214) 824-3330,-96.75345492,32.83799843,"Mon 05:00 - 16:00, Tue 05:00 - 16:00, Wnd 05:00 - 16:00, Thr 05:00 - 16:00, Fri 05:00 - 16:00, Sat 06:00 - 15:00, Sun 06:00 - 15:00",,,0
Einstein Bros. Bagels,3508,3300 Dyer Street Suite 101,Cox School of Business,Dallas,TX,75275,US,(214) 768-3133,-96.78374385,32.84224723,"Mon 09:00 - 19:00, Tue 09:00 - 19:00, Wnd 09:00 - 19:00, Thr 09:00 - 19:00, Fri 09:00 - 19:00",,,0
Einstein Bros. Bagels,3507,300 W 1st St,Fine Arts Building,Arlington,TX,76019,US,(817) 272-2275,-97.11483137,32.73129307,"Mon 07:00 - 15:00, Tue 07:00 - 15:00, Wnd 07:00 - 15:00, Thr 07:00 - 15:00, Fri 07:00 - 15:00",,,0
Einstein Bros. Bagels,1650,6109 Berkshire Ln Ste A,,Dallas,TX,75225,US,(214) 691-2445,-96.8061971,32.86508639,"Mon 05:00 - 16:00, Tue 05:00 - 16:00, Wnd 05:00 - 16:00, Thr 05:00 - 16:00, Fri 05:00 - 16:00, Sat 06:00 - 15:00, Sun 06:00 - 15:00",,,0
Einstein Bros. Bagels,3510,216 McGlothlin Campus Center,McGlothin Campus Center,Abilene,TX,79699,US,325-674-2107,-99.70856127,32.46910325,"Mon 07:00 - 22:00, Tue 07:00 - 22:00, Wnd 07:00 - 22:00, Thr 07:00 - 22:00, Fri 07:00 - 22:00",,,0
Einstein Bros. Bagels,3552,5811 Bryant Irvin Rd Ste 100,,Ft Worth,TX,76132,US,(817) 346-1546,-97.42110084,32.66337556,"Mon 05:00 - 16:00, Tue 05:00 - 16:00, Wnd 05:00 - 16:00, Thr 05:00 - 16:00, Fri 05:00 - 16:00, Sat 06:00 - 15:00, Sun 06:00 - 15:00",,,0
Einstein Bros. Bagels,2072,3050 S University Dr,,Ft Worth,TX,76109,US,(817) 923-3444,-97.36080187,32.70679371,"Mon 05:00 - 15:00, Tue 05:00 - 15:00, Wnd 05:00 - 15:00, Thr 05:00 - 15:00, Fri 05:00 - 15:00, Sat 06:00 - 15:00, Sun 06:00 - 15:00",,,0
Einstein Bros. Bagels,6174,1301 Pennsylvania Ave,Harris Methodist Hospital,Ft Worth,TX,76104,US,(817) 250-6800,-97.33992531,32.73677239,"Mon 08:00 - 14:00, Tue 08:00 - 14:00, Wnd 08:00 - 14:00, Thr 08:00 - 14:00, Fri 08:00 - 14:00",,,0
Einstein Bros. Bagels,1969,2200 Airport Fwy Ste 500-A,,Bedford,TX,76022,US,(817) 354-5773,-97.13215157,32.83465963,"Mon 05:00 - 15:30, Tue 05:00 - 15:00, Wnd 05:00 - 15:00, Thr 05:00 - 15:00, Fri 05:00 - 15:30, Sat 06:00 - 15:00, Sun 06:00 - 15:00",,,0
Einstein Bros. Bagels,6178,4101 Airport Fwy Ste 231,,Bedford,TX,76021,US,(972) 973-8576,-97.10127693,32.83863479,"Mon 05:00 - 20:00, Tue 05:00 - 20:00, Wnd 05:00 - 20:00, Thr 05:00 - 20:00, Fri 05:00 - 20:00, Sat 05:00 - 20:00, Sun 05:00 - 20:00",,,0
Einstein Bros. Bagels,3625,4725 Colleyville Blvd,,Colleyville,TX,76034,US,(817) 576-5303,-97.15689469,32.87926467,"Mon 05:00 - 16:00, Tue 05:00 - 16:00, Wnd 05:00 - 16:00, Thr 05:00 - 16:00, Fri 05:00 - 16:00, Sat 06:00 - 16:00, Sun 06:00 - 16:00",,,0
"""COMING SOON"" - Caribou Coffee & Einstein Bros. Bagels",8624,DFW Airport - Terminal C6,,Dallas,TX,75261,US,1-888-227-4268,-97.039604187,32.891330719,,,,1
Einstein Bros. Bagels,6274,"2360 Innovation Dr, Pad Site B",Southgate Plaza,DFW Airport,TX,75261,US,972-456-3600,-97.03583943,32.89039333,"Mon 05:00 - 17:00, Tue 05:00 - 17:00, Wnd 05:00 - 17:00, Thr 05:00 - 17:00, Fri 05:00 - 17:00, Sat 05:00 - 17:00, Sun 05:00 - 17:00",,,0
Einstein Bros. Bagels,3397,2333 International Parkway,Terminal D,Dallast Ft. Worth Aiport,TX,75261,US,(800) 224-3563,-97.04452088,32.89793944,"Mon 05:00 - 14:00, Tue 05:00 - 14:00, Wnd 05:00 - 14:00, Thr 05:00 - 14:00, Fri 05:00 - 14:00, Sat 05:00 - 14:00, Sun 05:00 - 14:00",,,0
Einstein Bros. Bagels,2751,5330 N MacArthur Blvd Ste 100,,Irving,TX,75038,US,(972) 756-2875,-96.96262744,32.88119309,"Mon 05:00 - 15:00, Tue 05:00 - 15:00, Wnd 05:00 - 15:00, Thr 05:00 - 15:00, Fri 05:00 - 15:00, Sat 06:00 - 15:00, Sun 06:00 - 15:00",,,0
Einstein Bros. Bagels,6230,2040 N International Pkwy,"DFW Airport, Terminal A-10,",Dallas,TX,75261,US,(972) 973-7306,-97.03697301,32.9067616,"Mon 05:00 - 20:00, Tue 05:00 - 20:00, Wnd 05:00 - 20:00, Thr 05:00 - 20:00, Fri 05:00 - 20:00, Sat 05:00 - 20:00, Sun 05:00 - 20:00",,,0
Einstein Bros. Bagels,6165,2040 N. International Pkwy,Terminal A Gate A11,Dallas Ft. Worth Airport,TX,75261,US,(972) 973-7306,-97.03744983,32.90693713,"Mon 05:30 - 22:00, Tue 05:30 - 22:00, Wnd 05:30 - 22:00, Thr 05:30 - 22:00, Fri 05:30 - 22:00, Sat 05:30 - 22:00, Sun 05:30 - 22:00",,,0
Einstein Bros. Bagels,3351,2600 E Southlake Blvd Ste 140,,Southlake,TX,76092,US,(817) 749-0601,-97.11214613,32.94011128,"Mon 05:00 - 16:00, Tue 05:00 - 16:00, Wnd 05:00 - 16:00, Thr 05:00 - 16:00, Fri 05:00 - 17:00, Sat 06:00 - 16:00, Sun 06:00 - 16:00",,,0
Einstein Bros. Bagels,6270,1 Eck Ctr,Hammes Bookstore,Notre Dame,IN,46556,US,(574) 631-7163,-86.23996001,41.6967253,"Mon 08:00 - 21:00, Tue 08:00 - 21:00, Wnd 08:00 - 21:00, Thr 08:00 - 21:00, Fri 08:00 - 21:00, Sat 08:00 - 21:00, Sun 09:00 - 19:00",,,0
Einstein Bros. Bagels,4024,2019 South Bend Ave,,South Bend,IN,46637,US,(574) 272-2622,-86.21875944,41.69919157,"Mon 05:30 - 18:00, Tue 05:30 - 18:00, Wnd 05:30 - 18:00, Thr 05:30 - 18:00, Fri 05:30 - 18:00, Sat 06:30 - 16:00, Sun 07:00 - 16:00",,,0
Einstein Bros. Bagels,1372,3129 S 27th St,,Milwaukee,WI,53215,US,(414) 385-9888,-87.94880962,42.98826951,"Mon 05:00 - 16:00, Tue 05:00 - 16:00, Wnd 05:00 - 16:00, Thr 05:00 - 16:00, Fri 05:00 - 16:00, Sat 06:00 - 16:00, Sun 06:00 - 15:00",,,0
Einstein Bros. Bagels,3295,1441 Wisconsin Ave.,AMU Bldg,Milwaukee,WI,53233,US,(414) 288-0469,-87.93112241,43.03982667,"Mon 08:00 - 19:00, Tue 08:00 - 19:00, Wnd 08:00 - 19:00, Thr 08:00 - 19:00, Fri 08:00 - 16:00",,,0
Einstein Bros. Bagels,1373,544 E Ogden Ave,,Milwaukee,WI,53202,US,(414) 276-9888,-87.90493598,43.04842195,"Mon 05:30 - 17:00, Tue 05:30 - 17:00, Wnd 05:30 - 17:00, Thr 05:30 - 17:00, Fri 05:30 - 17:00, Sat 06:00 - 16:00, Sun 06:00 - 15:00",,,0
"""COMING SOON"" - Caribou Coffee & Einstein Bros. Bagels",1376,180 E. Sunset Dr,Unit A,Waukesha,WI,53189,US,1-888-227-4268,-88.22426297,42.9884398,,,,1
Einstein Bros. Bagels,2569,10950 N Port Washington Rd,,Mequon,WI,53092,US,(262) 241-9878,-87.92340344,43.217637,"Mon 05:30 - 17:00, Tue 05:30 - 17:00, Wnd 05:30 - 17:00, Thr 05:30 - 17:00, Fri 05:30 - 17:00, Sat 06:00 - 16:00, Sun 06:00 - 15:00",,,0
Einstein Bros. Bagels,1970,201 & 203 Northwestern Ave.,,West Lafayette,IN,47906,US,(765) 743-8988,-86.90820383,40.42510704,"Mon 06:00 - 16:00, Tue 06:00 - 16:00, Wnd 06:00 - 16:00, Thr 06:00 - 16:00, Fri 06:00 - 16:00, Sat 06:00 - 16:00, Sun 06:00 - 15:00",,,0
Einstein Bros. Bagels,3435,2925 S Alma School Rd Ste 1,,Chandler,AZ,85286,US,(480) 899-4449,-111.8572913,33.26358111,"Mon 05:00 - 17:00, Tue 05:00 - 17:00, Wnd 05:00 - 17:00, Thr 05:00 - 17:00, Fri 05:00 - 17:00, Sat 06:00 - 16:00, Sun 06:00 - 15:00",,,0
Einstein Bros. Bagels,4083,23079 N Scottsdale Rd,,Scottsdale,AZ,85255,US,(480) 585-9411,-111.92472,33.69684648,"Mon 05:30 - 17:00, Tue 05:30 - 17:00, Wnd 05:30 - 17:00, Thr 05:30 - 17:00, Fri 05:30 - 17:00, Sat 05:30 - 17:00, Sun 06:00 - 17:00",,,0
Einstein Bros. Bagels,3136,1919 S Gilbert Rd,,Mesa,AZ,85204,US,(480) 539-9501,-111.7878392,33.38017443,"Mon 05:00 - 17:00, Tue 05:00 - 17:00, Wnd 05:00 - 17:00, Thr 05:00 - 17:00, Fri 05:00 - 17:00, Sat 06:00 - 16:00, Sun 06:00 - 15:00",,,0
Caribou Coffee & Einstein Bros. Bagels,3521,1447 E Williams Field Rd,,Gilbert,AZ,85295,US,(480) 857-0486,-111.7589382,33.30625735,"Mon 05:00 - 21:00, Tue 05:00 - 21:00, Wnd 05:00 - 21:00, Thr 05:00 - 21:00, Fri 05:00 - 21:00, Sat 06:00 - 21:00, Sun 06:00 - 20:00",,,0
Einstein Bros. Bagels,1241,899 N Val Vista Dr Ste 115,,Gilbert,AZ,85234,US,(480) 632-8196,-111.7557814,33.36652839,"Mon 05:00 - 17:00, Tue 05:00 - 17:00, Wnd 05:00 - 17:00, Thr 05:00 - 17:00, Fri 05:00 - 17:00, Sat 06:00 - 16:00, Sun 06:00 - 15:00",,,0
Einstein Bros. Bagels,3513,2912 W Ina Rd Ste 100,,Tucson,AZ,85741,US,(520) 742-4584,-111.0299218,32.33783759,"Mon 05:00 - 17:00, Tue 05:00 - 17:00, Wnd 05:00 - 17:00, Thr 05:00 - 17:00, Fri 05:00 - 17:00, Sat 06:00 - 16:00, Sun 06:00 - 15:00",,,0
Einstein Bros. Bagels,3527,1050 S Knoles Dr,Union Building North Campus,Flagstaff,AZ,86011,US,(928) 523-3805,-111.656011,35.18967985,"Mon 08:00 - 18:00, Tue 08:00 - 18:00, Wnd 08:00 - 18:00, Thr 08:00 - 18:00, Fri 08:00 - 18:00, Sat 10:00 - 18:00, Sun 10:00 - 18:00",,,0
Einstein Bros. Bagels,3595,4105 N Oracle Rd,,Tucson,AZ,85705,US,(520) 441-5890,-110.9786273,32.28125954,"Mon 05:00 - 17:00, Tue 05:00 - 17:00, Wnd 05:00 - 17:00, Thr 05:00 - 17:00, Fri 05:00 - 17:00, Sat 06:00 - 17:00, Sun 06:00 - 16:00",,,0
Einstein Bros. Bagels,6147,1303 E University Blvd,Student Union Memorial Centre,Tucson,AZ,85719,US,(520) 621-0452,-110.9520212,32.23262234,"Mon 06:30 - 21:00, Tue 06:30 - 21:00, Wnd 06:30 - 21:00, Sun 06:30 - 22:00",,,0
Caribou Coffee & Einstein Bros. Bagels,8610,306 East Pine Knowels Dr,Building 63,Flagstaff,AZ,86001,US,1-888-227-4268,-111.6621933,35.37181473,"Mon 05:00 - 21:00, Tue 05:00 - 21:00, Wnd 05:00 - 21:00, Thr 05:00 - 21:00, Fri 05:00 - 21:00, Sat 06:00 - 21:00, Sun 06:00 - 20:00",,,0
Einstein Bros. Bagels,4077,436 7th Ave,Koppers Bldg,Pittsburgh,PA,15219,US,(412) 904-1491,-79.99523111,40.44209047,"Mon 05:30 - 17:00, Tue 05:30 - 17:00, Wnd 05:30 - 17:00, Thr 05:30 - 17:00, Fri 05:30 - 17:00",,,0
Einstein Bros. Bagels,4057,3 Ppg Pl,,Pittsburgh,PA,15222,US,(412) 434-0343,-80.00282839,40.44002138,"Mon 05:00 - 17:00, Tue 05:00 - 17:00, Wnd 05:00 - 17:00, Thr 05:00 - 17:00, Fri 05:00 - 17:00",,,0
Einstein Bros. Bagels,4054,979 Greentree Rd,,Pittsburgh,PA,15220,US,(412) 928-1717,-80.04549786,40.41849375,"Mon 05:30 - 17:00, Tue 05:30 - 17:00, Wnd 05:30 - 17:00, Thr 05:30 - 17:00, Fri 05:30 - 17:00, Sat 06:00 - 16:00, Sun 06:00 - 15:00",,,0
Einstein Bros. Bagels,4056,20263 Route 19 #16,,Cranberry Twp,PA,16066,US,(724) 779-6244,-80.10269314,40.68828703,"Mon 05:30 - 17:00, Tue 05:30 - 17:00, Wnd 05:30 - 17:00, Thr 05:30 - 17:00, Fri 05:30 - 17:00, Sat 06:00 - 16:00, Sun 06:00 - 15:00",,,0
Einstein Bros. Bagels,4071,3855 Washington Rd,,McMurray,PA,15317,US,(724) 299-3120,-80.12643829,40.2731301,"Mon 05:30 - 19:00, Tue 05:30 - 19:00, Wnd 05:30 - 19:00, Thr 05:30 - 19:00, Fri 05:30 - 19:00, Sat 06:00 - 16:00, Sun 06:00 - 15:00",,,0
Einstein Bros. Bagels,3374,1 Midway Drive Room 104,Student Center,Kent,OH,44242,US,(330) 672-9320,-81.34365816,41.14742662,"Mon 07:00 - 19:00, Tue 07:00 - 19:00, Wnd 07:00 - 19:00, Thr 07:00 - 19:00, Fri 07:00 - 19:00, Sat 09:00 - 19:00, Sun 09:00 - 19:00",,,0
Einstein Bros. Bagels,3094,54 Shopping Plz,,Chagrin Falls,OH,44022,US,(440) 893-9384,-81.39085452,41.43117429,"Mon 06:00 - 16:00, Tue 06:00 - 16:00, Wnd 06:00 - 16:00, Thr 06:00 - 16:00, Fri 06:00 - 16:00, Sat 06:00 - 16:00, Sun 06:00 - 15:00",,,0
Einstein Bros. Bagels,1997,6736 Strip Ave NW,,North Canton,OH,44720,US,(330) 305-9440,-81.43290595,40.8789154,"Mon 05:00 - 17:00, Tue 05:00 - 17:00, Wnd 05:00 - 17:00, Thr 05:00 - 17:00, Fri 05:00 - 17:00, Sat 06:00 - 17:00, Sun 06:00 - 17:00",,,0
Einstein Bros. Bagels,6101,302 Buchtel Ave,Bierce Library,Akron,OH,44325,US,(330) 972-7037,-81.51063643,41.07693483,"Mon 08:00 - 20:00, Tue 08:00 - 20:00, Wnd 08:00 - 20:00, Thr 08:00 - 20:00, Fri 08:00 - 17:00, Sun 12:00 - 18:00",,,0
Einstein Bros. Bagels,3329,10 N Main St,Care Building,Akron,OH,44308,US,(330) 996-8765,-81.51692837,41.08572098,"Mon 07:00 - 14:00, Tue 07:00 - 14:00, Wnd 07:00 - 14:00, Thr 07:00 - 14:00, Fri 07:00 - 14:00",,,0
Einstein Bros. Bagels,6112,248 E Buchtel Ave,Quaker Square,Akron,OH,44325,US,1-800-224-3573,-81.51771284,41.07741916,"Mon 08:00 - 18:00, Tue 08:00 - 18:00, Wnd 08:00 - 18:00, Thr 08:00 - 18:00, Fri 08:00 - 18:00",,,0
Einstein Bros. Bagels,3490,20700 North Park Blvd,Clock Tower Bldg,University Heights,OH,44118,US,(216) 397-4195,-81.53139199,41.49020344,"Mon 07:30 - 19:00, Tue 07:30 - 19:00, Wnd 07:30 - 19:00, Thr 07:30 - 19:00, Fri 07:30 - 14:00",,,0
Einstein Bros. Bagels,1946,1751 W Exchange St,,Akron,OH,44313,US,(330) 865-1515,-81.56890408,41.10915178,"Mon 06:00 - 16:00, Tue 06:00 - 16:00, Wnd 06:00 - 16:00, Thr 06:00 - 16:00, Fri 06:00 - 16:00, Sat 06:00 - 16:00, Sun 06:00 - 15:00",,,0
Einstein Bros. Bagels,3471,1000 E 5th St,Wright Place,Greenville,NC,27858,US,(252) 341-9985,-77.36440851,35.60670279,"Mon 07:30 - 19:00, Tue 07:30 - 19:00, Wnd 07:30 - 19:00, Thr 07:30 - 19:00, Fri 07:30 - 17:00",,,0
Einstein Bros. Bagels,3471,1000 E 5th St,Wright Place,Greenville,NC,27858,US,(252) 341-9985,-77.36440851,35.60670279,"Mon 07:30 - 19:00, Tue 07:30 - 19:00, Wnd 07:30 - 19:00, Thr 07:30 - 19:00, Fri 07:30 - 17:00",,,0
Einstein Bros. Bagels,6041,2301 Erwin Rd,Basement,Durham,NC,27705,US,(919) 684-5395,-78.93704205,36.00695915,"Mon 07:00 - 16:00, Tue 07:00 - 16:00, Wnd 07:00 - 16:00, Thr 07:00 - 16:00, Fri 07:00 - 16:00",,,0
Einstein Bros. Bagels,6201,300 Kenan Center Dr,Kenan Flagler Business School,Chapel Hill,NC,27599,US,(919) 962-8664,-79.04612688,35.89982404,"Mon 07:30 - 18:00, Tue 07:30 - 18:00, Wnd 07:30 - 18:00, Thr 07:30 - 18:00, Fri 07:30 - 16:00",,,0
Einstein Bros. Bagels,3307,11100 Euclid Ave,Rainbow Children's Hospital,Cleveland,OH,44106,US,(216) 844-1880,-81.60485142,41.50620588,"Mon 06:30 - 14:00, Tue 06:30 - 14:00, Wnd 06:30 - 14:00, Thr 06:30 - 14:00, Fri 06:30 - 14:00",,,0
Einstein Bros. Bagels,4020,5050 Kietzke Ln,,Reno,NV,89511,US,(775) 825-1045,-119.7924209,39.47602461,"Mon 05:30 - 17:00, Tue 05:30 - 17:00, Wnd 05:30 - 17:00, Thr 05:30 - 17:00, Fri 05:30 - 17:00, Sat 06:30 - 16:00, Sun 06:30 - 16:00",,,0
Caribou Coffee & Einstein Bros. Bagels,8610,306 East Pine Knowels Dr,Building 63,Flagstaff,AZ,86001,US,1-888-227-4268,-111.6621933,35.37181473,"Mon 05:00 - 21:00, Tue 05:00 - 21:00, Wnd 05:00 - 21:00, Thr 05:00 - 21:00, Fri 05:00 - 21:00, Sat 06:00 - 21:00, Sun 06:00 - 20:00",,,0
Einstein Bros. Bagels,1653,4708 E Sunrise Dr,,Tucson,AZ,85718,US,(520) 615-0508,-110.8919623,32.30661724,"Mon 05:00 - 17:00, Tue 05:00 - 17:00, Wnd 05:00 - 17:00, Thr 05:00 - 17:00, Fri 05:00 - 17:00, Sat 06:00 - 16:00, Sun 06:00 - 15:00",,,0
Einstein Bros. Bagels,6122,1600 International Mall Corbett Center,College of Health and Social Sciences,Las Cruces,NM,88003,US,(575) 646-3109,-106.7515719,32.28369919,"Mon 07:00 - 20:00, Tue 07:00 - 20:00, Wnd 07:00 - 20:00, Thr 07:00 - 20:00, Fri 07:00 - 20:00",,,0
Einstein Bros. Bagels,6123,1600 International Mall Corbett Center,Corbett Center Student Union,Las Cruces,NM,88003,US,(575) 646-5475,-106.747593,32.28291237,"Mon 08:00 - 14:00, Tue 08:00 - 14:00, Wnd 08:00 - 14:00, Thr 08:00 - 14:00, Fri 08:00 - 14:00",,,0
Einstein Bros Bagels,3661,6231 Riverside Plaza Ln Unit A,,Albuquerque,NM,87120,US,(505) 899-9699,-106.6812779245,35.1549599728,"Mon 05:30 - 17:00, Tue 05:30 - 17:00, Wnd 05:30 - 17:00, Thr 05:30 - 17:00, Fri 05:30 - 17:00, Sat 06:00 - 16:00, Sun 06:00 - 15:00",,,0
Einstein Bros Bagels,3660,1908 Wellspring Ave SE #100,,Rio Rancho,NM,87124,US,(505) 835-6165,-106.6976675987,35.2210083223,"Mon 05:00 - 17:00, Tue 05:00 - 17:00, Wnd 05:00 - 17:00, Thr 05:00 - 17:00, Fri 05:00 - 17:00, Sat 06:00 - 16:00, Sun 06:00 - 15:00",,,0
Einstein Bros. Bagels,6262,1 University of New Mexico,La Posada Residence Hall,Albuquerque,NM,87131,US,,-106.6232,35.086414,,,,0
Einstein Bros. Bagels,1193,2510 Central Ave SE,,Albuquerque,NM,87106,US,(505) 268-4011,-106.6177903,35.08081022,"Mon 05:30 - 17:00, Tue 05:30 - 17:00, Wnd 05:30 - 17:00, Thr 05:30 - 17:00, Fri 05:30 - 17:00, Sat 06:00 - 16:00, Sun 06:00 - 15:00",,,0
Einstein Bros. Bagels,6188,1 University of New Mexico,Law School,Albuquerque,NM,87131,US,505-277-9550,-106.6196493,35.08568727,"Mon 07:30 - 21:00, Tue 07:30 - 21:00, Wnd 07:30 - 21:00, Thr 07:30 - 21:00, Fri 07:30 - 21:00",,,0
Einstein Bros. Bagels,2378,5010 Cutler Ave NE Ste B,,Albuquerque,NM,87110,US,(505) 889-4020,-106.588511,35.10531541,"Mon 05:30 - 17:00, Tue 05:30 - 17:00, Wnd 05:30 - 17:00, Thr 05:30 - 17:00, Fri 05:30 - 17:00, Sat 06:00 - 16:00, Sun 06:00 - 15:00",,,0
Einstein Bros Bagels,3659,"4500 Osuna Rd. NE, #155",,Albuquerque,NM,87109,US,505-359-2999,-106.5916827917,35.1541841681,"Mon 05:30 - 16:00, Tue 05:30 - 16:00, Wnd 05:30 - 16:00, Thr 05:30 - 16:00, Fri 05:30 - 16:00, Sat 06:00 - 16:00, Sun 07:00 - 15:00",,,0
Einstein Bros. Bagels,1203,8060 Academy Rd NE Ste A,,Albuquerque,NM,87111,US,(505) 858-0908,-106.5492328,35.1477218,"Mon 05:30 - 17:00, Tue 05:30 - 17:00, Wnd 05:30 - 17:00, Thr 05:30 - 17:00, Fri 05:30 - 17:00, Sat 06:00 - 16:00, Sun 06:00 - 15:00",,,0
Einstein Bros. Bagels,2345,13170 Central Ave SE Ste A,,Albuquerque,NM,87123,US,(505) 296-1299,-106.4988934,35.06780249,"Mon 05:00 - 16:00, Tue 05:00 - 16:00, Wnd 05:00 - 16:00, Thr 05:00 - 16:00, Fri 05:00 - 16:00, Sat 06:00 - 16:00, Sun 06:00 - 15:00",,,0
Einstein Bros. Bagels,3558,6011 Royal Ln,,Dallas,TX,75230,US,(214) 265-1435,-96.80332859,32.8951169,"Mon 05:00 - 16:00, Tue 05:00 - 16:00, Wnd 05:00 - 16:00, Thr 05:00 - 16:00, Fri 05:00 - 16:00, Sat 06:00 - 16:00, Sun 06:00 - 16:00",,,0
Einstein Bros. Bagels,3615,12050 Inwood Rd Ste 130,,Dallas,TX,75244,US,(972) 348-5287,-96.81796176,32.91279354,"Mon 05:00 - 16:00, Tue 05:00 - 16:00, Wnd 05:00 - 16:00, Thr 05:00 - 16:00, Fri 05:00 - 16:00, Sat 06:00 - 16:00, Sun 06:00 - 16:00",,,0
Einstein Bros. Bagels,2009,15615 Coit Rd Ste 100,,Dallas,TX,75248,US,(972) 233-3320,-96.76928997,32.96148963,"Mon 05:00 - 16:00, Tue 05:00 - 16:00, Wnd 05:00 - 16:00, Thr 05:00 - 16:00, Fri 05:00 - 16:00, Sat 06:00 - 16:00, Sun 06:00 - 16:00",,,0
Einstein Bros. Bagels,1760,14999 Preston Rd Ste 108C,,Dallas,TX,75254,US,(972) 726-6551,-96.80433719,32.95200383,"Mon 05:00 - 15:00, Tue 05:00 - 15:00, Wnd 05:00 - 15:00, Thr 05:00 - 15:00, Fri 05:00 - 15:00, Sat 06:00 - 15:00, Sun 07:00 - 15:00",,,0
Einstein Bros. Bagels,4039,121 E FM 544 #123,,Murphy,TX,75094,US,(972) 422-5785,-96.60939542,33.01189352,"Mon 05:30 - 16:00, Tue 05:30 - 16:00, Wnd 05:30 - 16:00, Thr 05:30 - 16:00, Fri 05:30 - 16:00, Sat 06:00 - 16:00, Sun 06:00 - 15:00",,,0
Einstein Bros. Bagels,3560,3750 Belt Line Rd Ste 118,,Addison,TX,75001,US,(972) 241-2563,-96.85325659,32.95264903,"Mon 05:00 - 15:00, Tue 05:00 - 15:00, Wnd 05:00 - 15:00, Thr 05:00 - 15:00, Fri 05:00 - 15:00, Sat 06:00 - 15:00, Sun 06:00 - 15:00",,,0
Einstein Bros. Bagels,6242,800 Loop Road,Phase IV Parking Garage,Richardson,TX,75080,US,972-883-7470,-96.7505121,32.99044813,"Mon 07:30 - 18:00, Tue 07:30 - 18:00, Wnd 07:30 - 18:00, Thr 07:30 - 18:00, Fri 07:30 - 15:30",,,0
Einstein Bros. Bagels,2749,1201 Central Expy Ste 1,,Plano,TX,75075,US,(972) 881-2166,-96.71104925,33.01919791,"Mon 05:00 - 15:00, Tue 05:00 - 15:00, Wnd 05:00 - 15:00, Thr 05:00 - 15:00, Fri 05:00 - 15:00, Sat 06:00 - 15:00, Sun 06:00 - 15:00",,,0
Einstein Bros. Bagels,4050,1501 Preston Rd Ste 850,,Plano,TX,75093,US,(972) 733-4744,-96.79590425,33.01918944,"Mon 05:30 - 16:00, Tue 05:30 - 16:00, Wnd 05:30 - 16:00, Thr 05:30 - 16:00, Fri 05:30 - 16:00, Sat 06:00 - 16:00, Sun 06:00 - 15:00",,,0
Einstein Bros. Bagels,3592,143 S Denton Tap Rd Ste 100,,Coppell,TX,75019,US,(214) 513-0182,-96.99394456,32.96674851,"Mon 05:00 - 16:00, Tue 05:00 - 16:00, Wnd 05:00 - 16:00, Thr 05:00 - 16:00, Fri 05:00 - 16:00, Sat 06:00 - 15:00, Sun 06:00 - 15:00",,,0
Einstein Bros. Bagels,3515,3320 E Hebron Pkwy Ste 124,,Carrollton,TX,75010,US,(972) 307-3169,-96.84473704,33.02512753,"Mon 05:00 - 17:00, Tue 05:00 - 17:00, Wnd 05:00 - 17:00, Thr 05:00 - 17:00, Fri 05:00 - 17:00, Sat 06:00 - 15:00, Sun 06:00 - 15:00",,,0
Einstein Bros. Bagels,3351,2600 E Southlake Blvd Ste 140,,Southlake,TX,76092,US,(817) 749-0601,-97.11214613,32.94011128,"Mon 05:00 - 16:00, Tue 05:00 - 16:00, Wnd 05:00 - 16:00, Thr 05:00 - 16:00, Fri 05:00 - 17:00, Sat 06:00 - 16:00, Sun 06:00 - 16:00",,,0
Einstein Bros. Bagels,2745,5976 W Parker Rd Ste 308,,Plano,TX,75093,US,(972) 473-2655,-96.82877482,33.04458175,"Mon 05:00 - 17:00, Tue 05:00 - 17:00, Wnd 05:00 - 17:00, Thr 05:00 - 17:00, Fri 05:00 - 17:00, Sat 06:00 - 16:00, Sun 06:00 - 16:00",,,0
Einstein Bros. Bagels,3556,2701 Cross Timbers Rd Ste 246,,Flower Mound,TX,75028,US,(972) 539-8900,-97.07128757,33.03476968,"Mon 05:00 - 16:00, Tue 05:00 - 16:00, Wnd 05:00 - 16:00, Thr 05:00 - 16:00, Fri 05:00 - 16:00, Sat 06:00 - 16:00, Sun 06:00 - 16:00",,,0
Einstein Bros. Bagels,2745,5976 W Parker Rd Ste 308,,Plano,TX,75093,US,(972) 473-2655,-96.82877482,33.04458175,"Mon 05:00 - 17:00, Tue 05:00 - 17:00, Wnd 05:00 - 17:00, Thr 05:00 - 17:00, Fri 05:00 - 17:00, Sat 06:00 - 16:00, Sun 06:00 - 16:00",,,0
Einstein Bros. Bagels,1763,7000 Independence Pkwy Ste 136,,Plano,TX,75025,US,(972) 491-7973,-96.7484828,33.0725331,"Mon 05:00 - 15:00, Tue 05:00 - 15:00, Wnd 05:00 - 15:00, Thr 05:00 - 15:00, Fri 05:00 - 15:00, Sat 06:00 - 15:00, Sun 06:00 - 15:00",,,0
Einstein Bros. Bagels,4010,5500 Preston Rd Ste 101,,Frisco,TX,75034,US,(214) 705-0220,-96.80492243,33.12461058,"Mon 05:30 - 16:00, Tue 05:30 - 16:00, Wnd 05:30 - 16:00, Thr 05:30 - 16:00, Fri 05:30 - 16:00, Sat 06:00 - 16:00, Sun 06:00 - 15:00",,,0
Einstein Bros. Bagels,4023,7645 S Custer Rd Ste 400,,McKinney,TX,75070,US,(214) 383-1212,-96.73265383,33.12825278,"Mon 05:30 - 16:00, Tue 05:30 - 16:00, Wnd 05:30 - 16:00, Thr 05:30 - 16:00, Fri 05:30 - 16:00, Sat 06:00 - 16:00, Sun 06:00 - 15:00",,,0
Einstein Bros. Bagels,4078,790 W Exchange Pkwy,,Allen,TX,75013,US,(469) 656-9185,-96.67358744,33.11815411,"Mon 05:30 - 16:30, Tue 05:30 - 16:00, Wnd 05:30 - 16:00, Thr 05:30 - 16:00, Fri 05:30 - 16:00, Sat 06:00 - 16:00, Sun 06:00 - 15:00",,,0
Einstein Bros. Bagels,6291,3410 Taft Blvd,Dillard College of Business,Wichita Falls,TX,76308,US,,-98.52119002,33.87701908,"Mon 07:30 - 19:00, Tue 07:30 - 19:00, Wnd 07:30 - 19:00, Thr 07:30 - 19:00, Fri 07:30 - 16:00",,,0
Einstein Bros. Bagels,4046,5217 82nd St,,Lubbock,TX,79424,US,(806) 687-4046,-101.923233,33.51943147,"Mon 06:00 - 16:00, Tue 06:00 - 16:00, Wnd 06:00 - 16:00, Thr 06:00 - 16:00, Fri 06:00 - 16:00, Sat 07:00 - 15:00, Sun 07:00 - 15:00",,,0
Einstein Bros. Bagels,6135,1801 Boston Avenue,The Commons,Lubbock,TX,79409,US,806-742-6382,-101.8740645,33.57957907,"Mon 07:00 - 16:00, Tue 07:00 - 16:00, Wnd 07:00 - 16:00, Thr 07:00 - 16:00, Fri 07:00 - 16:00, Sat 09:00 - 16:00, Sun 09:00 - 16:00",,,0
Einstein Bros. Bagels,6136,703 Flint Ave,Rawls College of Business Administration,Lubbock,TX,79409,US,1-800-224-3581,-101.8792149,33.58776267,"Mon 07:00 - 16:00, Tue 07:00 - 16:00, Wnd 07:00 - 16:00, Thr 07:00 - 16:00, Fri 07:00 - 16:00",,,0
Einstein Bros. Bagels,4025,4525 Marsha Sharp Fwy,,Lubbock,TX,79407,US,(806) 687-4025,-101.9095829,33.57078436,"Mon 05:30 - 16:00, Tue 05:30 - 16:00, Wnd 05:30 - 16:00, Thr 05:30 - 16:00, Fri 05:30 - 16:00, Sat 07:00 - 15:00, Sun 07:00 - 15:00",,,0
Einstein Bros. Bagels,6144,100 E Lindsey St #20,Headington Hall,Norman,OK,73072,US,(405) 325-1623,-97.44091444,35.20369534,"Mon 07:30 - 15:00, Tue 07:30 - 15:00, Wnd 07:30 - 15:00, Thr 07:30 - 15:00, Fri 07:30 - 15:00, Sat 07:30 - 15:00, Sun 07:30 - 15:00",,,0
Einstein Bros. Bagels,6006,6500 S MacArthur Blvd,HQ Building,Oklahoma City,OK,73169,US,(800) 224-3563,-97.61782849,35.39953003,"Mon 06:00 - 14:00, Tue 06:00 - 14:00, Wnd 06:00 - 14:00, Thr 06:00 - 14:00, Fri 06:00 - 14:00, Sat 06:00 - 12:00, Sun 06:00 - 12:00",,,0
Einstein Bros. Bagels,3317,1 Campus Dr,Commons,Allendale,MI,49401,US,(616) 331-3007,-85.88674079,42.96587156,"Mon 07:30 - 18:00, Tue 07:30 - 18:00, Wnd 07:30 - 18:00, Thr 07:30 - 18:00, Fri 07:30 - 14:00",,,0
Einstein Bros. Bagels,6046,200 North University,Milner Library,Normal,IL,61761,US,(309) 438-8341,-88.99189452,40.51187448,"Mon 07:30 - 16:00, Tue 07:30 - 16:00, Wnd 07:30 - 16:00, Thr 07:30 - 16:00, Fri 07:30 - 16:00",,,0
Einstein Bros. Bagels,2902,3904 E Washington Ave,,Madison,WI,53704,US,(608) 242-9889,-89.31861744,43.12156308,"Mon 05:30 - 17:00, Tue 05:30 - 17:00, Wnd 05:30 - 17:00, Thr 05:30 - 17:00, Fri 05:30 - 17:00, Sat 06:00 - 16:00, Sun 06:00 - 15:00",,,0
Einstein Bros. Bagels,4059,803 W Anthony Dr,,Champaign,IL,61822,US,(217) 239-0025,-88.25735298,40.13663913,"Mon 05:30 - 15:00, Tue 05:30 - 15:00, Wnd 05:30 - 15:00, Thr 05:30 - 15:00, Fri 05:30 - 15:00, Sat 06:00 - 15:00, Sun 06:00 - 15:00",,,0
Einstein Bros. Bagels,4017,901 W University Ave,,Urbana,IL,61801,US,(217) 344-7520,-88.21962909,40.11617868,"Mon 06:00 - 17:00, Tue 06:00 - 17:00, Wnd 06:00 - 17:00, Thr 06:00 - 17:00, Fri 06:00 - 17:00, Sat 06:00 - 16:00, Sun 07:00 - 16:00",,,0
Einstein Bros. Bagels,6182,1401 W Green St,Student Center,Urbana,IL,61801,US,(217) 344-7520,-88.22744568,40.10957391,"Mon 07:00 - 20:00, Tue 07:00 - 20:00, Wnd 07:00 - 20:00, Thr 07:00 - 20:00, Fri 09:00 - 14:00, Sat 10:00 - 19:00, Sun 10:00 - 19:00",,,0
Einstein Bros. Bagels,2280,2350 E 116th St,,Carmel,IN,46032,US,(317) 848-9888,-86.11587399,39.95704166,"Mon 05:30 - 16:00, Tue 05:30 - 16:00, Wnd 05:30 - 16:00, Thr 05:30 - 16:00, Fri 05:30 - 16:00, Sat 06:00 - 16:00, Sun 06:00 - 15:00",,,0
Einstein Bros. Bagels,2551,3450 W 86th St,,Indianapolis,IN,46268,US,(317) 802-9888,-86.21995567,39.91209227,"Mon 05:30 - 17:00, Tue 05:30 - 17:00, Wnd 05:30 - 17:00, Thr 05:30 - 17:00, Fri 05:30 - 17:00, Sat 06:00 - 16:00, Sun 06:00 - 15:00",,,0
Einstein Bros. Bagels,6011,1184 W Main St,Shilling Hall,Decatur,IL,62522,US,(217) 420-6647,-88.97473525,39.84212978,"Mon 07:00 - 17:00, Tue 07:00 - 17:00, Wnd 07:00 - 17:00, Thr 07:00 - 17:00, Fri 07:00 - 15:00",,,0
Einstein Bros. Bagels,2896,1055 Broad Ripple Ave,,Indianapolis,IN,46220,US,(317) 722-9888,-86.13945208,39.86942272,"Mon 05:30 - 16:00, Tue 05:30 - 16:00, Wnd 05:30 - 16:00, Thr 05:30 - 16:00, Fri 05:30 - 16:00, Sat 06:00 - 16:00, Sun 06:00 - 15:00",,,0
Einstein Bros. Bagels,1656,6520 E 82nd St,,Indianapolis,IN,46250,US,(317) 849-9886,-86.05491331,39.90569119,"Mon 05:00 - 16:00, Tue 05:00 - 16:00, Wnd 05:00 - 16:00, Thr 05:00 - 16:00, Fri 05:00 - 16:00, Sat 06:00 - 16:00, Sun 06:00 - 15:00",,,0
Einstein Bros. Bagels,3367,10900 Euclid Ave,Nord Hall,Cleveland,OH,44106,US,(216) 844-1889,-81.60802076,41.50249183,"Mon 08:00 - 17:00, Tue 08:00 - 17:00, Wnd 08:00 - 17:00, Thr 08:00 - 17:00, Fri 08:00 - 17:00",,,0
Einstein Bros. Bagels,3028,6799 Pearl Rd,,Middleburg Heights,OH,44130,US,(440) 845-9996,-81.78506842,41.3800275,"Mon 06:00 - 16:00, Tue 06:00 - 16:00, Wnd 06:00 - 16:00, Thr 06:00 - 16:00, Fri 06:00 - 16:00, Sat 06:00 - 16:00, Sun 06:00 - 15:00",,,0
Einstein Bros. Bagels,2645,11255 Menaul Blvd NE,,Albuquerque,NM,87112,US,(505) 332-1526,-106.5159143,35.11067321,"Mon 05:30 - 17:00, Tue 05:30 - 17:00, Wnd 05:30 - 17:00, Thr 05:30 - 17:00, Fri 05:30 - 17:00, Sat 06:00 - 16:00, Sun 06:00 - 15:00",,,0
Einstein Bros. Bagels,4068,6105 N. Mesa Avenue,,El Paso,TX,79912,US,(915) 261-7161,-106.531778,31.83114161,"Mon 05:00 - 16:00, Tue 05:00 - 16:00, Wnd 05:00 - 16:00, Thr 05:00 - 16:00, Fri 05:00 - 16:00, Sat 06:00 - 17:00, Sun 07:00 - 16:00",,,0
Einstein Bros. Bagels,3394,"310 LSU Student Union, 1st Floor",Student Union,Baton Rouge,LA,70893,US,(225) 578-0829,-91.17720912,30.41272626,"Mon 07:00 - 22:30, Tue 07:00 - 22:30, Wnd 07:00 - 22:30, Thr 07:00 - 22:30, Fri 07:00 - 22:30, Sat 11:00 - 22:30, Sun 11:00 - 22:30",,,0
Einstein Bros. Bagels,6068,700 University Ave #121,Student Union,Monroe,LA,71209,US,(318) 342-1997,-92.07365836,32.52783462,"Mon 07:00 - 16:00, Tue 07:00 - 16:00, Wnd 07:00 - 16:00, Thr 07:00 - 16:00, Fri 07:00 - 14:00",,,0
Einstein Bros. Bagels,6168,615 City Park Ave,Student Center,New Orleans,LA,70119,US,,-90.10491447,29.98742475,"Mon 07:30 - 19:00, Tue 07:30 - 19:00, Wnd 07:30 - 19:00, Thr 07:30 - 19:00, Fri 07:30 - 13:30",,,0
Einstein Bros. Bagels,3378,116 N 31st Street,International Center,Hattiesburg,MS,39406,US,601-266-5836,-89.33630862,31.32776455,"Mon 07:30 - 19:00, Tue 07:30 - 19:00, Wnd 07:30 - 19:00, Thr 07:30 - 19:00, Fri 07:30 - 14:00",,,0
Einstein Bros. Bagels,6119,201 Donaghey Ave,Student Center,Conway,AR,72035,US,(501) 450-3336,-92.45760469,35.07792288,"Mon 07:00 - 22:00, Tue 07:00 - 22:00, Wnd 07:00 - 22:00, Thr 07:00 - 22:00, Fri 07:00 - 17:00, Sun 16:00 - 22:00",,,0
Einstein Bros. Bagels,6006,6500 S MacArthur Blvd,HQ Building,Oklahoma City,OK,73169,US,(800) 224-3563,-97.61782849,35.39953003,"Mon 06:00 - 14:00, Tue 06:00 - 14:00, Wnd 06:00 - 14:00, Thr 06:00 - 14:00, Fri 06:00 - 14:00, Sat 06:00 - 12:00, Sun 06:00 - 12:00",,,0
Einstein Bros. Bagels,4045,8125 E 101st St,,Tulsa,OK,74133,US,(918) 872-7853,-95.88529308,36.01782571,"Mon 06:00 - 15:00, Tue 06:00 - 15:00, Wnd 06:00 - 15:00, Thr 06:00 - 15:00, Fri 06:00 - 15:00, Sat 06:00 - 15:00, Sun 06:00 - 15:00",,,0
Einstein Bros. Bagels,6032,307 N University Blvd,Health Science,Mobile,AL,36688,US,(251) 445-9503,-88.17476612,30.70010739,"Mon 08:00 - 17:00, Tue 08:00 - 17:00, Wnd 08:00 - 17:00, Thr 08:00 - 17:00, Fri 08:00 - 15:00",,,0
Einstein Bros. Bagels,6281,915 E Market,Hammon Student Center,Searcy,AR,72149,US,501-281-8563,-91.7262,35.25007075,"Mon 07:30 - 21:00, Tue 07:30 - 21:00, Wnd 07:30 - 21:00, Thr 07:30 - 21:00, Fri 07:30 - 21:00, Sat 12:00 - 21:00, Sun 12:00 - 21:00",,,0
Einstein Bros. Bagels,4049,4923 E 71st St,,Tulsa,OK,74136,US,(918) 551-6332,-95.92103395,36.06129475,"Mon 06:00 - 16:00, Tue 06:00 - 16:00, Wnd 06:00 - 16:00, Thr 06:00 - 16:00, Fri 06:00 - 16:00, Sat 06:00 - 15:00, Sun 06:00 - 15:00",,,0
Einstein Bros. Bagels,6297,4000 Dauphin St,Burke Library,Mobile,AL,36608,US,,-88.1350681186,30.6856385618,"Mon 07:00 - 21:00, Tue 07:00 - 21:00, Wnd 07:00 - 21:00, Thr 07:00 - 21:00, Fri 07:00 - 21:00",,,0
Einstein Bros. Bagels,6121,435 N Garland Ave,Student Union,Fayetteville,AR,72701,US,(479) 575-4390,-94.1761113,36.06886049,"Mon 07:30 - 17:00, Tue 07:00 - 17:00, Wnd 07:00 - 17:00, Thr 07:00 - 17:00, Fri 07:30 - 15:00",,,0
Einstein Bros. Bagels,4060,2660 E 21st St,,Tulsa,OK,74114,US,(918) 960-2761,-95.95131271,36.13297099,"Mon 06:00 - 16:00, Tue 06:00 - 16:00, Wnd 06:00 - 16:00, Thr 06:00 - 16:00, Fri 06:00 - 16:00, Sat 06:00 - 15:00, Sun 06:00 - 15:00",,,0
Einstein Bros. Bagels,4060,2660 E 21st St,,Tulsa,OK,74114,US,(918) 960-2761,-95.95131271,36.13297099,"Mon 06:00 - 16:00, Tue 06:00 - 16:00, Wnd 06:00 - 16:00, Thr 06:00 - 16:00, Fri 06:00 - 16:00, Sat 06:00 - 15:00, Sun 06:00 - 15:00",,,0
Einstein Bros. Bagels,6237,440 S Gary Ave,Allen Chapman Activity Center,Tulsa,OK,74104,US,918-631-2186,-95.94356286,36.15357065,"Mon 07:30 - 14:00, Tue 07:30 - 14:00, Wnd 07:30 - 14:00, Thr 07:30 - 14:00, Fri 07:30 - 14:00",,,0
Einstein Bros. Bagels,6086,1613 Marshall Rd,Freedom Crossing Food Court,Ft. Bliss,TX,79906,US,915-566-8960,-106.4295809,31.81765924,"Mon 07:00 - 14:00, Tue 07:00 - 14:00, Wnd 07:00 - 14:00, Thr 07:00 - 14:00, Fri 07:00 - 14:00, Sat 07:00 - 14:00, Sun 07:00 - 14:00",,,0
Einstein Bros. Bagels,3530,500 W University Ave E Ste 7,Bookstore,El Paso,TX,79968,US,(800) 224-3563,-106.5074582,31.76912561,"Mon 07:00 - 15:00, Tue 07:00 - 15:00, Wnd 07:00 - 15:00, Thr 07:00 - 15:00, Fri 07:00 - 15:00, Sat 07:00 - 15:00, Sun 07:00 - 15:00",,,0
Einstein Bros. Bagels,4027,1500 N College Ave,,Fayetteville,AR,72703,US,(479) 587-8950,-94.15609485,36.08155869,"Mon 05:30 - 17:00, Tue 05:30 - 17:00, Wnd 05:30 - 17:00, Thr 05:30 - 17:00, Fri 05:30 - 17:00, Sat 06:00 - 17:00, Sun 06:00 - 17:00",,,0
Einstein Bros. Bagels,6280,1450 Alta Vista,Welcome Center,Dubuque,IA,52001,US,(563) 588-7067,-90.67802558,42.50355358,"Mon 06:00 - 20:00, Tue 06:00 - 20:00, Wnd 06:00 - 20:00, Thr 06:00 - 20:00, Fri 06:00 - 14:00, Sat 07:00 - 14:00, Sun 07:00 - 14:00",,,0
"""COMING SOON"" - Caribou Coffee & Einstein Bros. Bagels",1366,800 Wacker Drive,,Dubuque,IA,52002-5224,US,1-888-227-4268,-90.719291687,42.4929733276,,,,1
Einstein Bros. Bagels,6213,535 W Michigan St,Info & Comm Tech Center,Indianapolis,IN,46202,US,(317) 274-5157,-86.16805634,39.77403972,"Mon 07:00 - 15:00, Tue 07:00 - 15:00, Wnd 07:00 - 15:00, Thr 07:00 - 15:00, Fri 07:00 - 15:00",,,0
Einstein Bros. Bagels,3314,550 Chestnut St,Student Union,Terre Haute,IN,47809,US,(812) 237-3082,-87.41104238,39.47098501,"Mon 09:00 - 15:00, Tue 07:00 - 14:00, Wnd 07:00 - 14:00, Thr 07:00 - 14:00, Fri 07:00 - 15:00, Sat 09:00 - 15:00, Sun 09:00 - 15:00",,,0
Einstein Bros. Bagels,6239,422 N Washington Sq,Cannon Building,Lansing,MI,48933,US,(517) 483-9955,-84.55140963,42.73846602,"Mon 07:00 - 16:30, Tue 07:00 - 16:00, Wnd 07:00 - 16:00, Thr 07:00 - 16:00",,,0
Einstein Bros. Bagels,6075,700 E Broadway,Hewes Library,Monmouth,IL,61462,US,(309) 457-2346,-90.63752488,40.91463622,"Mon 07:30 - 20:00, Tue 07:30 - 20:00, Wnd 07:30 - 20:00, Thr 07:30 - 20:00, Fri 07:30 - 14:00",,,0
Einstein Bros. Bagels,6118,1 University Cir,University Union Building,Macomb,IL,61455,US,(309) 298-1292,-90.68531195,40.46673654,"Mon 07:30 - 15:00, Tue 07:30 - 15:00, Wnd 07:30 - 15:00, Thr 07:30 - 15:00, Fri 07:30 - 14:00",,,0
Einstein Bros. Bagels,3483,195 E Ojibway Ct,Education Health Services,Mt Pleasant,MI,48858,US,(989) 774-6406,-84.7749986,43.58557668,"Mon 07:30 - 20:30, Tue 07:30 - 20:30, Wnd 07:30 - 20:30, Thr 07:30 - 19:00, Fri 07:30 - 13:30",,,0
Einstein Bros. Bagels,3465,1500 E Medical Center Dr,Medical Center,Ann Arbor,MI,48109,US,(734) 232-4827,-83.72942725,42.28436104,"Mon 06:00 - 14:00, Tue 06:00 - 20:00, Wnd 06:00 - 20:00, Thr 06:00 - 20:00, Fri 06:00 - 20:00, Sat 06:00 - 20:00, Sun 06:00 - 14:00",,,0
Einstein Bros. Bagels,3306,1200 Oakwood St.,Hoyt Conference Center,Ypsilanti,MI,48197,US,(734) 487-3066,-83.62843759,42.25379955,"Mon 07:00 - 16:00, Tue 07:00 - 16:00, Wnd 07:00 - 16:00, Thr 07:00 - 16:00, Fri 07:00 - 16:00, Sat 09:00 - 16:00, Sun 09:00 - 16:00",,,0
Einstein Bros. Bagels,4087,2230 N Canton Center Rd,,Canton,MI,48187,US,(734) 667-2269,-83.48713657,42.31959059,"Mon 05:30 - 17:00, Tue 05:30 - 17:00, Wnd 05:30 - 17:00, Thr 05:30 - 17:00, Fri 05:30 - 17:00, Sat 06:00 - 16:00, Sun 06:00 - 15:00",,,0
Einstein Bros. Bagels,6170,1700 University Ave,,Flint,MI,48504,US,(810) 232-7670,-83.71190033,43.01339972,"Mon 07:00 - 00:00, Tue 07:00 - 00:00, Wnd 07:00 - 00:00, Thr 07:00 - 00:00, Fri 07:00 - 18:00",,,0
Einstein Bros. Bagels,4006,1728 S 46th St Ste 102,,Rogers,AR,72758,US,(479) 631-6200,-94.18204852,36.31523133,"Mon 05:30 - 17:00, Tue 05:30 - 17:00, Wnd 05:30 - 17:00, Thr 05:30 - 17:00, Fri 05:30 - 17:00, Sat 06:00 - 17:00, Sun 06:00 - 17:00",,,0
"""COMING SOON"" - Einstein Bros. Bagels",6320,801 S Walton Blvd.,,Bentonville,AR,72712,US,417-715-6602,-94.2191933499,36.3639987077,"Mon 05:30 - 18:00, Tue 05:30 - 18:00, Wnd 05:30 - 18:00, Thr 05:30 - 18:00, Fri 05:30 - 18:00, Sat 07:00 - 15:00",,,0
Einstein Bros. Bagels,3015,15077 N Sheldon Rd,,Plymouth,MI,48170,US,(734) 414-8567,-83.48297292,42.39350047,"Mon 05:30 - 17:00, Tue 05:30 - 17:00, Wnd 05:30 - 17:00, Thr 05:30 - 17:00, Fri 05:30 - 17:00, Sat 06:00 - 16:00, Sun 06:00 - 15:00",,,0
Einstein Bros. Bagels,2344,640 Ann Arbor Rd W,,Plymouth,MI,48170,US,(734) 414-9889,-83.46691346,42.35918894,"Mon 05:30 - 17:00, Tue 05:30 - 17:00, Wnd 05:30 - 17:00, Thr 05:30 - 17:00, Fri 05:30 - 17:00, Sat 06:00 - 16:00, Sun 06:00 - 15:00",,,0
Einstein Bros. Bagels,6029,7400 Bay Road,Regional Education Center,University Center,MI,48710,US,(989) 964-2211,-83.9654057,43.51640771,"Mon 08:00 - 20:00, Tue 08:00 - 20:00, Wnd 08:00 - 20:00, Thr 08:00 - 20:00, Fri 08:00 - 14:00",,,0
Einstein Bros. Bagels,2774,17101 Haggerty Rd,,Northville,MI,48168,US,(248) 347-9949,-83.43361595,42.41157723,"Mon 05:30 - 16:00, Tue 05:30 - 16:00, Wnd 05:30 - 16:00, Thr 05:30 - 16:00, Fri 05:30 - 16:00, Sat 06:00 - 16:00, Sun 06:00 - 15:00",,,0
Einstein Bros. Bagels,2004,8366 Richardson Rd,,Commerce Township,MI,48382,US,(248) 366-9898,-83.44783561,42.57834436,"Mon 05:30 - 17:00, Tue 05:30 - 17:00, Wnd 05:30 - 17:00, Thr 05:30 - 17:00, Fri 05:30 - 17:00, Sat 06:00 - 17:00, Sun 06:00 - 15:00",,,0
Einstein Bros. Bagels,3105,27841 Orchard Lake Rd,,Farmington Hills,MI,48334,US,(248) 489-9917,-83.35948362,42.50036883,"Mon 05:00 - 17:00, Tue 05:00 - 17:00, Wnd 05:00 - 17:00, Thr 05:00 - 17:00, Fri 05:00 - 17:00, Sat 06:00 - 17:00, Sun 06:00 - 15:00",,,0
Einstein Bros. Bagels,1874,750 N Telegraph Rd,,Dearborn,MI,48128,US,(313) 730-9888,-83.27162752,42.31711601,"Mon 05:00 - 17:00, Tue 05:00 - 17:00, Wnd 05:00 - 17:00, Thr 05:00 - 17:00, Fri 05:00 - 17:00, Sat 06:00 - 16:00, Sun 06:00 - 15:00",,,0
Einstein Bros. Bagels,6162,1741 State St,Cartwright Center,La Crosse,WI,54601,US,,-91.22914345,43.81341374,"Mon 07:00 - 19:30, Tue 07:00 - 19:30, Wnd 07:00 - 19:30, Thr 07:00 - 19:30, Fri 07:00 - 17:00",,,0
Einstein Bros. Bagels,6199,900 Viterbo Dr,Ted Wehr Library,La Crosse,WI,54601,US,(608) 796-3274,-91.24431304,43.80286789,"Mon 07:30 - 20:00, Tue 07:30 - 20:00, Wnd 07:30 - 20:00, Thr 07:30 - 20:00, Fri 07:30 - 14:30",,,0
Einstein Bros. Bagels,1201,4089 W Maple Rd,,Bloomfield Township,MI,48301,US,(248) 258-9939,-83.28419017,42.54446716,"Mon 05:30 - 17:00, Tue 05:30 - 17:00, Wnd 05:30 - 17:00, Thr 05:30 - 17:00, Fri 05:30 - 17:00, Sat 06:00 - 16:00, Sun 06:00 - 15:00",,,0
Einstein Bros. Bagels,6065,21000 W 10 Mile Rd,Buell Management Bldg - Atrium,Southfield,MI,48075,US,(248) 204-3203,-83.24987173,42.47550024,"Mon 07:30 - 14:00, Tue 07:30 - 14:00, Wnd 07:30 - 14:00, Thr 07:30 - 14:00, Fri 07:30 - 14:00",,,0
Einstein Bros. Bagels,3016,5700 Mercury Dr,,Dearborn,MI,48126,US,(313) 271-9788,-83.20374865,42.33127589,"Mon 05:00 - 17:00, Tue 05:00 - 17:00, Wnd 05:00 - 17:00, Thr 05:00 - 17:00, Fri 05:00 - 17:00, Sat 07:00 - 14:00, Sun 07:00 - 14:00",,,0
Einstein Bros. Bagels,1249,29191 Southfield Rd,,Southfield,MI,48076,US,(248) 557-9892,-83.22320104,42.50448955,"Mon 05:30 - 17:00, Tue 05:00 - 17:00, Wnd 05:30 - 17:00, Thr 05:30 - 17:00, Fri 05:30 - 17:00, Sat 06:00 - 16:00, Sun 06:00 - 15:00",,,0
Einstein Bros. Bagels,6253,2200 N Squirrel Rd,Engineering Center,Rochester,MI,48309,US,,-83.21522828,42.67167507,"Mon 07:30 - 17:00, Tue 07:30 - 17:00, Wnd 07:30 - 17:00, Thr 07:30 - 17:00, Fri 07:30 - 15:00",,,0
Einstein Bros. Bagels,1803,27365 Woodward Ave,,Berkley,MI,48072,US,(248) 545-9888,-83.16127106,42.49159147,"Mon 05:30 - 17:00, Tue 05:30 - 17:00, Wnd 05:30 - 17:00, Thr 05:30 - 17:00, Fri 05:30 - 17:00, Sat 06:00 - 16:00, Sun 06:00 - 15:00",,,0
Einstein Bros. Bagels,1638,3043 Crooks Rd,,Troy,MI,48084,US,(248) 816-9980,-83.16800077,42.56249345,"Mon 05:30 - 17:00, Tue 05:30 - 17:00, Wnd 05:30 - 17:00, Thr 05:30 - 17:00, Fri 05:30 - 17:00, Sat 06:00 - 16:00, Sun 06:00 - 15:00",,,0
Einstein Bros. Bagels,3526,2950 Hobson Way,WPAFB  Bldg 642 Area B,Dayton,OH,45433,US,(937) 258-0535,-84.08261302,39.78303314,"Mon 07:00 - 15:00, Tue 07:00 - 15:00, Wnd 07:00 - 15:00, Thr 07:00 - 15:00, Fri 07:00 - 15:00",,,0
Einstein Bros. Bagels,4088,2972 S. Rochester Road,,Rochester Hills,MI,48307,US,248-606-4519,-83.13259,42.63647,"Mon 05:30 - 17:00, Tue 05:30 - 17:00, Wnd 05:30 - 17:00, Thr 05:30 - 17:00, Fri 05:30 - 17:00, Sat 06:00 - 16:00, Sun 06:00 - 15:00",,,0
Einstein Bros. Bagels,3375,695 Williams Mall,,Detroit,MI,48202,US,(313) 577-4848,-83.07204892,42.35677239,"Mon 07:00 - 15:00, Tue 07:00 - 15:00, Wnd 07:00 - 15:00, Thr 07:00 - 15:00, Fri 07:00 - 15:00",,,0
Einstein Bros. Bagels,3062,1925 E Big Beaver Rd,,Troy,MI,48083,US,(248) 619-9963,-83.10981456,42.56467959,"Mon 06:00 - 17:00, Tue 06:00 - 16:00, Wnd 06:00 - 16:00, Thr 06:00 - 16:00, Fri 06:00 - 16:00, Sat 06:00 - 16:00, Sun 06:00 - 15:00",,,0
Einstein Bros. Bagels,3382,4881 Sugar Maple Dr,"Hospital Annex, Bldg 830, Area C",Wpafb,OH,45433,US,(937) 878-7863,-84.03703787,39.80521055,"Mon 07:00 - 14:30, Tue 07:00 - 14:30, Wnd 07:00 - 14:30, Thr 07:00 - 14:30, Fri 07:00 - 14:30",,,0
Einstein Bros. Bagels,6266,30001 Van Dyke Ave,VEC Tower,Warren,MI,48090,US,586-634-0212,-83.03148926,42.51076731,"Mon 07:00 - 16:00, Tue 07:00 - 16:00, Wnd 07:00 - 16:00, Thr 07:00 - 16:00, Fri 07:00 - 16:00",,,0
Einstein Bros. Bagels,4091,9216 Allen Road,,Westchester,OH,45069,US,513-682-6684,-84.43414663,39.32454251,"Mon 05:30 - 16:00, Tue 05:30 - 16:00, Wnd 05:30 - 16:00, Thr 05:30 - 16:00, Fri 05:30 - 16:00, Sat 06:00 - 16:00, Sun 07:00 - 15:00",,,0
Caribou Coffee & Einstein Bros. Bagels,1349,2825 Crossroads Blvd,,Waterloo,IA,50701-4407,US,319-234-4406,-92.32450104,42.46411514,"Mon 05:00 - 21:00, Tue 05:00 - 21:00, Wnd 05:00 - 21:00, Thr 05:00 - 21:00, Fri 05:00 - 21:00, Sat 06:00 - 21:00, Sun 06:00 - 20:00",,,0
Einstein Bros. Bagels,3418,888 N County Road 260,Commodore Perry Travel Plaza,Clyde,OH,43410,US,(419) 547-4718,-82.95870971,41.36778474,"Mon 07:00 - 19:00, Tue 07:00 - 19:00, Wnd 07:00 - 19:00, Thr 07:00 - 19:00, Fri 07:00 - 19:00, Sat 07:00 - 19:00, Sun 07:00 - 19:00",,,0
Einstein Bros. Bagels,3417,1012 N County Road 260,Erie Island Travel Plaza,Clyde,OH,43410,US,(419) 547-4499,-82.95627728,41.36920449,"Mon 07:00 - 19:00, Tue 07:00 - 19:00, Wnd 07:00 - 19:00, Thr 07:00 - 19:00, Fri 07:00 - 19:00, Sat 07:00 - 19:00, Sun 07:00 - 19:00",,,0
Einstein Bros. Bagels,2806,16828 Kercheval,,Grosse Pointe,MI,48230,US,(313) 640-9887,-82.9179859,42.38932114,"Mon 05:30 - 17:00, Tue 05:30 - 17:00, Wnd 05:30 - 17:00, Thr 05:30 - 17:00, Fri 05:30 - 17:00, Sat 06:00 - 17:00, Sun 06:00 - 15:00",,,0
Einstein Bros. Bagels,851,19341 Mack Ave,,Grosse Pointe Woods,MI,48236,US,(313) 640-9888,-82.9105843,42.42165507,"Mon 05:30 - 17:00, Tue 05:30 - 17:00, Wnd 05:30 - 17:00, Thr 05:30 - 17:00, Fri 05:30 - 17:00, Sat 06:00 - 16:00, Sun 06:00 - 15:00",,,0
Einstein Bros. Bagels,4076,271 Calhoun St #5101B,,Cincinnati,OH,45219,US,(513) 221-0036,-84.5175706,39.12820191,"Mon 06:00 - 17:00, Tue 06:00 - 17:00, Wnd 06:00 - 17:00, Thr 06:00 - 17:00, Fri 06:00 - 20:00, Sat 07:00 - 20:00, Sun 07:00 - 16:00",,,0
Caribou Coffee & Einstein Bros. Bagels,8589,175 West Mark Street,,Winona,MN,55987,US,1-888-227-4268,-91.64400644,44.04555619,,,,0
Einstein Bros. Bagels,4098,202 E 6th Street,,Cincinatti,OH,45202,US,513-381-2395,-84.5098762214,39.1029851139,"Mon 05:30 - 18:00, Tue 05:30 - 18:00, Wnd 05:30 - 18:00, Thr 05:30 - 18:00, Fri 05:30 - 18:00, Sat 07:00 - 17:00, Sun 07:00 - 17:00",,,0
Einstein Bros. Bagels,6138,20 Kenton Dr,Steely Library,Highland Heights,KY,41076,US,(859) 572-1943,-84.46414525,39.03186833,"Mon 07:30 - 18:30, Tue 07:30 - 18:30, Wnd 07:30 - 18:30, Thr 07:30 - 18:30, Fri 07:30 - 15:00",,,0
Einstein Bros. Bagels,6107,1 University Blvd,Millennium Student Center,Saint Louis,MO,63121,US,(314) 516-7304,-90.30898423,38.71142359,"Mon 07:30 - 18:00, Tue 07:30 - 18:00, Wnd 07:30 - 18:00, Thr 07:30 - 18:00, Fri 07:30 - 14:00",,,0
Einstein Bros. Bagels,6252,3650 Lindell Blvd,Pius XII Library,Saint Louis,MO,63108,US,(314) 367-7999,-90.23503266,38.63702605,"Mon 07:30 - 22:00, Tue 07:30 - 22:00, Wnd 07:30 - 22:00, Thr 07:30 - 22:00, Fri 07:30 - 15:00, Sat 11:00 - 15:00, Sun 15:00 - 22:00",,,0
Einstein Bros. Bagels,1207,2 N Euclid Ave,,Saint Louis,MO,63108,US,(314) 367-7999,-90.26201527,38.64046223,"Mon 05:30 - 17:00, Tue 05:30 - 17:00, Wnd 05:30 - 17:00, Thr 05:30 - 17:00, Fri 05:30 - 17:00, Sat 06:00 - 15:00, Sun 06:00 - 15:00",,,0
Einstein Bros. Bagels,6078,1 Brookings Dr,Simon Hall,Saint Louis,MO,63130,US,(314) 935-4652,-90.31152968,38.64795772,"Mon 07:45 - 18:15, Tue 07:45 - 18:15, Wnd 07:45 - 18:15, Thr 07:45 - 18:15, Fri 07:45 - 14:00",,,0
Einstein Bros. Bagels,1256,6682 Clayton Rd,,Richmond Heights,MO,63117,US,(314) 644-1360,-90.31597127,38.63411879,"Mon 05:30 - 17:00, Tue 05:30 - 17:00, Wnd 05:30 - 17:00, Thr 05:30 - 17:00, Fri 05:30 - 17:00, Sat 06:00 - 16:00, Sun 06:00 - 15:00",,,0
Einstein Bros. Bagels,1999,6700 Sawmill Rd,,Columbus,OH,43235,US,(614) 764-2907,-83.09056287,40.10411734,"Mon 06:00 - 17:00, Tue 06:00 - 17:00, Wnd 06:00 - 17:00, Thr 06:00 - 17:00, Fri 06:00 - 17:00, Sat 06:00 - 16:00, Sun 06:00 - 15:00",,,0
Einstein Bros. Bagels,6221,1912 S Brentwood Blvd,,Brentwood,MO,63144,US,(314) 942-1386,-90.34715998,38.62429093,"Mon 06:00 - 17:00, Tue 06:00 - 17:00, Wnd 06:00 - 17:00, Thr 06:00 - 17:00, Fri 06:00 - 17:00, Sat 06:00 - 17:00, Sun 06:00 - 17:00",,,0
Einstein Bros. Bagels,6269,302 E Cleveland Ave,Overman Student Center,Pittsburg,KS,66762,US,620-235-4995,-94.70234265,37.39197553,"Mon 07:00 - 17:00, Tue 07:00 - 17:00, Wnd 07:00 - 17:00, Thr 07:00 - 17:00, Fri 07:00 - 17:00",,,0
Einstein Bros. Bagels,6299,1250 Siskiyou Blvd,Stevenson Student Union,Ashland,OR,97520,US,541.552.8000,-122.6970852,42.18736495,"Mon 07:30 - 17:00, Tue 07:30 - 17:00, Wnd 07:30 - 17:00, Thr 07:30 - 17:00, Fri 07:30 - 17:00",,,0
Einstein Bros. Bagels,2924,425 SW Madison Ave Ste B,,Corvallis,OR,97333,US,(541) 753-7983,-123.2628303,44.56388118,"Mon 06:00 - 16:00, Tue 06:00 - 16:00, Wnd 06:00 - 16:00, Thr 06:00 - 16:00, Fri 06:00 - 16:00, Sat 07:00 - 16:00, Sun 07:00 - 16:00",,,0
Einstein Bros. Bagels,6264,3201 W Airport Way Ste 1000,Terminal B - Food Court,Boise,ID,83705,US,,-116.2221145,43.56828839,"Mon 04:30 - 20:30, Tue 04:30 - 20:30, Wnd 04:30 - 20:30, Thr 04:30 - 20:30, Fri 04:30 - 20:30, Sat 04:30 - 20:30, Sun 04:30 - 20:30",,,0
Einstein Bros. Bagels,6114,1910 University Dr,Interactive Learning Center,Boise,ID,83725,US,(208) 426-4668,-116.2062227,43.6048698,"Mon 07:30 - 19:00, Tue 07:30 - 19:00, Wnd 07:30 - 19:00, Thr 07:30 - 19:00, Fri 07:30 - 15:00",,,0
Einstein Bros. Bagels,3421,7104 SW Hazelfern Rd,,Tigard,OR,97224,US,(503) 624-4826,-122.7506122,45.39462935,"Mon 05:00 - 17:00, Tue 05:00 - 17:00, Wnd 05:00 - 17:00, Thr 05:00 - 17:00, Fri 05:00 - 17:00, Sat 06:00 - 16:00, Sun 06:00 - 16:00",,,0
Einstein Bros. Bagels,3420,8430 SW Nimbus Ave Ste 200,,Beaverton,OR,97008,US,(503) 626-7430,-122.7893485,45.4586979,"Mon 05:00 - 16:00, Tue 05:00 - 16:00, Wnd 05:00 - 16:00, Thr 05:00 - 16:00, Fri 05:00 - 16:00, Sat 07:00 - 15:00, Sun 07:00 - 15:00",,,0
Einstein Bros. Bagels,2190,6366 SW Capitol Hwy,,Portland,OR,97239,US,(503) 293-3183,-122.6963148,45.47779147,"Mon 05:00 - 17:00, Tue 05:00 - 17:00, Wnd 05:00 - 17:00, Thr 05:00 - 17:00, Fri 05:00 - 17:00, Sat 07:00 - 17:00, Sun 07:00 - 17:00",,,0
Einstein Bros. Bagels,3642,11625 SW Beaverton Hillsdale Hwy,,Beaverton,OR,97005,US,(503) 643-2334,-122.7972437,45.48730875,"Mon 05:30 - 17:00, Tue 05:30 - 17:00, Wnd 05:30 - 17:00, Thr 05:30 - 17:00, Fri 05:30 - 17:00, Sat 06:00 - 16:00, Sun 07:00 - 15:00",,,0
Einstein Bros. Bagels,3583,508 SW College St,,Portland,OR,97201,US,(971) 230-9995,-122.682851,45.50941083,"Mon 06:00 - 15:00, Tue 06:00 - 15:00, Wnd 06:00 - 15:00, Thr 06:00 - 15:00, Fri 06:00 - 15:00, Sat 07:00 - 15:00, Sun 07:00 - 15:00",,,0
Einstein Bros. Bagels,3338,1825 SW Broadway,Smith Center,Portland,OR,97201,US,(503) 725-4554,-122.6840953,45.51169068,"Mon 07:00 - 18:00, Tue 07:00 - 18:00, Wnd 07:00 - 18:00, Thr 07:00 - 18:00, Fri 07:00 - 15:00",,,0
Einstein Bros. Bagels,3576,845 SW 4th Ave,,Portland,OR,97204,US,(503) 445-8188,-122.6773798,45.51731561,"Mon 06:00 - 16:00, Tue 06:00 - 16:00, Wnd 06:00 - 16:00, Thr 06:00 - 16:00, Fri 06:00 - 16:00, Sat 07:00 - 15:00, Sun 07:00 - 15:00",,,0
Einstein Bros. Bagels,3459,1897 NW 188th Ave,,Hillsboro,OR,97006,US,(503) 629-9059,-122.8711514,45.53392927,"Mon 05:00 - 16:00, Tue 05:00 - 16:00, Wnd 05:00 - 16:00, Thr 05:00 - 16:00, Fri 05:00 - 16:00, Sat 06:00 - 16:00, Sun 07:00 - 16:00",,,0
Einstein Bros. Bagels,3590,3638 W 13400 S,,Riverton,UT,84065,US,(801) 997-7800,-111.9777929,40.50819716,"Mon 05:00 - 17:00, Tue 05:00 - 17:00, Wnd 05:00 - 17:00, Thr 05:00 - 17:00, Fri 05:00 - 17:00, Sat 06:00 - 16:00, Sun 06:00 - 15:00",,,0
Einstein Bros. Bagels,732,5588 S Redwood Rd,,Salt Lake City,UT,84123,US,(801) 966-6692,-111.9404601,40.64967764,"Mon 05:00 - 17:00, Tue 05:00 - 17:00, Wnd 05:00 - 17:00, Thr 05:00 - 17:00, Fri 05:00 - 17:00, Sat 06:00 - 16:00, Sun 06:00 - 15:00",,,0
Einstein Bros. Bagels,1253,72 E 10600 S,,Sandy,UT,84070,US,(801) 523-9356,-111.889103,40.5584847,"Mon 05:00 - 17:00, Tue 05:00 - 17:00, Wnd 05:00 - 17:00, Thr 05:00 - 17:00, Fri 05:00 - 17:00, Sat 06:00 - 16:00, Sun 06:00 - 15:00",,,0
Einstein Bros. Bagels,1319,1297 E Draper Pkwy,,Draper,UT,84020,US,(801) 523-8733,-111.8537935,40.52921034,"Mon 05:00 - 17:00, Tue 05:00 - 17:00, Wnd 05:00 - 17:00, Thr 05:00 - 17:00, Fri 05:00 - 17:00, Sat 06:00 - 16:00, Sun 06:00 - 15:00",,,0
Einstein Bros. Bagels,1247,7176 S Union Park Ave,,Midvale,UT,84047,US,(801) 565-8595,-111.856398,40.62118641,"Mon 05:00 - 17:00, Tue 05:00 - 17:00, Wnd 05:00 - 17:00, Thr 05:00 - 17:00, Fri 05:00 - 17:00, Sat 06:00 - 16:00, Sun 06:00 - 15:00",,,0
Einstein Bros. Bagels,1252,556 East 1300 South,,Orem,UT,84097,US,(801) 222-9997,-111.6820075,40.27269588,"Mon 05:00 - 17:00, Tue 05:00 - 17:00, Wnd 05:00 - 17:00, Thr 05:00 - 17:00, Fri 05:00 - 17:00, Sat 06:00 - 16:00, Sun 08:00 - 13:00",,,0
Einstein Bros. Bagels,731,2353 E Fort Union Blvd,,Salt Lake City,UT,84121,US,(801) 944-5590,-111.8234755,40.62429929,"Mon 05:00 - 17:00, Tue 05:00 - 17:00, Wnd 05:00 - 17:00, Thr 05:00 - 17:00, Fri 05:00 - 17:00, Sat 06:00 - 16:00, Sun 06:00 - 15:00",,,0
Einstein Bros. Bagels,733,4764 S Highland Dr,,Salt Lake City,UT,84117,US,(801) 272-7371,-111.8396741,40.6663218,"Mon 05:00 - 17:00, Tue 05:00 - 17:00, Wnd 05:00 - 17:00, Thr 05:00 - 17:00, Fri 05:00 - 17:00, Sat 06:00 - 16:00, Sun 06:00 - 15:00",,,0
Einstein Bros. Bagels,725,38 E 1230 N,,Provo,UT,84604,US,(801) 375-2114,-111.6580373,40.25039349,"Mon 05:00 - 17:00, Tue 05:00 - 17:00, Wnd 05:00 - 17:00, Thr 05:00 - 17:00, Fri 05:00 - 17:00, Sat 06:00 - 16:00",,,0
Einstein Bros. Bagels,1393,3292 S 1300 E Ste C,,Salt Lake City,UT,84106,US,(801) 467-2464,-111.854719,40.7002298,"Mon 05:00 - 17:00, Tue 05:00 - 17:00, Wnd 05:00 - 17:00, Thr 05:00 - 17:00, Fri 05:00 - 17:00, Sat 06:00 - 16:00, Sun 06:00 - 15:00",,,0
Einstein Bros. Bagels,1396,481 E South Temple,,Salt Lake City,UT,84111,US,(801) 322-0803,-111.877304,40.76972445,"Mon 05:00 - 17:00, Tue 05:00 - 17:00, Wnd 05:00 - 17:00, Thr 05:00 - 17:00, Fri 05:00 - 17:00, Sat 06:00 - 16:00, Sun 06:00 - 15:00",,,0
Einstein Bros. Bagels,724,1520 S 1500 E,,Salt Lake City,UT,84105,US,(801) 466-8669,-111.8481855,40.73660325,"Mon 05:00 - 17:00, Tue 05:00 - 17:00, Wnd 05:00 - 17:00, Thr 05:00 - 17:00, Fri 05:00 - 17:00, Sat 06:00 - 16:00, Sun 06:00 - 15:00",,,0
Einstein Bros. Bagels,1394,240 S 1300 E,,Salt Lake City,UT,84102,US,(801) 583-1757,-111.8542407,40.7639436,"Mon 05:00 - 17:00, Tue 05:00 - 17:00, Wnd 05:00 - 17:00, Thr 05:00 - 17:00, Fri 05:00 - 17:00, Sat 06:00 - 16:00, Sun 06:00 - 15:00",,,0
Einstein Bros. Bagels,6260,200 Central Campus Dr,Ray Olpin Union Bldg,Salt Lake City,UT,84112,US,,-111.84548,40.764683,"Mon 07:30 - 18:00, Tue 07:30 - 18:00, Wnd 07:30 - 18:00, Thr 07:30 - 18:00, Fri 07:30 - 16:00",,,0
Einstein Bros. Bagels,730,3923 S Wasatch Blvd,,Salt Lake City,UT,84124,US,(801) 278-6339,-111.7952316,40.68631078,"Mon 05:00 - 17:00, Tue 05:00 - 17:00, Wnd 05:00 - 17:00, Thr 05:00 - 17:00, Fri 05:00 - 17:00, Sat 06:00 - 16:00, Sun 06:00 - 15:00",,,0
Einstein Bros. Bagels,1206,498 S Main St,,Bountiful,UT,84010,US,(801) 296-8333,-111.88069,40.88444,"Mon 05:00 - 17:00, Tue 05:00 - 17:00, Wnd 05:00 - 17:00, Thr 05:00 - 17:00, Fri 05:00 - 17:00, Sat 06:00 - 16:00, Sun 06:00 - 15:00",,,0
Einstein Bros. Bagels,860,897 N Main St,,Layton,UT,84041,US,(801) 543-4344,-111.980027,41.07316341,"Mon 05:00 - 17:00, Tue 05:00 - 17:00, Wnd 05:00 - 17:00, Thr 05:00 - 17:00, Fri 05:00 - 17:00, Sat 06:00 - 16:00, Sun 06:00 - 15:00",,,0
Einstein Bros. Bagels,1392,4387 Harrison Blvd #D-2,,Ogden,UT,84403,US,(801) 476-3228,-111.9496335,41.18328232,"Mon 05:00 - 17:00, Tue 05:00 - 17:00, Wnd 05:00 - 17:00, Thr 05:00 - 17:00, Fri 05:00 - 17:00, Sat 06:00 - 16:00, Sun 06:00 - 15:00",,,0
Einstein Bros. Bagels,729,1890 Bonanza Dr Ste 118,,Park City,UT,84060,US,(435) 645-8489,-111.4994912,40.66161664,"Mon 06:00 - 17:00, Tue 06:00 - 17:00, Wnd 06:00 - 17:00, Thr 06:00 - 17:00, Fri 06:00 - 17:00, Sat 06:00 - 16:00, Sun 06:00 - 15:00",,,0
Einstein Bros. Bagels,6028,2100 S Floyd St,Humanities Building,Louisville,KY,40208,US,(502) 773-2160,-85.75867795,38.2165047,"Mon 07:30 - 17:00, Tue 07:30 - 17:00, Wnd 07:30 - 17:00, Thr 07:30 - 17:00, Fri 07:30 - 15:00",,,0
Einstein Bros. Bagels,6038,2001 Newburg Rd,Horrigan Hall,Louisville,KY,40205,US,(502) 272-8437,-85.70427042,38.21855046,"Mon 07:30 - 22:00, Tue 07:30 - 22:00, Wnd 07:30 - 22:00, Thr 07:30 - 22:00, Fri 07:30 - 22:00, Sat 09:00 - 20:00",,,0
Einstein Bros. Bagels,6259,631 S Limestone,Chemistry & Physics Bldg,Lexington,KY,40508,US,(859) 218-5382,-84.50405997,38.03562455,"Mon 07:30 - 18:00, Tue 07:30 - 18:00, Wnd 07:30 - 18:00, Thr 07:30 - 18:00, Fri 07:30 - 15:00",,,0
Einstein Bros. Bagels,3130,41 S High St,,Columbus,OH,43215,US,(614) 463-1290,-83.00004375,39.96123122,"Mon 06:00 - 17:00, Tue 06:00 - 17:00, Wnd 06:00 - 17:00, Thr 06:00 - 17:00, Fri 06:00 - 17:00",,,0
Einstein Bros. Bagels,3484,17 Powell Bldg,Moore Bldg,Richmond,KY,40475,US,(859) 622-2177,-84.30105231,37.74204316,"Mon 07:30 - 15:00, Tue 07:30 - 15:00, Wnd 07:30 - 15:00, Thr 07:30 - 15:00, Fri 07:30 - 15:00",,,0
Einstein Bros. Bagels,3485,1906 College Heights Blvd,Mass Media and Technology,Bowling Green,KY,42101,US,(270) 745-5056,-86.4568337,36.9828791,"Mon 07:00 - 19:00, Tue 07:00 - 19:00, Wnd 07:00 - 19:00, Thr 07:00 - 19:00, Fri 07:00 - 17:00",,,0
Einstein Bros. Bagels,3404,2840 Bastogne Ave,Post Exchange,Fort Campbell,KY,42223,US,(270) 640-7073,-87.45262842,36.64535123,"Mon 08:00 - 14:00, Tue 08:00 - 14:00, Wnd 08:00 - 14:00, Thr 08:00 - 14:00, Fri 08:00 - 14:00, Sat 09:00 - 14:00, Sun 09:00 - 14:00",,,0
Einstein Bros. Bagels,3444,603 College St,Morgan University Center,Clarksville,TN,37044,US,(931) 221-7474,-87.35395498,36.53315293,"Mon 07:00 - 22:00, Tue 07:00 - 22:00, Wnd 07:00 - 22:00, Thr 07:00 - 22:00, Fri 07:00 - 18:00, Sat 11:00 - 18:00, Sun 18:00 - 22:00",,,0
Einstein Bros. Bagels,857,8127 Big Bend Blvd,,Webster Groves,MO,63119,US,(314) 963-2080,-90.33819092,38.59199203,"Mon 05:30 - 17:00, Tue 05:30 - 17:00, Wnd 05:30 - 17:00, Thr 05:30 - 17:00, Fri 05:30 - 17:00, Sat 06:00 - 16:00, Sun 06:00 - 15:00",,,0
Einstein Bros. Bagels,2247,15828 Manchester Rd,,Ellisville,MO,63011,US,(636) 207-8044,-90.58371971,38.59225913,"Mon 05:30 - 16:00, Tue 05:30 - 16:00, Wnd 05:30 - 16:00, Thr 05:30 - 16:00, Fri 05:30 - 16:00, Sat 06:00 - 16:00, Sun 06:00 - 15:00",,,0
Einstein Bros. Bagels,1408,130 E 400 N,,Logan,UT,84321,US,(435) 755-5773,-111.8312621,41.73875001,"Mon 05:30 - 17:00, Tue 05:30 - 17:00, Wnd 05:30 - 17:00, Thr 05:30 - 17:00, Fri 05:30 - 17:00, Sat 06:00 - 16:00, Sun 06:00 - 15:00",,,0
Einstein Bros. Bagels,6116,721 South 9th Street,Pond Student Union,Pocatello,ID,83209,US,(208) 282-5831,-112.4326718,42.8604594,"Mon 07:00 - 19:00, Tue 07:00 - 19:00, Wnd 07:00 - 19:00, Thr 07:00 - 19:00, Fri 07:00 - 16:30",,,0
Einstein Bros. Bagels,3563,1661 Riverside Ave Ste 130,,Jacksonville,FL,32204,US,(904) 354-0991,-81.68046384,30.31150789,"Mon 05:00 - 16:00, Tue 05:00 - 16:00, Wnd 05:00 - 16:00, Thr 05:00 - 16:00, Fri 05:00 - 16:00, Sat 06:00 - 15:00, Sun 06:00 - 15:00",,,0
Einstein Bros. Bagels,6288,1 University of North Florida Drive,Student Union,Jacksonville,FL,32224,US,,-81.50921904,30.27218165,"Mon 07:30 - 18:00, Tue 07:30 - 18:00, Wnd 07:30 - 18:00, Thr 07:30 - 18:00, Fri 07:30 - 14:00",,,0
Einstein Bros. Bagels,6074,1404 Union Rd,Hough Hall,Gainesville,FL,32611,US,1-800-224-3583,-82.34086487,29.65034148,"Mon 07:00 - 16:00, Tue 07:00 - 16:00, Wnd 07:00 - 16:00, Thr 07:00 - 16:00, Fri 07:00 - 16:00",,,0
Einstein Bros. Bagels,3356,114 Recreational Dining Ctr,The Hub,Gainesville,FL,32611,US,(352) 392-9412,-82.34537223,29.64823574,"Mon 07:00 - 16:30, Tue 07:00 - 16:30, Wnd 07:00 - 16:30, Thr 07:00 - 16:30, Fri 07:00 - 16:30",,,0
Einstein Bros. Bagels,3392,1600 SW Archer Rd,Shands Hospital Complex,Gainesville,FL,32610,US,(352) 392-1021,-82.34497405,29.64055591,"Mon 07:00 - 15:00, Tue 07:00 - 15:00, Wnd 07:00 - 15:00, Thr 07:00 - 15:00, Fri 07:00 - 15:00, Sat 08:00 - 14:00, Sun 08:00 - 14:00",,,0
Einstein Bros. Bagels,6066,1800 SW 16th St,Veterinary Medicine Complex,Gainesville,FL,32609,US,(352) 294-4789,-82.3501185,29.63325381,"Mon 07:30 - 15:00, Tue 07:30 - 15:00, Wnd 07:30 - 15:00, Thr 07:30 - 15:00, Fri 07:30 - 15:00",,,0
Einstein Bros. Bagels,2950,110 S Nova Rd,,Ormond Beach,FL,32174,US,(386) 615-1652,-81.08380367,29.27828899,"Mon 05:00 - 17:00, Tue 05:00 - 17:00, Wnd 05:00 - 17:00, Thr 05:00 - 17:00, Fri 05:00 - 17:00, Sat 06:00 - 15:00, Sun 06:00 - 15:00",,,0
Einstein Bros. Bagels,3309,1500 Richard Petty Blvd,Adams Hall,Daytona Beach,FL,32114,US,(386) 226-7780,-81.05292189,29.19286052,"Mon 07:00 - 01:00, Tue 07:00 - 01:00, Wnd 07:00 - 01:00, Thr 07:00 - 01:00, Fri 07:00 - 01:00, Sat 07:00 - 01:00, Sun 07:00 - 01:00",,,0
Einstein Bros. Bagels,3345,421 N Woodland Blvd,Carlton Union Building,Deland,FL,32723,US,(386) 822-8780,-81.30224238,29.03684526,"Mon 08:00 - 18:00, Tue 08:00 - 18:00, Wnd 08:00 - 18:00, Thr 08:00 - 18:00, Fri 08:00 - 18:00, Sat 09:00 - 18:00, Sun 09:00 - 18:00",,,0
Einstein Bros. Bagels,3413,1500 N Patterson St,Dewar Education Center,Valdosta,GA,31698,US,(229) 333-5933,-83.29151238,30.84615072,"Mon 07:30 - 18:00, Tue 07:30 - 18:00, Wnd 07:30 - 18:00, Thr 07:30 - 18:00, Fri 07:30 - 13:00",,,0
Einstein Bros. Bagels,6241,2525 N Patterson St,Health Sciences and Business Admin.,Valdosta,GA,31602,US,(229) 333-5858,-83.28789722,30.86331989,"Mon 07:00 - 20:00, Tue 07:00 - 20:00, Wnd 07:00 - 20:00, Thr 07:00 - 20:00, Fri 07:00 - 17:00",,,0
Einstein Bros. Bagels,1204,3805 Lake Emma Rd,,Lake Mary,FL,32746,US,(407) 829-6600,-81.35432872,28.75503184,"Mon 05:00 - 15:00, Tue 05:00 - 15:00, Wnd 05:00 - 15:00, Thr 05:00 - 15:00, Fri 05:00 - 15:00, Sat 06:00 - 15:00, Sun 06:00 - 15:00",,,0
Einstein Bros. Bagels,2063,340 N State Road 434,,Altamonte Springs,FL,32714,US,(407) 786-4788,-81.41967081,28.66653095,"Mon 05:00 - 16:00, Tue 05:00 - 16:00, Wnd 05:00 - 16:00, Thr 05:00 - 16:00, Fri 05:00 - 16:00, Sat 06:00 - 16:00, Sun 06:00 - 15:00",,,0
Einstein Bros. Bagels,3478,150 State Route 436,,Casselberry,FL,32707,US,(321) 207-7122,-81.33947079,28.66004077,"Mon 05:00 - 17:00, Tue 05:00 - 17:00, Wnd 05:00 - 17:00, Thr 05:00 - 17:00, Fri 05:00 - 17:00, Sat 06:00 - 16:00, Sun 06:00 - 15:00",,,0
Einstein Bros. Bagels,3467,441 S Orlando Ave,,Maitland,FL,32751,US,(407) 644-3892,-81.3639995,28.62436999,"Mon 05:00 - 17:00, Tue 05:00 - 17:00, Wnd 05:00 - 17:00, Thr 05:00 - 17:00, Fri 05:00 - 17:00, Sat 06:00 - 16:00, Sun 06:00 - 15:00",,,0
"""COMING SOON"" - Einstein Bros. Bagels",6314,200 W Fairbanks Ave,Follett Bookstore,Winter Park,FL,32789,US,407 628 6303,-81.3521270752,28.5929164886,"Mon 08:00 - 15:00, Tue 08:00 - 15:00, Wnd 08:00 - 15:00, Thr 08:00 - 15:00, Fri 08:00 - 15:00, Sat 10:00 - 14:00, Sun 10:00 - 14:00",,,0
Einstein Bros. Bagels,848,1200 S Orlando Ave,,Winter Park,FL,32789,US,(407) 629-2334,-81.3646871,28.58663447,"Mon 05:00 - 17:00, Tue 05:00 - 17:00, Wnd 05:00 - 17:00, Thr 05:00 - 17:00, Fri 05:00 - 17:00, Sat 06:00 - 16:00, Sun 06:00 - 15:00",,,0
Einstein Bros. Bagels,2526,2817 Edgewater Dr,,Orlando,FL,32804,US,(407) 425-9911,-81.3892815,28.57675254,"Mon 05:00 - 17:00, Tue 05:00 - 17:00, Wnd 05:00 - 17:00, Thr 05:00 - 17:00, Fri 05:00 - 17:00, Sat 06:00 - 16:00, Sun 06:00 - 15:00",,,0
Einstein Bros. Bagels,3437,4400 Central Florida Blvd,Business Admin I,Orlando,FL,32816,US,(407) 823-1944,-81.19904442,28.60138401,"Mon 07:00 - 18:30, Tue 07:00 - 18:30, Wnd 07:00 - 18:30, Thr 07:00 - 18:30, Fri 07:00 - 17:00",,,0
Einstein Bros. Bagels,3303,"4400 Central Florida Blvd, Bldg 21",Education Bldg,Orlando,FL,32816,US,(407) 823-1946,-81.20411743,28.60013735,"Mon 07:00 - 16:00, Tue 07:00 - 16:00, Wnd 07:00 - 16:00, Thr 07:00 - 16:00, Fri 07:00 - 14:00",,,0
Einstein Bros. Bagels,2433,2800 E Colonial Dr,,Orlando,FL,32803,US,(407) 898-6488,-81.3476538,28.55296455,"Mon 05:00 - 16:00, Tue 05:00 - 16:00, Wnd 05:00 - 16:00, Thr 05:00 - 16:00, Fri 05:00 - 16:00, Sat 06:00 - 16:00, Sun 06:00 - 15:00",,,0
Einstein Bros. Bagels,1512,1901 S Orange Ave,,Orlando,FL,32806,US,(407) 649-8005,-81.37617267,28.52004131,"Mon 05:00 - 17:00, Tue 05:00 - 17:00, Wnd 05:00 - 17:00, Thr 05:00 - 17:00, Fri 05:00 - 17:00, Sat 06:00 - 16:00, Sun 06:00 - 15:00",,,0
Einstein Bros. Bagels,1255,4639 S Kirkman Rd,,Orlando,FL,32811,US,(407) 522-9777,-81.4584351,28.4947163,"Mon 05:00 - 17:00, Tue 05:00 - 17:00, Wnd 05:00 - 17:00, Thr 05:00 - 17:00, Fri 05:00 - 17:00, Sat 06:00 - 16:00, Sun 06:00 - 15:00",,,0
Einstein Bros. Bagels,2938,7600 Dr Phillips Blvd Ste 112,,Orlando,FL,32819,US,(407) 903-1553,-81.48946296,28.45164367,"Mon 05:00 - 17:00, Tue 05:00 - 17:00, Wnd 05:00 - 17:00, Thr 05:00 - 17:00, Fri 05:00 - 17:00, Sat 06:00 - 16:00, Sun 06:00 - 15:00",,,0
Einstein Bros. Bagels,3361,79 N Woodward Ave,Oglesby Union,Tallahassee,FL,32313,US,(850) 645-1886,-84.29753814,30.44469501,"Mon 07:00 - 16:00, Tue 07:00 - 16:00, Wnd 07:00 - 16:00, Thr 07:00 - 16:00, Fri 07:00 - 14:00",,,0
Einstein Bros. Bagels,6102,75 N Woodward Av,FSU Bus Stop,Tallahassee,FL,32313,US,(850) 645-9599,-84.29757806,30.44464186,"Mon 07:00 - 16:00, Tue 07:00 - 16:00, Wnd 07:00 - 16:00, Thr 07:00 - 16:00, Fri 07:00 - 14:30",,,0
Einstein Bros. Bagels,4096,4840 N Wickham Rd.,,Melbourne,FL,32940,US,321-428-4145,-80.6727902233,28.1874637363,"Mon 05:00 - 16:00, Tue 05:00 - 16:00, Wnd 05:00 - 16:00, Thr 05:00 - 16:00, Fri 05:00 - 16:00, Sat 06:00 - 16:00, Sun 06:00 - 16:00",,,0
Einstein Bros. Bagels,6307,1000 Longfellow Blvd,Live Life Bldg - College of Arts & Media,Lakeland,FL,33801,US,863-667-5095,-81.9177850485,28.029118413,"Mon 07:30 - 19:00, Tue 07:30 - 19:00, Wnd 07:30 - 19:00, Thr 07:30 - 19:00, Fri 07:30 - 19:00, Sun 08:00 - 17:00",,,0
Einstein Bros. Bagels,3332,4202 E Fowler Ave,Marshall Student Center,Tampa,FL,33620,US,(813) 974-5032,-82.41342655,28.0640188,"Mon 07:30 - 16:00, Tue 07:30 - 16:00, Wnd 07:30 - 16:00, Thr 07:30 - 16:00, Fri 07:30 - 15:00, Sat 09:00 - 14:00",,,0
Einstein Bros. Bagels,1280,5003 E Fowler Ave,,Tampa,FL,33617,US,(813) 988-0088,-82.40117333,28.05407494,"Mon 05:00 - 17:00, Tue 05:00 - 17:00, Wnd 05:00 - 17:00, Thr 05:00 - 17:00, Fri 05:00 - 17:00, Sat 06:00 - 16:00, Sun 06:00 - 15:00",,,0
Caribou Coffee & Einstein Bros. Bagels,3647,10802 N. Dale Mabry Highway,,Tampa,FL,33618,US,(813) 968-8868,-82.50512814,28.04676187,"Mon 05:00 - 21:00, Tue 05:00 - 21:00, Wnd 05:00 - 21:00, Thr 05:00 - 21:00, Fri 05:00 - 21:00, Sat 06:00 - 21:00, Sun 06:00 - 20:00",,,0
Einstein Bros. Bagels,6036,501 S College St,Second Floor,Charlotte,NC,28202,US,(704) 339-6102,-80.84493905,35.22205974,"Mon 08:00 - 13:30, Tue 08:00 - 13:30, Wnd 08:00 - 13:30, Thr 08:00 - 13:30, Fri 08:00 - 13:30",,,0
Einstein Bros. Bagels,6021,320 E 9th Street,Uptown Campus,Charlotte,NC,28202,US,(704) 687-0838,-80.83491729,35.22845467,"Mon 08:30 - 20:00, Tue 08:30 - 20:00, Wnd 08:30 - 20:00, Thr 08:30 - 20:00, Fri 08:30 - 15:00",,,0
Einstein Bros. Bagels,4030,1501 South Blvd,,Charlotte,NC,28203,US,(704) 333-4370,-80.85462256,35.21423309,"Mon 05:30 - 17:00, Tue 05:30 - 17:00, Wnd 05:30 - 17:00, Thr 05:30 - 17:00, Fri 05:30 - 17:00, Sat 06:00 - 17:00, Sun 06:00 - 17:00",,,0
Einstein Bros. Bagels,4084,1511 S Harbor City Blvd,,Melbourne,FL,32901,US,321-802-4587,-80.60547664,28.08387146,"Mon 05:00 - 15:00, Tue 05:00 - 15:00, Wnd 05:00 - 15:00, Thr 05:00 - 15:00, Fri 05:00 - 15:00, Sat 06:00 - 15:00, Sun 06:00 - 15:00",,,0
Einstein Bros. Bagels,1288,33119 US Highway 19 N,,Palm Harbor,FL,34684,US,(727) 771-9448,-82.73732065,28.07319833,"Mon 05:00 - 17:00, Tue 05:00 - 17:00, Wnd 05:00 - 17:00, Thr 05:00 - 17:00, Fri 05:00 - 17:00, Sat 06:00 - 16:00, Sun 06:00 - 15:00",,,0
Einstein Bros. Bagels,1212,660 W Brandon Blvd #R60,,Brandon,FL,33511,US,(813) 661-0633,-82.29364198,27.93818413,"Mon 05:00 - 17:00, Tue 05:00 - 17:00, Wnd 05:00 - 17:00, Thr 05:00 - 17:00, Fri 05:00 - 17:00, Sat 06:00 - 16:00, Sun 06:00 - 15:00",,,0
Einstein Bros. Bagels,6091,504 College Dr,Student Union,Albany,GA,31705,US,(229) 903-3630,-84.1422093,31.57085362,"Mon 08:00 - 15:00, Tue 08:00 - 15:00, Wnd 08:00 - 15:00, Thr 08:00 - 15:00, Fri 08:00 - 15:00, Sat 09:00 - 15:00",,,0
Einstein Bros. Bagels,4062,4700 Babcock St NE Ste 38,,Palm Bay,FL,32905,US,(321) 821-4897,-80.62360342,28.0346704,"Mon 06:00 - 15:00, Tue 06:00 - 15:00, Wnd 06:00 - 15:00, Thr 06:00 - 15:00, Fri 06:00 - 15:00, Sat 06:00 - 15:00, Sun 06:00 - 15:00",,,0
Einstein Bros. Bagels,3302,401 W Kennedy Blvd,"Vaughn Center, Spartan Club",Tampa,FL,33606,US,(813) 258-7240,-82.46553449,27.94609498,"Mon 07:00 - 19:00, Tue 07:00 - 19:00, Wnd 07:00 - 19:00, Thr 07:00 - 19:00, Fri 07:00 - 16:00, Sat 09:00 - 14:00, Sun 09:00 - 14:00",,,0
Caribou Coffee & Einstein Bros. Bagels,3662,2519 North McMullen Booth Rd,,Clearwater,FL,33761-4173,US,727-791-3909,-82.7077636719,28.0131607056,,,,0
Einstein Bros. Bagels,2083,619 S Dale Mabry Hwy,,Tampa,FL,33609,US,(813) 871-1074,-82.50610529,27.93792291,"Mon 05:00 - 17:00, Tue 05:00 - 17:00, Wnd 05:00 - 17:00, Thr 05:00 - 17:00, Fri 05:00 - 17:00, Sat 06:00 - 16:00, Sun 06:00 - 15:00",,,0
Einstein Bros. Bagels,1473,1900 Gulf To Bay Blvd,,Clearwater,FL,33765,US,(727) 449-2400,-82.75807934,27.96085901,"Mon 05:00 - 17:00, Tue 05:00 - 17:00, Wnd 05:00 - 17:00, Thr 05:00 - 17:00, Fri 05:00 - 17:00, Sat 06:00 - 16:00, Sun 06:00 - 15:00",,,0
Einstein Bros. Bagels,3452,5395 E Bay Dr Ste 104,,Clearwater,FL,33764,US,(727) 533-0800,-82.73053297,27.9157202,"Mon 05:00 - 17:00, Tue 05:00 - 17:00, Wnd 05:00 - 17:00, Thr 05:00 - 17:00, Fri 05:00 - 17:00, Sat 06:00 - 16:00, Sun 06:00 - 15:00",,,0
Einstein Bros. Bagels,2084,9346 4th St N,,Saint Petersburg,FL,33702,US,(727) 578-9800,-82.63917153,27.85723032,"Mon 05:00 - 17:00, Tue 05:00 - 17:00, Wnd 05:00 - 17:00, Thr 05:00 - 17:00, Fri 05:00 - 17:00, Sat 06:00 - 16:00, Sun 06:00 - 15:00",,,0
Einstein Bros. Bagels,2058,19115 Detroit Rd,,Rocky River,OH,44116,US,(216) 239-5384,-81.83409755,41.48228496,"Mon 06:00 - 16:00, Tue 06:00 - 16:00, Wnd 06:00 - 16:00, Thr 06:00 - 16:00, Fri 06:00 - 16:00, Sat 06:00 - 16:00, Sun 06:00 - 15:00",,,0
Einstein Bros. Bagels,2298,14615 Detroit Ave,,Lakewood,OH,44107,US,(216) 227-1596,-81.79783826,41.48507098,"Mon 06:00 - 16:00, Tue 06:00 - 16:00, Wnd 06:00 - 16:00, Thr 06:00 - 16:00, Fri 06:00 - 16:00, Sat 06:00 - 16:00, Sun 06:00 - 15:00",,,0
Einstein Bros. Bagels,3522,400 N State of Franklin Rd,Hospital Lobby,Johnson City,TN,37604,US,(423) 431-1077,-82.3843898,36.3076083,"Mon 07:00 - 18:00, Tue 07:00 - 18:00, Wnd 07:00 - 18:00, Thr 07:00 - 18:00, Fri 07:00 - 18:00",,,0
Einstein Bros. Bagels,6208,1900 Selwyn Ave,Levine Center,Charlotte,NC,28274,US,(704) 688-2827,-80.83557452,35.18923591,"Mon 07:00 - 19:00, Tue 07:00 - 19:00, Wnd 07:00 - 19:00, Thr 07:00 - 19:00, Fri 07:00 - 18:00",,,0
Einstein Bros. Bagels,6137,5501 Josh Birmingham Pkwy,Terminal E - Gate 3,Charlotte,NC,28208,US,(704) 359-0199,-80.94151738,35.22218278,"Mon 05:00 - 21:00, Tue 05:00 - 21:00, Wnd 05:00 - 21:00, Thr 05:00 - 21:00, Fri 05:00 - 21:00, Sat 05:00 - 21:00, Sun 05:00 - 21:00",,,0
Einstein Bros. Bagels,6022,9201 University City Blvd,Student Union,Charlotte,NC,28223,US,(704) 687-6160,-80.7337572,35.30867082,"Mon 07:30 - 14:00, Tue 07:30 - 14:00, Wnd 07:30 - 14:00, Thr 07:30 - 14:00, Fri 07:30 - 14:00",,,0
Einstein Bros. Bagels,4042,13736 Conlan Cir,,Charlotte,NC,28277,US,(704) 840-1566,-80.85172972,35.05702288,"Mon 05:30 - 17:00, Tue 05:30 - 17:00, Wnd 05:30 - 17:00, Thr 05:30 - 17:00, Fri 05:30 - 17:00, Sat 06:00 - 17:00, Sun 06:00 - 17:00",,,0
Einstein Bros. Bagels,6018,112 Thompson Hall,DiGirgia Building,Rock Hill,SC,29733,US,(803) 323-3400,-81.03216064,34.93805724,"Mon 08:00 - 14:00, Tue 08:00 - 14:00, Wnd 08:00 - 14:00, Thr 08:00 - 14:00, Fri 08:00 - 14:00",,,0
Einstein Bros. Bagels,6183,110 Church St,Smith Library,Wingate,NC,28174,US,(704) 233-8031,-80.4462318,34.98776932,"Mon 07:30 - 23:00, Tue 07:30 - 23:00, Wnd 07:30 - 23:00, Thr 07:30 - 23:00, Fri 07:30 - 14:00, Sun 18:00 - 23:00",,,0
Einstein Bros. Bagels,6223,601 S Martin Luther King Jr Dr,Hill Hall,Winston Salem,NC,27110,US,(336) 750-8828,-80.22604087,36.09122821,"Mon 07:30 - 20:00, Tue 07:30 - 20:00, Wnd 07:30 - 20:00, Thr 07:30 - 20:00, Fri 07:30 - 17:00",,,0
Einstein Bros. Bagels,6177,1834 Wake Forest Rd,Farrell Hall,Winston Salem,NC,27109,US,(336) 758-2494,-80.27837247,36.13657075,"Mon 07:00 - 21:00, Tue 07:00 - 21:00, Wnd 07:00 - 21:00, Thr 07:00 - 21:00, Fri 09:00 - 16:00, Sun 16:00 - 21:00",,,0
Einstein Bros. Bagels,6079,1620 College St,Welsch Humanities Office Bldg,Columbia,SC,29208,US,(803) 777-2103,-81.02431455,33.99890879,"Mon 07:30 - 15:30, Tue 07:30 - 15:30, Wnd 07:30 - 15:30, Thr 07:30 - 15:30, Fri 07:30 - 15:30",,,0
Einstein Bros. Bagels,3339,1400 Greene St,Russell House - Second Floor,Columbia,SC,29225,US,(803) 777-6222,-81.02737627,33.99641591,"Mon 07:30 - 15:30, Tue 07:30 - 15:30, Wnd 07:30 - 15:30, Thr 07:30 - 15:30, Fri 07:30 - 15:30, Sat 09:30 - 14:30, Sun 09:30 - 14:30",,,0
Einstein Bros. Bagels,3501,7801 N Tigerville Rd,Eddie Runion Bldg,Tigerville,SC,29688,US,(864-663-0070,-82.36850309,35.06845333,"Mon 07:00 - 15:00, Tue 07:00 - 15:00, Wnd 07:00 - 15:00, Thr 07:00 - 15:00, Fri 07:00 - 15:00, Sat 07:00 - 15:00",,,0
Einstein Bros. Bagels,3411,3300 Poinsett Hwy,Daniel Dining Hall,Greenville,SC,29613,US,(864) 294-2616,-82.43950147,34.92567852,"Mon 07:30 - 14:30, Tue 07:30 - 14:30, Wnd 07:30 - 14:30, Thr 07:30 - 14:30, Fri 07:00 - 14:30, Sat 11:00 - 14:00, Sun 11:00 - 14:00",,,0
Einstein Bros. Bagels,6275,100 Campus Drive,Danieley Commons,Elon,NC,27244,US,,-79.49720632,36.10785351,"Mon 07:00 - 20:00, Tue 07:00 - 20:00, Wnd 07:00 - 20:00, Thr 07:00 - 20:00, Fri 07:00 - 17:00, Sun 11:00 - 20:00",,,0
Einstein Bros. Bagels,6099,1 University Rd,Health Professional Building,Pembroke,NC,28372,US,(910) 775-4521,-79.20034535,34.69347439,"Mon 07:30 - 15:00, Tue 07:30 - 15:00, Wnd 07:30 - 15:00, Thr 07:30 - 15:00, Fri 07:30 - 14:00",,,0
Einstein Bros. Bagels,1219,11234 Park Blvd,,Seminole,FL,33772,US,(727) 392-8515,-82.79444839,27.84005295,"Mon 05:00 - 17:00, Tue 05:00 - 17:00, Wnd 05:00 - 17:00, Thr 05:00 - 17:00, Fri 05:00 - 17:00, Sat 06:00 - 16:00, Sun 06:00 - 15:00",,,0
Einstein Bros. Bagels,3401,80 Saint Philip St #B,McAlister Residence Hall,Charleston,SC,29424,US,(843) 953-4440,-79.93855321,32.7867137,"Mon 07:00 - 15:00, Tue 07:00 - 15:00, Wnd 07:00 - 15:00, Thr 07:00 - 15:00, Fri 07:00 - 15:00, Sat 10:00 - 15:00, Sun 10:00 - 15:00",,,0
Einstein Bros. Bagels,4040,1226 US Highway 1,,Vero Beach,FL,32960,US,(772) 257-6039,-80.38898895,27.62407983,"Mon 05:00 - 15:00, Tue 05:00 - 15:00, Wnd 05:00 - 15:00, Thr 05:00 - 15:00, Fri 05:00 - 15:00, Sat 06:00 - 15:00, Sun 06:00 - 15:00",,,0
Einstein Bros. Bagels,6265,1501 Mercer University Drive Connell Bldg Student Cntr,Jack Tarver Library,Macon,GA,31207,US,478-301-4143,-83.64939,32.829113,"Mon 07:00 - 00:00, Tue 07:00 - 00:00, Wnd 07:00 - 00:00, Thr 07:00 - 00:00, Fri 07:00 - 17:00, Sun 10:00 - 00:00",,,0
Einstein Bros. Bagels,3384,231 W Hancock St,Maxwell Student Union,Milledgeville,GA,31061,US,(478) 445-8108,-83.23172726,33.08115083,"Mon 07:30 - 17:00, Tue 07:30 - 17:00, Wnd 07:30 - 17:00, Thr 07:30 - 17:00, Fri 07:30 - 15:00",,,0
Caribou Coffee & Einstein Bros. Bagels,3649,3800 S. Tamiami Trail,,Sarasota,FL,34239,US,(941) 952-0300,-82.53085638,27.29923831,"Mon 05:00 - 21:00, Tue 05:00 - 21:00, Wnd 05:00 - 21:00, Thr 05:00 - 21:00, Fri 05:00 - 21:00, Sat 06:00 - 21:00, Sun 06:00 - 20:00",,,0
Einstein Bros. Bagels,6027,4225 University Ave,Howard Hall,Columbus,GA,31907,US,706-565-3621,-84.9418216,32.50118524,"Mon 07:30 - 21:00, Tue 07:30 - 21:00, Wnd 07:30 - 21:00, Thr 07:30 - 21:00, Fri 07:30 - 14:00",,,0
Einstein Bros. Bagels,3645,3900 E Indiantown Rd Ste 601,,Jupiter,FL,33477,US,(561) 277-1991,-80.09176786,26.93369131,"Mon 05:30 - 15:00, Tue 05:30 - 15:00, Wnd 05:30 - 15:00, Thr 05:30 - 15:00, Fri 05:30 - 15:00, Sat 06:00 - 15:00, Sun 06:00 - 15:00",,,0
Einstein Bros. Bagels,3447,10501 Florida Gulf Coast University Blvd South,Student Union,Fort Myers,FL,33965,US,(239) 590-1158,-81.77196011,26.46606414,"Mon 07:00 - 18:00, Tue 07:00 - 18:00, Wnd 07:00 - 18:00, Thr 07:00 - 18:00, Fri 07:00 - 18:00",,,0
Einstein Bros. Bagels,3644,1900 Okeechobee Blvd,,West Palm Beach,FL,33409,US,(561) 472-3067,-80.08137655,26.70588809,"Mon 06:00 - 15:00, Tue 06:00 - 15:00, Wnd 06:00 - 15:00, Thr 06:00 - 15:00, Fri 06:00 - 15:00, Sat 06:00 - 15:00, Sun 06:00 - 15:00",,,0
Einstein Bros. Bagels,6069,901 S Flagler Dr,Warren Library,West Palm Beach,FL,33401,US,(561) 803-2985,-80.05238436,26.70444605,"Mon 08:00 - 14:00, Tue 08:00 - 14:00, Wnd 08:00 - 14:00, Thr 08:00 - 14:00, Fri 08:00 - 14:00",,,0
Einstein Bros. Bagels,4085,259 E Broad St,,Athens,GA,30601,US,(706) 549-0027,-83.37478786,33.95816718,"Mon 06:00 - 17:00, Tue 06:00 - 17:00, Wnd 06:00 - 17:00, Thr 06:00 - 17:00, Fri 06:00 - 17:00, Sat 06:00 - 17:00, Sun 06:00 - 17:00",,,0
Einstein Bros. Bagels,6058,344 J L Seehorn Jr Rd,Sherrod Library,Johnson City,TN,37614,US,(423) 439-4106,-82.36589944,36.30242162,"Mon 08:00 - 22:00, Tue 08:00 - 22:00, Wnd 08:00 - 22:00, Thr 08:00 - 22:00, Fri 08:00 - 18:00, Sat 10:00 - 22:00, Sun 14:00 - 22:00",,,0
Einstein Bros. Bagels,3509,1000 Volunteer Blvd,Haslam Building,Knoxville,TN,37996,US,(865) 974-7865,-83.92883786,35.95579357,"Mon 07:30 - 19:00, Tue 07:30 - 19:00, Wnd 07:30 - 19:00, Thr 07:30 - 19:00, Fri 07:30 - 17:00",,,0
Einstein Bros. Bagels,3481,1715 Volunteer Blvd,A&A Bldg,Knoxville,TN,37996,US,(865) 974-7865,-83.92952014,35.95277531,"Mon 07:00 - 16:00, Tue 07:00 - 16:00, Wnd 07:00 - 16:00, Thr 07:00 - 16:00, Fri 07:00 - 16:00",,,0
Einstein Bros. Bagels,4015,1049 N Cedar Bluff Rd,,Knoxville,TN,37923,US,(865) 951-1515,-84.09536839,35.94111552,"Mon 05:30 - 17:00, Tue 05:30 - 17:00, Wnd 05:30 - 17:00, Thr 05:30 - 17:00, Fri 05:30 - 17:00, Sat 07:00 - 16:00, Sun 07:00 - 16:00",,,0
Einstein Bros. Bagels,4036,11693 Parkside Dr,,Farragut,TN,37934,US,865-675-6667,-84.17273837,35.89397545,"Mon 05:30 - 20:00, Tue 05:30 - 20:00, Wnd 05:30 - 20:00, Thr 05:30 - 20:00, Fri 05:30 - 20:00, Sat 07:00 - 16:00, Sun 07:00 - 16:00",,,0
Einstein Bros. Bagels,6305,316 Boulevard,New Student Union,Anderson,SC,29621,US,864-226-6370,-82.6384962797,34.5144492296,"Mon 07:00 - 19:00, Tue 07:00 - 19:00, Wnd 07:00 - 19:00, Thr 07:00 - 19:00, Fri 07:00 - 19:00, Sun 08:00 - 17:00",,,0
Einstein Bros. Bagels,3393,720 McMillan Rd,Hendrix Center - Upper Level,Clemson,SC,29631,US,(864) 656-1360,-82.8319126,34.67631445,"Mon 07:30 - 16:00, Tue 07:30 - 16:00, Wnd 07:30 - 16:00, Thr 07:30 - 16:00, Fri 07:30 - 16:00",,,0
Einstein Bros. Bagels,3427,210 D Hinds,Hinds University Center,Cullowhee,NC,28723,US,(828) 227-2586,-83.18281012,35.31120003,"Mon 07:00 - 19:00, Tue 07:00 - 19:00, Wnd 07:00 - 19:00, Thr 07:00 - 19:00, Fri 07:00 - 16:00",,,0
Einstein Bros. Bagels,6157,125 Chanticleer Drive West,Academic Building,Conway,SC,29526,US,(843) 349-2783,-79.01433931,33.79715558,"Mon 07:30 - 16:30, Tue 07:30 - 16:30, Wnd 07:30 - 16:30, Thr 07:30 - 16:30, Fri 07:30 - 16:30, Sat 09:00 - 15:00",,,0
Einstein Bros. Bagels,4085,259 E Broad St,,Athens,GA,30601,US,(706) 549-0027,-83.37478786,33.95816718,"Mon 06:00 - 17:00, Tue 06:00 - 17:00, Wnd 06:00 - 17:00, Thr 06:00 - 17:00, Fri 06:00 - 17:00, Sat 06:00 - 17:00, Sun 06:00 - 17:00",,,0
Einstein Bros. Bagels,3412,601 S College Rd,Fisher Student Center,Wilmington,NC,28403,US,(910) 962-7317,-77.87387958,34.22604776,"Mon 07:00 - 17:00, Tue 07:00 - 17:00, Wnd 07:00 - 17:00, Thr 07:00 - 17:00, Fri 07:00 - 15:00",,,0
Einstein Bros. Bagels,6146,131 College Circle,Hoag Student Center,Dahlonega,GA,30597,US,(706) 864-1638,-83.98549542,34.53014619,"Mon 07:00 - 17:00, Tue 07:00 - 17:00, Wnd 07:00 - 17:00, Thr 07:00 - 17:00, Fri 07:00 - 15:00",,,0
Einstein Bros. Bagels,3475,3410 Buford Dr Ste G400,,Buford,GA,30519,US,(678) 546-5640,-83.98455337,34.0758199,"Mon 05:00 - 17:00, Tue 05:00 - 17:00, Wnd 05:00 - 17:00, Thr 05:00 - 17:00, Fri 05:00 - 17:00, Sat 06:00 - 16:00, Sun 06:00 - 15:00",,,0
Einstein Bros. Bagels,6256,1000 University Center Ln,Bldg A The Rotunda,Lawrenceville,GA,30043,US,(907) 947-7455,-84.00552024,33.98095404,"Mon 07:00 - 19:00, Tue 07:00 - 19:00, Wnd 07:00 - 19:00, Thr 07:00 - 19:00, Fri 07:00 - 19:00",,,0
Einstein Bros. Bagels,3555,900 Duluth Hwy Ste 500,,Lawrenceville,GA,30043,US,(770) 822-1039,-84.02387195,33.96748078,"Mon 05:00 - 15:00, Tue 05:00 - 15:00, Wnd 05:00 - 15:00, Thr 05:00 - 15:00, Fri 05:00 - 15:00, Sat 06:00 - 15:00, Sun 06:00 - 15:00",,,0
Einstein Bros. Bagels,3553,11600 Medlock Bridge Rd Ste 120,,Duluth,GA,30097,US,(678) 417-7559,-84.17161893,34.06405613,"Mon 05:00 - 15:00, Tue 05:00 - 15:00, Wnd 05:00 - 15:00, Thr 05:00 - 15:00, Fri 05:00 - 15:00, Sat 06:00 - 15:00, Sun 06:00 - 15:00",,,0
Einstein Bros. Bagels,3108,3675 Satellite Blvd,,Duluth,GA,30096,US,(770) 497-0370,-84.13610865,33.96021035,"Mon 05:00 - 16:00, Tue 05:00 - 16:00, Wnd 05:00 - 16:00, Thr 05:00 - 16:00, Fri 05:00 - 16:00, Sat 06:00 - 16:00, Sun 06:00 - 15:00",,,0
Einstein Bros. Bagels,6044,117 Adams Center,Adams Center/Trojan Express,Troy,AL,36082,US,(334) 670-3454,-85.95595012,31.80132489,"Mon 08:00 - 18:00, Tue 08:00 - 18:00, Wnd 08:00 - 18:00, Thr 08:00 - 18:00, Fri 08:00 - 18:00",,,0
"""COMING SOON"" - Caribou Coffee & Einstein Bros. Bagels",8585,120 PO Davis Drive,,Auburn,AL,36608,US,1-888-227-4268,-85.48663817,32.60137303,,,,1
Einstein Bros. Bagels,3643,9929 S Military Trl,,Boynton Beach,FL,33436,US,(561) 364-1599,-80.12332195,26.52876992,"Mon 06:00 - 15:00, Tue 06:00 - 15:00, Wnd 06:00 - 15:00, Thr 06:00 - 15:00, Fri 06:00 - 15:00, Sat 06:00 - 15:00, Sun 06:00 - 15:00",,,0
Einstein Bros. Bagels,4086,311 Bullsboro Drive #100,,Newnan,GA,30263,US,(678) 673-2095,-84.76479827,33.39304013,"Mon 06:00 - 16:00, Tue 06:00 - 16:00, Wnd 06:00 - 16:00, Thr 06:00 - 16:00, Fri 06:00 - 16:00, Sat 06:00 - 16:00, Sun 06:00 - 16:00",,,0
Einstein Bros. Bagels,6192,2000 Sullivan Rd Ste E,Terminal D-F15,College Park,GA,30337,US,(404) 762-1577,-84.44072317,33.62550767,"Mon 05:00 - 22:30, Tue 05:00 - 22:30, Wnd 05:00 - 22:30, Thr 05:00 - 22:30, Fri 05:00 - 22:30, Sat 05:00 - 22:30, Sun 05:00 - 22:30",,,0
Einstein Bros. Bagels,1286,5311 Airport Pulling Rd N,,Naples,FL,34109,US,(239) 513-0330,-81.77079899,26.21253951,"Mon 05:30 - 17:00, Tue 05:30 - 17:00, Wnd 05:30 - 17:00, Thr 05:30 - 17:00, Fri 05:30 - 17:00, Sat 06:00 - 16:00, Sun 06:00 - 15:00",,,0
Einstein Bros. Bagels,3630,1821 S Federal Hwy Ste 201,,Delray Beach,FL,33483,US,(561) 900-0147,-80.0712009,26.43903533,"Mon 06:00 - 15:00, Tue 06:00 - 15:00, Wnd 06:00 - 15:00, Thr 06:00 - 15:00, Fri 06:00 - 15:00, Sat 06:00 - 15:00, Sun 06:00 - 15:00",,,0
Einstein Bros. Bagels,2678,2870 N Druid Hills Rd NE,,Atlanta,GA,30329,US,(404) 636-3886,-84.31147155,33.81760922,"Mon 05:00 - 17:00, Tue 05:00 - 17:00, Wnd 05:00 - 17:00, Thr 05:00 - 17:00, Fri 05:00 - 17:00, Sat 06:00 - 16:00, Sun 06:00 - 15:00",,,0
Einstein Bros. Bagels,3624,800 Peachtree St NE,,Atlanta,GA,30308,US,(404) 600-4138,-84.38476751,33.77696182,"Mon 05:00 - 17:00, Tue 05:00 - 17:00, Wnd 05:00 - 17:00, Thr 05:00 - 17:00, Fri 05:00 - 17:00, Sat 06:00 - 16:00, Sun 06:00 - 15:00",,,0
"""COMING SOON"" - Caribou Coffee & Einstein Bros. Bagels",1355,17 14th Street NE,,Atlanta,GA,30305,US,1-888-227-4268,-84.38726807,33.78606415,,,,1
Einstein Bros. Bagels,3014,1676 Monroe Dr NE,,Atlanta,GA,30324,US,(404) 724-0311,-84.37161205,33.79997338,"Mon 05:00 - 16:00, Tue 05:00 - 16:00, Wnd 05:00 - 16:00, Thr 05:00 - 16:00, Fri 05:00 - 16:00, Sat 06:00 - 16:00, Sun 06:00 - 15:00",,,0
Einstein Bros. Bagels,845,9795 Glades Rd,,Boca Raton,FL,33434,US,(561) 477-0667,-80.19956094,26.3690833,"Mon 05:00 - 17:00, Tue 05:00 - 17:00, Wnd 05:00 - 17:00, Thr 05:00 - 17:00, Fri 05:00 - 17:00, Sat 06:00 - 16:00, Sun 06:00 - 15:00",,,0
Einstein Bros. Bagels,3131,2240 N Druid Hills Rd NE,,Atlanta,GA,30329,US,(404) 320-8990,-84.33163107,33.82930871,"Mon 05:00 - 16:00, Tue 05:00 - 16:00, Wnd 05:00 - 16:00, Thr 05:00 - 16:00, Fri 05:00 - 16:00, Sat 06:00 - 16:00, Sun 06:00 - 15:00",,,0
Einstein Bros. Bagels,3347,690 NW 51st St Ste 1,,Boca Raton,FL,33431,US,(561) 995-7756,-80.10131338,26.39275429,"Mon 05:00 - 17:00, Tue 05:00 - 17:00, Wnd 05:00 - 17:00, Thr 05:00 - 17:00, Fri 05:00 - 17:00, Sat 06:00 - 16:00, Sun 06:00 - 15:00",,,0
Einstein Bros. Bagels,3460,5530 Windward Pkwy Ste 400,,Alpharetta,GA,30004,US,(678) 339-1866,-84.26738078,34.0877432,"Mon 05:00 - 16:00, Tue 05:00 - 16:00, Wnd 05:00 - 16:00, Thr 05:00 - 16:00, Fri 05:00 - 16:00, Sat 06:00 - 16:00, Sun 06:00 - 15:00",,,0
Einstein Bros. Bagels,2831,1100 Hammond Dr Ste 600,,Atlanta,GA,30328,US,(770) 396-8900,-84.35187451,33.91942593,"Mon 05:00 - 18:00, Tue 05:00 - 18:00, Wnd 05:00 - 18:00, Thr 05:00 - 18:00, Fri 05:00 - 18:00, Sat 06:00 - 15:00, Sun 06:00 - 16:00",,,0
Einstein Bros. Bagels,2557,4502 Roswell Rd,,Atlanta,GA,30342,US,(404) 847-0940,-84.38011207,33.87833302,"Mon 05:00 - 16:00, Tue 05:00 - 16:00, Wnd 05:00 - 16:00, Thr 05:00 - 16:00, Fri 05:00 - 16:00, Sat 06:00 - 16:00, Sun 06:00 - 15:00",,,0
Einstein Bros. Bagels,3059,1789 Howell Mill Rd NW,,Atlanta,GA,30318,US,(404) 367-4403,-84.41377337,33.80346898,"Mon 05:00 - 16:00, Tue 05:00 - 16:00, Wnd 05:00 - 16:00, Thr 05:00 - 16:00, Fri 05:00 - 16:00, Sat 06:00 - 16:00, Sun 06:00 - 15:00",,,0
Einstein Bros. Bagels,3159,2460 Cumberland Pkwy SE Ste 170,,Atlanta,GA,30339,US,(770) 444-3342,-84.47640071,33.8642424,"Mon 05:00 - 16:00, Tue 05:00 - 16:00, Wnd 05:00 - 16:00, Thr 05:00 - 16:00, Fri 05:00 - 16:00, Sat 06:00 - 16:00, Sun 06:00 - 15:00",,,0
Einstein Bros. Bagels,6115,1120 N Ocoee St,Humanities Building,Cleveland,TN,37311,US,(423) 650-0275,-84.86818278,35.16543166,"Mon 07:30 - 15:00, Tue 07:30 - 15:00, Wnd 07:30 - 15:00, Thr 07:30 - 15:00, Fri 07:30 - 15:00",,,0
Einstein Bros. Bagels,4058,7737 E Brainerd Rd,,Chattanooga,TN,37421,US,(423) 355-5380,-85.15570796,35.01146314,"Mon 06:00 - 16:00, Tue 06:00 - 16:00, Wnd 06:00 - 16:00, Thr 06:00 - 16:00, Fri 06:00 - 16:00, Sat 06:00 - 16:00, Sun 06:00 - 15:00",,,0
Einstein Bros. Bagels,4089,5237 Hixon Pike,,Hixon,TN,37343,US,423-777-5802,-85.23459793,35.13990916,"Mon 05:00 - 16:00, Tue 05:00 - 16:00, Wnd 05:00 - 16:00, Thr 05:00 - 16:00, Fri 05:00 - 16:00, Sat 06:00 - 16:00, Sun 06:00 - 15:00",,,0
Einstein Bros. Bagels,4066,103 International Dr #103,,Franklin,TN,37067,US,(615) 472-1440,-86.80434147,35.95622936,"Mon 06:00 - 17:00, Tue 06:00 - 17:00, Wnd 06:00 - 17:00, Thr 06:00 - 17:00, Fri 06:00 - 17:00, Sat 06:00 - 16:00, Sun 06:30 - 15:00",,,0
Einstein Bros. Bagels,3457,1210 Tamiami Trl N,,Naples,FL,34102,US,(239) 261-2600,-81.79782285,26.16235409,"Mon 05:30 - 17:00, Tue 05:30 - 17:00, Wnd 05:30 - 17:00, Thr 05:30 - 17:00, Fri 05:30 - 17:00, Sat 06:00 - 16:00, Sun 06:00 - 15:00",,,0
Einstein Bros. Bagels,6111,"309 West Matre, Ste 105",Mini Mall,Eglin,FL,32542,US,850-678-6824,-86.50501667,30.48337192,"Mon 06:30 - 14:00, Tue 06:30 - 14:00, Wnd 06:30 - 14:00, Thr 06:30 - 14:00, Fri 06:30 - 14:00",,,0
Einstein Bros. Bagels,3424,777 Glades Rd,,Boca Raton,FL,33431,US,(561) 297-4195,-80.10377671,26.37135192,"Mon 07:30 - 16:30, Tue 07:30 - 16:30, Wnd 07:30 - 16:30, Thr 07:30 - 16:30, Fri 07:30 - 15:00",,,0
Einstein Bros. Bagels,2297,22107 Powerline Rd,,Boca Raton,FL,33433,US,(561) 368-1045,-80.15439773,26.34871318,"Mon 05:00 - 17:00, Tue 05:00 - 17:00, Wnd 05:00 - 17:00, Thr 05:00 - 17:00, Fri 05:00 - 17:00, Sat 06:00 - 16:00, Sun 06:00 - 15:00",,,0
Einstein Bros. Bagels,776,335 N Federal Hwy #353,,Boca Raton,FL,33432,US,(561) 368-4088,-80.08677503,26.35402974,"Mon 05:00 - 17:00, Tue 05:00 - 17:00, Wnd 05:00 - 17:00, Thr 05:00 - 17:00, Fri 05:00 - 17:00, Sat 06:00 - 16:00, Sun 06:00 - 15:00",,,0
Einstein Bros. Bagels,6081,1757 Memorial Trl,Hospital,Eglin Afb,FL,32542,US,(850) 581-6008,-86.54443269,30.46100461,"Mon 07:00 - 12:00, Tue 07:00 - 12:00, Wnd 07:00 - 12:00, Thr 07:00 - 12:00, Fri 07:00 - 12:00",,,0
Einstein Bros. Bagels,1218,2465 N University Dr,,Coral Springs,FL,33065,US,(954) 341-6505,-80.24940239,26.26128191,"Mon 05:00 - 17:00, Tue 05:00 - 17:00, Wnd 05:00 - 17:00, Thr 05:00 - 17:00, Fri 05:00 - 17:00, Sat 06:00 - 16:00, Sun 06:00 - 15:00",,,0
Einstein Bros. Bagels,775,6256 N Federal Hwy,,Ft Lauderdale,FL,33308,US,(954) 771-3993,-80.10788089,26.20559092,"Mon 05:00 - 17:00, Tue 05:00 - 17:00, Wnd 05:00 - 17:00, Thr 05:00 - 17:00, Fri 05:00 - 17:00, Sat 06:00 - 16:00, Sun 06:00 - 15:00",,,0
Einstein Bros. Bagels,847,989 N Nob Hill Rd,,Plantation,FL,33324,US,(954) 423-3030,-80.28801426,26.13517207,"Mon 05:00 - 17:00, Tue 05:00 - 17:00, Wnd 05:00 - 17:00, Thr 05:00 - 17:00, Fri 05:00 - 17:00, Sat 06:00 - 16:00, Sun 06:00 - 15:00",,,0
Einstein Bros. Bagels,1597,3200 N Federal Hwy Ste 600,,Ft Lauderdale,FL,33306,US,(954) 565-2155,-80.11619758,26.16904815,"Mon 06:00 - 18:00, Tue 06:00 - 18:00, Wnd 06:00 - 18:00, Thr 06:00 - 18:00, Fri 06:00 - 18:00, Sat 06:30 - 17:00, Sun 07:00 - 16:00",,,0
Einstein Bros. Bagels,2300,1356 Weston Rd,,Weston,FL,33326,US,(954) 384-6479,-80.36362696,26.10407745,"Mon 05:00 - 17:00, Tue 05:00 - 17:00, Wnd 05:00 - 17:00, Thr 05:00 - 17:00, Fri 05:00 - 17:00, Sat 06:00 - 16:00, Sun 06:00 - 15:00",,,0
Einstein Bros. Bagels,3160,8500 W Broward Blvd,,Plantation,FL,33324,US,(954) 370-3105,-80.26245603,26.12017247,"Mon 05:00 - 17:00, Tue 05:00 - 17:00, Wnd 05:00 - 17:00, Thr 05:00 - 17:00, Fri 05:00 - 17:00, Sat 06:00 - 16:00, Sun 06:00 - 15:00",,,0
Einstein Bros. Bagels,4043,1020 Riverside Dr,,Franklin,TN,37064,US,(615) 567-4481,-86.8295063,35.91366577,"Mon 05:30 - 18:00, Tue 05:00 - 18:00, Wnd 05:30 - 18:00, Thr 05:30 - 18:00, Fri 05:30 - 18:00, Sat 06:00 - 17:00, Sun 06:00 - 17:00",,,0
Einstein Bros. Bagels,1245,19 N Federal Hwy,,Ft Lauderdale,FL,33301,US,(954) 462-1132,-80.13819831,26.12299955,"Mon 05:00 - 17:00, Tue 05:00 - 17:00, Wnd 05:00 - 17:00, Thr 05:00 - 17:00, Fri 05:00 - 17:00, Sat 06:00 - 16:00, Sun 06:00 - 15:00",,,0
Einstein Bros. Bagels,3340,3301 College Ave,Carl Desantis Business Building,Davie,FL,33314,US,(954) 262-5322,-80.24193775,26.08055365,"Mon 07:30 - 20:30, Tue 07:30 - 20:30, Wnd 07:30 - 20:30, Thr 07:30 - 20:30, Fri 07:30 - 20:30, Sat 07:30 - 14:00",,,0
Einstein Bros. Bagels,777,1499 SE 17th St,,Ft Lauderdale,FL,33316,US,(954) 463-1717,-80.12768449,26.10087365,"Mon 05:00 - 17:00, Tue 05:00 - 17:00, Wnd 05:00 - 17:00, Thr 05:00 - 17:00, Fri 05:00 - 17:00, Sat 06:00 - 16:00, Sun 06:00 - 15:00",,,0
Einstein Bros. Bagels,779,18301 Pines Blvd,,Pembroke Pines,FL,33029,US,(954) 437-1315,-80.39092518,26.00927557,"Mon 05:00 - 17:00, Tue 05:00 - 17:00, Wnd 05:00 - 17:00, Thr 05:00 - 17:00, Fri 05:00 - 17:00, Sat 06:00 - 16:00, Sun 06:00 - 15:00",,,0
Einstein Bros. Bagels,2326,310 N University Dr,,Pembroke Pines,FL,33024,US,(954) 433-2322,-80.24926857,26.01265334,"Mon 05:00 - 17:00, Tue 05:00 - 17:00, Wnd 05:00 - 17:00, Thr 05:00 - 17:00, Fri 05:00 - 17:00, Sat 06:00 - 16:00, Sun 06:00 - 15:00",,,0
Einstein Bros. Bagels,6159,800 National Ave,Student Union,Las Vegas,NM,87701,US,(505) 426-2029,-105.2191809,35.59619553,"Mon 07:00 - 20:00, Tue 07:00 - 20:00, Wnd 07:00 - 20:00, Thr 07:00 - 20:00, Fri 07:00 - 20:00, Sat 07:00 - 20:00, Sun 07:00 - 20:00",,,0
Einstein Bros. Bagels,6130,2200 Bonforte Blvd,Occhito University Center,Pueblo,CO,81001,US,,-104.5780886,38.30969138,"Mon 07:00 - 18:00, Tue 07:00 - 18:00, Wnd 07:00 - 18:00, Thr 07:00 - 18:00, Fri 07:00 - 16:00",,,0
Caribou Coffee & Einstein Bros. Bagels,3565,30-32 N Tejon Street,,Colorado Springs,CO,80903,US,(719) 445-4795,-104.8237281,38.83515091,"Mon 05:00 - 21:00, Tue 05:00 - 21:00, Wnd 05:00 - 21:00, Thr 05:00 - 21:00, Fri 05:00 - 21:00, Sat 06:00 - 21:00, Sun 06:00 - 20:00",,,0
Einstein Bros. Bagels,1599,2848 N Powers Blvd,,Colorado Springs,CO,80922,US,(719) 573-7606,-104.7221204,38.87298467,"Mon 05:00 - 17:00, Tue 05:00 - 17:00, Wnd 05:00 - 17:00, Thr 05:00 - 17:00, Fri 05:00 - 17:00, Sat 06:00 - 16:00, Sun 06:00 - 16:00",,,0
Einstein Bros. Bagels,3304,4325 Centennial Blvd,,Colorado Springs,CO,80907,US,(719) 548-8408,-104.8500251,38.89420765,"Mon 05:00 - 17:00, Tue 05:00 - 17:00, Wnd 05:00 - 17:00, Thr 05:00 - 17:00, Fri 05:00 - 17:00, Sat 06:00 - 16:00, Sun 06:00 - 15:00",,,0
Caribou Coffee & Einstein Bros. Bagels,3550,1706 E Woodmen Rd,,Colorado Springs,CO,80920,US,(719) 265-8610,-104.7937701,38.93295799,"Mon 05:00 - 21:00, Tue 05:00 - 21:00, Wnd 05:00 - 21:00, Thr 05:00 - 21:00, Fri 05:00 - 21:00, Sat 06:00 - 21:00, Sun 06:00 - 20:00",,,0
Einstein Bros. Bagels,6293,1100 North Ave,Tomlinson Library,Grand Junction,CO,81501,US,(970) 248-1084,-108.5541747,39.07897773,"Mon 07:30 - 23:00, Tue 07:30 - 23:00, Wnd 07:30 - 23:00, Thr 07:30 - 23:00, Fri 07:30 - 17:00, Sat 11:00 - 17:00, Sun 13:00 - 23:00",,,0
Einstein Bros. Bagels,4016,2546 Rimrock Ave Ste 100,,Grand Junction,CO,81505,US,(970) 245-0266,-108.581216,39.07888665,"Mon 05:30 - 15:00, Tue 05:30 - 15:00, Wnd 05:30 - 15:00, Thr 05:30 - 15:00, Fri 05:30 - 15:00, Sat 06:30 - 15:00, Sun 06:30 - 15:00",,,0
Caribou Coffee & Einstein Bros. Bagels,3605,3993 Limelight Ave,,Castle Rock,CO,80109,US,(303) 802-8589,-104.8830185,39.40239716,"Mon 05:00 - 17:00, Tue 05:00 - 17:00, Wnd 05:00 - 17:00, Thr 05:00 - 17:00, Fri 05:00 - 17:00, Sat 06:00 - 16:00, Sun 06:00 - 15:00",,,0
Einstein Bros. Bagels,4037,35B Dillon Ridge Rd,,Dillon,CO,80435,US,(970) 468-7436,-106.0596301,39.62897893,"Mon 05:30 - 14:00, Tue 05:30 - 14:00, Wnd 05:30 - 14:00, Thr 05:30 - 14:00, Fri 05:30 - 14:00, Sat 05:30 - 15:00, Sun 05:30 - 15:00",,,0
Einstein Bros. Bagels,2632,9249 S Broadway Ste 700,,Highlands Ranch,CO,80129,US,(303) 471-1922,-104.9956821,39.54828171,"Mon 05:00 - 17:00, Tue 05:00 - 17:00, Wnd 05:00 - 17:00, Thr 05:00 - 17:00, Fri 05:00 - 17:00, Sat 06:00 - 16:00, Sun 06:00 - 15:00",,,0
Einstein Bros. Bagels,1240,9385 S Colorado Blvd Unit 110,,Highlands Ranch,CO,80126,US,(303) 683-3344,-104.9436523,39.54626796,"Mon 05:00 - 17:00, Tue 05:00 - 17:00, Wnd 05:00 - 17:00, Thr 05:00 - 17:00, Fri 05:00 - 17:00, Sat 06:00 - 16:00, Sun 06:00 - 15:00",,,0
Caribou Coffee & Einstein Bros. Bagels,1354,7120 E County Line Road,,Highlands Ranch,CO,80126,US,1-888-227-4268,-104.905696,39.56552826,"Mon 05:00 - 19:00, Tue 05:00 - 19:00, Wnd 05:00 - 19:00, Thr 05:00 - 19:00, Fri 05:00 - 19:00, Sat 06:00 - 19:00, Sun 06:00 - 19:00",,,0
Einstein Bros. Bagels,925,7523 S University Blvd,,Centennial,CO,80122,US,(303) 797-1936,-104.9618496,39.58021017,"Mon 05:00 - 17:00, Tue 05:00 - 17:00, Wnd 05:00 - 17:00, Thr 05:00 - 17:00, Fri 05:00 - 17:00, Sat 06:00 - 16:00, Sun 06:00 - 15:00",,,0
Einstein Bros. Bagels,1746,8246 W Bowles Ave Unit A,,Littleton,CO,80123,US,(303) 904-2932,-105.0905136,39.60690594,"Mon 05:00 - 17:00, Tue 05:00 - 17:00, Wnd 05:00 - 17:00, Thr 05:00 - 17:00, Fri 05:00 - 17:00, Sat 06:00 - 16:00, Sun 06:00 - 15:00",,,0
Einstein Bros. Bagels,3477,600 4th Ave,,Seattle,WA,98104,US,(206) 264-4817,-122.330686,47.60390348,"Mon 06:00 - 15:00, Tue 06:00 - 15:00, Wnd 06:00 - 15:00, Thr 06:00 - 15:00, Fri 06:00 - 15:00",,,0
Einstein Bros. Bagels,2161,2201 Westlake Ave Ste 101,,Seattle,WA,98121,US,(206) 496-1236,-122.3387746,47.61802859,"Mon 05:00 - 17:00, Tue 05:00 - 17:00, Wnd 05:00 - 17:00, Thr 05:00 - 17:00, Fri 05:00 - 17:00, Sat 06:00 - 16:00, Sun 06:00 - 16:00",,,0
Einstein Bros. Bagels,3432,315 W Bertona St,"Student Union Building, Seattle Pacific",Seattle,WA,98119,US,(206) 378-5369,-122.3617389,47.65017426,"Mon 07:30 - 18:00, Tue 07:30 - 18:00, Wnd 07:30 - 18:00, Thr 07:30 - 18:00, Fri 07:30 - 18:00",,,0
Einstein Bros. Bagels,2171,2746 NE 45th St,,Seattle,WA,98105,US,(206) 522-1998,-122.296772,47.66202673,"Mon 05:00 - 19:00, Tue 05:00 - 19:00, Wnd 05:00 - 19:00, Thr 05:00 - 19:00, Fri 05:00 - 19:00, Sat 06:00 - 19:00, Sun 06:00 - 19:00",,,0
Einstein Bros. Bagels,3410,7808 SE 28th St Ste 124,,Mercer Island,WA,98040,US,(206) 232-8539,-122.2330334,47.58562586,"Mon 06:00 - 17:00, Tue 06:00 - 17:00, Wnd 06:00 - 17:00, Thr 05:30 - 17:00, Fri 06:00 - 17:00, Sat 07:00 - 17:00, Sun 07:00 - 17:00",,,0
Einstein Bros. Bagels,6117,3145 Pendleton Avenue,Pendleton Shopette,Fort Lewis,WA,98433,US,(253) 964-6130,-122.5725162,47.09080662,"Mon 06:00 - 16:00, Tue 06:00 - 16:00, Wnd 06:00 - 16:00, Thr 06:00 - 16:00, Fri 06:00 - 16:00, Sat 07:00 - 15:00, Sun 07:00 - 15:00",,,0
Einstein Bros. Bagels,6014,N 12th & Pendleton Ave,Bldg 2130,Ft Lewis,WA,98433,US,(253) 964-9051,-122.5954688,47.08912102,"Mon 06:30 - 14:00, Tue 06:30 - 14:00, Wnd 06:30 - 14:00, Thr 06:30 - 14:00, Fri 06:30 - 14:00",,,0
Einstein Bros. Bagels,6285,2202 Ligget Ave Bldg 2202,Madigan Hospital,Joint Base Lewis McChord,WA,98433,US,(253) 912-0816,-122.6025852,47.08884102,"Mon 07:00 - 21:00, Tue 07:00 - 21:00, Wnd 07:00 - 21:00, Thr 07:00 - 21:00, Fri 07:00 - 21:00",,,0
Einstein Bros. Bagels,6207,2700 Evergreen Pkwy NW,Seminar 2 B,Olympia,WA,98505,US,,-122.9752723,47.0730384,"Mon 07:30 - 21:00, Tue 07:30 - 21:00, Wnd 07:30 - 21:00, Thr 07:30 - 21:00, Fri 07:30 - 17:00, Sat 08:30 - 14:00, Sun 08:30 - 14:00",,,0
Einstein Bros. Bagels,6313,130 Tawanka Hall,,Cheney,WA,99004,US,509 359 4498,-117.632522583,47.4119338989,"Mon 07:00 - 18:00, Tue 07:00 - 18:00, Wnd 07:00 - 18:00, Thr 07:00 - 18:00, Fri 07:00 - 18:00, Sat 07:00 - 15:00",,,0
Einstein Bros. Bagels,4075,1601 N Division St Ste A,,Spokane,WA,99207,US,(509) 321-7753,-117.411757,47.67210201,"Mon 06:00 - 17:00, Tue 06:00 - 17:00, Wnd 06:00 - 17:00, Thr 06:00 - 17:00, Fri 06:00 - 17:00, Sat 06:00 - 16:00, Sun 07:00 - 16:00",,,0
Einstein Bros. Bagels,4093,"2 W 3rd Avenue, #100",,Spokane,WA,99201,US,509-290-6613,-117.4115753,47.65380566,"Mon 06:00 - 16:00, Tue 06:00 - 16:00, Wnd 06:00 - 16:00, Thr 06:00 - 16:00, Fri 06:00 - 16:00, Sat 07:00 - 16:00, Sun 07:00 - 16:00",,,0
Einstein Bros. Bagels,6214,502 E Boone Ave,Cataldo Hall,Spokane,WA,99258,US,(509) 313-6914,-117.4037277,47.66867653,"Mon 07:30 - 20:00, Tue 07:30 - 20:00, Wnd 07:30 - 20:00, Thr 07:30 - 20:00, Fri 07:30 - 02:00, Sat 10:30 - 02:00, Sun 10:30 - 21:00",,,0
Einstein Bros. Bagels,6278,702 E Desmet Ave,Hemmingson Univ. Center,Spokane,WA,99258,US,,-117.399864,47.66712,"Mon 07:00 - 19:00, Tue 07:00 - 19:00, Wnd 07:00 - 19:00, Thr 07:00 - 19:00, Fri 07:00 - 19:00, Sat 10:30 - 14:00, Sun 10:30 - 14:00",,,0
Einstein Bros. Bagels,6247,1302 SE Cougar Way,The Market @Global Scholars Hall,Pullman,WA,99163,US,,-117.1635302,46.73364983,"Mon 07:30 - 01:00, Tue 07:30 - 01:00, Wnd 07:30 - 01:00, Thr 07:30 - 01:00, Fri 07:30 - 01:00, Sat 10:30 - 01:00, Sun 10:30 - 01:00",,,0
Einstein Bros. Bagels,6061,875 Line Street,Idaho Commons,Moscow,ID,83844,US,(208) 885-4018,-117.0124752,46.72738247,"Mon 07:00 - 19:00, Tue 07:00 - 19:00, Wnd 07:00 - 19:00, Thr 07:00 - 19:00, Fri 07:00 - 19:00",,,0
Einstein Bros. Bagels,4047,150 W Broadway St,,Missoula,MT,59802,US,(406) 523-2767,-113.9950297,46.87271056,"Mon 06:00 - 17:00, Tue 06:00 - 17:00, Wnd 06:00 - 17:00, Thr 06:00 - 17:00, Fri 06:00 - 17:00, Sat 07:00 - 16:00, Sun 07:00 - 16:00",,,0
Einstein Bros. Bagels,6263,231 West Sixth Street,Dewitt Student Center,Powell,WY,82435,US,,-108.7621636,44.7613812,"Mon 07:00 - 15:00, Tue 07:00 - 15:00, Wnd 07:00 - 15:00, Thr 07:00 - 15:00, Fri 07:00 - 15:00, Sat 10:00 - 13:00, Sun 10:00 - 13:00",,,0
Einstein Bros. Bagels,6292,"1200 University Street, Unit 9032",EY Berry Library,Spearfish,SD,57799,US,605-642-6083,-103.871123,44.49640702,"Mon 07:30 - 21:00, Tue 07:30 - 21:00, Wnd 07:30 - 21:00, Thr 07:30 - 21:00, Fri 07:30 - 17:00",,,0
Caribou Coffee & Einstein Bros. Bagels,1365,902 Mount Rushmore,,Rapid City,SD,57701,US,605-341-3266,-103.231651,44.076957,"Mon 05:00 - 21:00, Tue 05:00 - 21:00, Wnd 05:00 - 21:00, Thr 05:00 - 21:00, Fri 05:00 - 21:00, Sat 06:00 - 21:00, Sun 06:00 - 20:00",,,0
Einstein Bros. Bagels,6254,501 E Saint Joseph St,Rockers Square,Rapid City,SD,57701,US,(605) 394-1953,-103.209441,44.07632252,,,,0
Einstein Bros. Bagels,3290,150 Alpenglow Way,Moffat Food Court,Winter Park,CO,80482,US,(303) 316-1438,-105.75686,39.88004,"Mon 07:00 - 17:00, Tue 07:00 - 17:00, Wnd 07:00 - 17:00, Thr 07:00 - 17:00, Fri 07:00 - 15:00",,,0
Caribou Coffee & Einstein Bros. Bagels,3584,104th E 29th Street #A,,Loveland,CO,80538,US,(970) 612-4000,-105.07665,40.421337,"Mon 05:00 - 21:00, Tue 05:00 - 21:00, Wnd 05:00 - 21:00, Thr 05:00 - 21:00, Fri 05:00 - 21:00, Sat 06:00 - 21:00, Sun 06:00 - 20:00",,,0
Caribou Coffee & Einstein Bros. Bagels,3331,1693 28th St,,Boulder,CO,80301,US,(720) 565-0413,-105.258896,40.01698766,"Mon 05:00 - 21:00, Tue 05:00 - 21:00, Wnd 05:00 - 21:00, Thr 05:00 - 21:00, Fri 05:00 - 21:00, Sat 06:00 - 21:00, Sun 06:00 - 22:00",,,0
Einstein Bros. Bagels,3523,800 Madison Avenue,Health Science Center,Memphis,TN,38152,US,(901) 448-8500,-90.03438741,35.14132506,"Mon 07:30 - 15:00, Tue 07:00 - 15:00, Wnd 07:00 - 15:00, Thr 07:00 - 15:00, Fri 07:00 - 15:00",,,0
Einstein Bros. Bagels,3472,126 Ned R McWherter,McWherter Library,Memphis,TN,38152,US,(901) 678-3079,-89.9362816,35.12099716,"Mon 07:30 - 20:00, Tue 07:30 - 20:00, Wnd 07:30 - 20:00, Thr 07:30 - 20:00",,,0
Einstein Bros. Bagels,4063,4631 Poplar Ave,,Memphis,TN,38117,US,(901) 800-2806,-89.90763769,35.11614254,"Mon 05:30 - 16:30, Tue 05:30 - 16:30, Wnd 05:30 - 16:30, Thr 05:30 - 16:30, Fri 05:30 - 16:30, Sat 06:30 - 16:30, Sun 06:30 - 16:30",,,0
Einstein Bros. Bagels,4070,7780 US Highway 64,,Bartlett,TN,38133,US,(901) 208-8196,-89.80398023,35.2052784,"Mon 05:30 - 16:30, Tue 05:30 - 16:30, Wnd 05:30 - 16:30, Thr 05:30 - 16:30, Fri 05:30 - 16:30, Sat 06:30 - 16:30, Sun 06:30 - 16:30",,,0
Einstein Bros. Bagels,6279,105 N Caraway,Humanities and Social Sciences Bldg,Jonesboro,AR,72401,US,,-90.67720177,35.84161917,"Mon 07:30 - 15:00, Tue 07:30 - 15:00, Wnd 07:30 - 15:00, Thr 07:30 - 15:00, Fri 07:30 - 15:00",,,0
Einstein Bros. Bagels,6203,481 Coliseum Drive,Law Building,University,MS,38677,US,(662) 915-2139,-89.54221885,34.3627398,"Mon 07:30 - 15:00, Tue 07:30 - 15:00, Wnd 07:30 - 15:00, Thr 07:30 - 15:00, Fri 07:30 - 15:00",,,0
Einstein Bros. Bagels,6013,751 All American Drive,Anderson Hall Engineering Bldg,University,MS,38677,US,(662) 915-2139,-89.5352384,34.36400503,"Mon 07:00 - 19:00, Tue 07:00 - 19:00, Wnd 07:00 - 19:00, Thr 07:00 - 19:00, Fri 07:00 - 19:00",,,0
Einstein Bros. Bagels,6110,One Harrison Plz Box 5069,Guillot University Center,Florence,AL,35632,US,(256) 765-5860,-87.67991026,34.80699738,"Mon 07:00 - 17:00, Tue 07:00 - 17:00, Wnd 07:00 - 17:00, Thr 07:00 - 17:00, Fri 07:00 - 16:00",,,0
Einstein Bros. Bagels,3480,85 Old Main,Mitchell Memorial Library,Starkville,MS,39762,US,(662) 325-0804,-88.78872909,33.45225227,"Mon 07:00 - 21:00, Tue 07:00 - 21:00, Wnd 07:00 - 21:00, Thr 07:00 - 21:00, Fri 07:00 - 15:00, Sun 13:00 - 18:00",,,0
Einstein Bros. Bagels,3414,143 Replacement Ave,Wood Army Base,Fort Leonard Wood,MO,65473,US,(573) 329-2731,-92.11529225,37.75830597,"Mon 06:00 - 16:00, Tue 06:00 - 16:00, Wnd 06:00 - 16:00, Thr 06:00 - 16:00, Fri 06:00 - 16:00, Sat 07:00 - 15:00, Sun 07:00 - 15:00",,,0
Einstein Bros. Bagels,3486,1346 University Dr,Havener Center,Rolla,MO,65409,US,(573) 364-5436,-91.7766105,37.95493324,"Mon 07:00 - 16:00, Tue 07:00 - 16:00, Wnd 07:00 - 16:00, Thr 07:00 - 16:00, Fri 07:00 - 16:00, Sat 11:00 - 22:00, Sun 11:00 - 20:00",,,0
Einstein Bros. Bagels,6077,1714 9th Ave S,Learning Resource Center,Birmingham,AL,35205,US,(205) 996-6252,-86.80252939,33.5020194,"Mon 07:00 - 17:00, Tue 07:00 - 17:00, Wnd 07:00 - 17:00, Thr 07:00 - 17:00, Fri 07:00 - 14:00",,,0
Einstein Bros. Bagels,6267,800 Lakeshore Dr,Harwell Goodwin Davis Library,Birmingham,AL,35229,US,(205) 332-9712,-86.79207484,33.46586997,"Mon 07:30 - 23:00, Tue 07:30 - 23:00, Wnd 07:30 - 23:00, Thr 07:30 - 23:00, Fri 07:30 - 16:00, Sun 13:00 - 23:00",,,0
Einstein Bros. Bagels,3622,4430A  S Campbell Ave,,Springfield,MO,65810,US,(417) 799-1093,-93.29583698,37.13293565,"Mon 06:00 - 16:00, Tue 06:00 - 16:00, Wnd 06:00 - 16:00, Thr 06:00 - 16:00, Fri 06:00 - 16:00, Sat 06:00 - 15:00, Sun 07:00 - 15:00",,,0
Einstein Bros. Bagels,3621,1933 S National Ave,,Springfield,MO,65804,US,(417) 877-0073,-93.27709122,37.17923748,"Mon 06:00 - 16:00, Tue 06:00 - 16:00, Wnd 06:00 - 16:00, Thr 06:00 - 16:00, Fri 06:00 - 16:00, Sat 06:00 - 15:00, Sun 07:00 - 15:00",,,0
Einstein Bros. Bagels,6233,1 Vine Street,Farmer Hall,Montevallo,AL,35115,US,(205) 626-0063,-86.8641811,33.10599529,"Mon 07:00 - 19:00, Tue 07:00 - 19:00, Wnd 07:00 - 19:00, Thr 07:00 - 19:00, Fri 07:00 - 19:00",,,0
Einstein Bros. Bagels,6042,300 West Clark Street,Kirkpatrick Library,Warrensburg,MO,64093,US,660-543-4844,-93.7372131,38.7558661,"Mon 08:00 - 23:00, Tue 08:00 - 23:00, Wnd 08:00 - 23:00, Thr 08:00 - 23:00, Fri 08:00 - 14:30",,,0
Einstein Bros. Bagels,6059,500 S. Maguire St,Wellness Center,Warensburg,MO,64093,US,660-543-4844,-93.73683976,38.75792581,"Mon 07:30 - 17:30, Tue 07:30 - 17:30, Wnd 07:30 - 17:30, Thr 07:30 - 17:30, Fri 07:30 - 14:00",,,0
Einstein Bros. Bagels,2090,210 NW State Route 7,,Blue Springs,MO,64014,US,(816) 224-9797,-94.27174193,39.01984741,"Mon 05:30 - 15:00, Tue 05:30 - 15:00, Wnd 05:30 - 15:00, Thr 05:30 - 15:00, Fri 05:30 - 15:00, Sat 06:00 - 15:00, Sun 06:00 - 15:00",,,0
Einstein Bros. Bagels,6248,2430 Airport Blvd,Pre-security,Pensacola,FL,32504,US,(850) 436-5000,-87.19388837,30.47602725,"Mon 04:00 - 23:00, Tue 04:00 - 23:00, Wnd 04:00 - 23:00, Thr 04:00 - 23:00, Fri 04:00 - 23:00, Sat 04:00 - 23:00, Sun 04:00 - 23:00",,,0
Einstein Bros. Bagels,6249,2430 Airport Blvd,Terminal,Pensacola,FL,32504,US,,-87.19313837,30.47559055,"Mon 05:00 - 21:00, Tue 05:00 - 21:00, Wnd 05:00 - 21:00, Thr 05:00 - 21:00, Fri 05:00 - 21:00, Sat 05:00 - 21:00, Sun 06:00 - 21:00",,,0
Einstein Bros. Bagels,3079,10215 State Line Rd,,Kansas City,MO,64114,US,(816) 941-8550,-94.60770498,38.94303852,"Mon 05:00 - 17:00, Tue 05:00 - 17:00, Wnd 05:00 - 17:00, Thr 05:00 - 17:00, Fri 05:00 - 17:00, Sat 06:00 - 16:00, Sun 06:00 - 15:00",,,0
Einstein Bros. Bagels,2682,8700 W 135th St,,Overland Park,KS,66221,US,(913) 681-0282,-94.68730557,38.88612318,"Mon 05:00 - 17:00, Tue 05:00 - 17:00, Wnd 05:00 - 17:00, Thr 05:00 - 17:00, Fri 05:00 - 17:00, Sat 06:00 - 16:00, Sun 06:00 - 15:00",,,0
Einstein Bros. Bagels,749,8600 College Blvd,,Overland Park,KS,66210,US,(913) 338-2084,-94.68407433,38.92790397,"Mon 06:00 - 17:00, Tue 06:00 - 17:00, Wnd 06:00 - 17:00, Thr 06:00 - 17:00, Fri 06:00 - 17:00, Sat 06:00 - 16:00, Sun 06:00 - 15:00",,,0
Einstein Bros. Bagels,6251,1100 Rockhurst Rd,Massman Union,Kansas City,MO,64110,US,(816) 501-4099,-94.57165195,39.03142782,"Mon 07:30 - 20:00, Tue 07:30 - 20:00, Wnd 07:30 - 20:00, Thr 07:30 - 20:00, Fri 07:30 - 20:00, Sat 11:00 - 19:00",,,0
Einstein Bros. Bagels,3415,5100 Rockhill Rd,Royall Hall,Kansas City,MO,64110,US,(816) 235-5080,-94.57704341,39.03312983,"Mon 07:00 - 19:00, Tue 07:00 - 19:00, Wnd 07:00 - 19:00, Thr 07:00 - 19:00, Fri 07:00 - 19:00",,,0
Einstein Bros. Bagels,748,6970 Mission Rd Ste 36,,Prairie Village,KS,66208,US,(913) 906-8728,-94.63002579,39.00213769,"Mon 05:30 - 17:00, Tue 05:30 - 17:00, Wnd 05:30 - 17:00, Thr 05:30 - 17:00, Fri 05:30 - 17:00, Sat 06:00 - 16:00, Sun 06:00 - 16:00",,,0
Einstein Bros. Bagels,2804,4050 Shawnee Mission Pkwy,,Roeland Park,KS,66205,US,(913) 384-1900,-94.63273456,39.02984354,"Mon 05:00 - 17:00, Tue 05:00 - 17:00, Wnd 05:00 - 17:00, Thr 05:00 - 17:00, Fri 05:00 - 17:00, Sat 06:00 - 16:00, Sun 06:00 - 15:00",,,0
Einstein Bros. Bagels,3042,2450 Grand Blvd Ste 121,,Kansas City,MO,64108,US,(816) 471-1444,-94.58239576,39.08269854,"Mon 06:00 - 18:00, Tue 06:00 - 18:00, Wnd 06:00 - 18:00, Thr 06:00 - 20:00, Fri 06:00 - 20:00, Sat 06:00 - 18:00, Sun 07:00 - 17:00",,,0
Einstein Bros. Bagels,2380,1600 California St,,Denver,CO,80202,US,(303) 436-1413,-104.9917289,39.74513944,"Mon 05:30 - 17:00, Tue 05:30 - 17:00, Wnd 05:30 - 17:00, Thr 05:30 - 17:00, Fri 05:30 - 17:00, Sat 07:00 - 15:00, Sun 07:00 - 15:00",,,0
Einstein Bros. Bagels,3635,555 N Broadway Ste 11,,Denver,CO,80203,US,(720) 214-7210,-104.987827,39.72545329,"Mon 05:00 - 17:00, Tue 05:00 - 17:00, Wnd 05:00 - 17:00, Thr 05:00 - 17:00, Fri 05:00 - 17:00, Sat 06:00 - 16:00, Sun 06:00 - 16:00",,,0
Einstein Bros. Bagels,2511,1600 E 18th Ave,,Denver,CO,80218,US,(303) 322-3154,-104.9681268,39.74461318,"Mon 05:30 - 17:00, Tue 05:30 - 17:00, Wnd 05:30 - 17:00, Thr 05:30 - 17:00, Fri 05:30 - 17:00, Sat 06:00 - 16:00, Sun 06:00 - 15:00",,,0
Caribou Coffee & Einstein Bros. Bagels,3656,300 East Alameda Ave,,Denver,CO,80209,US,303 722-9400,-104.983642187,39.7107191588,"Mon 05:00 - 21:00, Tue 05:00 - 21:00, Wnd 05:00 - 21:00, Thr 05:00 - 21:00, Fri 05:00 - 21:00, Sat 06:00 - 21:00, Sun 06:00 - 20:00",,,0
Einstein Bros. Bagels,913,895 Colorado Blvd,,Denver,CO,80206,US,(303) 321-4000,-104.941121,39.73022063,"Mon 05:00 - 17:00, Tue 05:00 - 17:00, Wnd 05:00 - 17:00, Thr 05:00 - 17:00, Fri 05:00 - 17:00, Sat 06:00 - 16:00, Sun 06:00 - 15:00",,,0
Einstein Bros. Bagels,3623,967 S Colorado Blvd,,Denver,CO,80246,US,(720) 214-5042,-104.94109,39.699047,"Mon 05:00 - 17:00, Tue 05:00 - 17:00, Wnd 05:00 - 17:00, Thr 05:00 - 17:00, Fri 05:00 - 17:00, Sat 06:00 - 17:00, Sun 06:00 - 16:00",,,0
Einstein Bros. Bagels,868,1213 E Evans Ave,,Denver,CO,80210,US,(303) 722-9300,-104.972995,39.6787198,"Mon 05:00 - 17:00, Tue 05:00 - 17:00, Wnd 05:00 - 17:00, Thr 05:00 - 17:00, Fri 05:00 - 17:00, Sat 06:00 - 16:00, Sun 06:00 - 15:00",,,0
Einstein Bros. Bagels,6124,1745 S High St Rm 117,Daniels School of Business,Denver,CO,80210,US,(303) 871-7680,-104.9598946,39.67752888,"Mon 07:00 - 20:00, Tue 07:00 - 20:00, Wnd 07:00 - 20:00, Thr 07:00 - 20:00, Fri 07:00 - 17:00",,,0
Einstein Bros. Bagels,3551,200 Quebec St Bldg 101,,Denver,CO,80230,US,(303) 344-0924,-104.9031718,39.7205766,"Mon 05:00 - 17:00, Tue 05:00 - 17:00, Wnd 05:00 - 17:00, Thr 05:00 - 17:00, Fri 05:00 - 17:00, Sat 06:00 - 17:00, Sun 06:00 - 17:00",,,0
Einstein Bros. Bagels,3366,7300 E 29th Ave Bldg 600,,Denver,CO,80238,US,(303) 322-2585,-104.9026901,39.75781269,"Mon 05:00 - 17:00, Tue 05:00 - 17:00, Wnd 05:00 - 17:00, Thr 05:00 - 17:00, Fri 05:00 - 17:00, Sat 06:00 - 16:00, Sun 06:00 - 15:00",,,0
Einstein Bros. Bagels,2080,490 Wadsworth Blvd,,Lakewood,CO,80226,US,(303) 239-6393,-105.0811492,39.72358416,"Mon 05:00 - 17:00, Tue 05:00 - 17:00, Wnd 05:00 - 17:00, Thr 05:00 - 17:00, Fri 05:00 - 17:00, Sat 06:00 - 16:00, Sun 06:00 - 15:00",,,0
Einstein Bros. Bagels,2006,2730 S Colorado Blvd,,Denver,CO,80222,US,(303) 639-9717,-104.9391022,39.66742538,"Mon 05:00 - 17:00, Tue 05:00 - 17:00, Wnd 05:00 - 17:00, Thr 05:00 - 17:00, Fri 05:00 - 17:00, Sat 06:00 - 16:00, Sun 06:00 - 15:00",,,0
Einstein Bros. Bagels,3598,697 W Hampden Ave,,Englewood,CO,80110,US,(720) 409-4994,-104.9954432,39.65359845,"Mon 05:00 - 16:00, Tue 05:00 - 16:00, Wnd 05:00 - 16:00, Thr 05:00 - 16:00, Fri 05:00 - 16:00, Sat 06:00 - 16:00, Sun 06:00 - 15:00",,,0
Einstein Bros. Bagels,1793,5545 Wadsworth Byp Unit B,,Arvada,CO,80002,US,(303) 940-8606,-105.0785629,39.7970135,"Mon 05:00 - 16:00, Tue 05:00 - 16:00, Wnd 05:00 - 16:00, Thr 05:00 - 16:00, Fri 05:00 - 16:00, Sat 06:00 - 16:00, Sun 06:00 - 16:00",,,0
Einstein Bros. Bagels,6004,1 Denver Federal Ctr,Building 41,Lakewood,CO,80225,US,(303) 237-2224,-105.1183533,39.71791209,"Mon 06:30 - 14:00, Tue 06:00 - 14:00, Wnd 06:00 - 14:00, Thr 06:00 - 14:00, Fri 06:00 - 15:00",,,0
Einstein Bros. Bagels,3407,5131 Kipling St Ste 610,,Wheat Ridge,CO,80033,US,(303) 403-0394,-105.1111417,39.78997515,"Mon 05:30 - 17:00, Tue 05:30 - 17:00, Wnd 05:30 - 17:00, Thr 05:30 - 17:00, Fri 05:30 - 17:00, Sat 06:00 - 16:00, Sun 06:00 - 15:00",,,0
Einstein Bros. Bagels,1797,7350 E Hampden Ave Ste A,,Denver,CO,80231,US,(303) 689-9444,-104.9033315,39.65250112,"Mon 05:00 - 17:00, Tue 05:00 - 17:00, Wnd 05:00 - 17:00, Thr 05:00 - 17:00, Fri 05:00 - 17:00, Sat 06:00 - 16:00, Sun 06:00 - 15:00",,,0
Einstein Bros. Bagels,3099,14401 W Colfax Ave,,Lakewood,CO,80401,US,(303) 273-5600,-105.1631199,39.73388642,"Mon 05:00 - 17:00, Tue 05:00 - 17:00, Wnd 05:00 - 17:00, Thr 05:00 - 17:00, Fri 05:00 - 17:00, Sat 06:00 - 16:00, Sun 06:00 - 15:00",,,0
Einstein Bros. Bagels,1975,9392 Sheridan Blvd,,Westminster,CO,80031,US,(303) 657-3424,-105.0524421,39.86771777,"Mon 05:30 - 17:00, Tue 05:30 - 17:00, Wnd 05:30 - 17:00, Thr 05:30 - 17:00, Fri 05:30 - 17:00, Sat 06:00 - 16:00, Sun 06:00 - 16:00",,,0
Einstein Bros. Bagels,1847,4920 S Yosemite St,,Greenwood Village,CO,80111,US,(303) 721-6655,-104.8834182,39.62596369,"Mon 05:00 - 17:00, Tue 05:00 - 17:00, Wnd 05:00 - 17:00, Thr 05:00 - 17:00, Fri 05:00 - 17:00, Sat 06:00 - 16:00, Sun 06:00 - 15:00",,,0
Caribou Coffee & Einstein Bros. Bagels,3350,16495 East 40th Circle Suite A,,Aurora,CO,80011,US,(303) 307-1234,-104.79713,39.77248481,"Mon 05:00 - 21:00, Tue 05:00 - 21:00, Wnd 05:00 - 21:00, Thr 05:00 - 21:00, Fri 05:00 - 21:00, Sat 06:00 - 21:00, Sun 06:00 - 20:00",,,0
Einstein Bros. Bagels,2646,6650 S Yosemite St,,Greenwood Village,CO,80111,US,(303) 267-0552,-104.8884223,39.59580418,"Mon 05:00 - 17:00, Tue 05:00 - 17:00, Wnd 05:00 - 17:00, Thr 05:00 - 17:00, Fri 05:00 - 17:00, Sat 06:00 - 16:00, Sun 06:00 - 15:00",,,0
Einstein Bros. Bagels,6020,1650 Arapahoe Street,CTLM Bldg,Golden,CO,80401,US,303-384-2194,-105.2194555,39.75061696,"Mon 07:00 - 22:00, Tue 07:00 - 22:00, Wnd 07:00 - 22:00, Thr 07:00 - 22:00, Fri 07:00 - 14:00",,,0
Einstein Bros. Bagels,2227,5180 W 120th Ave,,Broomfield,CO,80020,US,(303) 464-9760,-105.0523424,39.91243335,"Mon 05:00 - 17:00, Tue 05:00 - 17:00, Wnd 05:00 - 17:00, Thr 05:00 - 17:00, Fri 05:00 - 17:00, Sat 06:00 - 16:00, Sun 06:00 - 16:00",,,0
Einstein Bros. Bagels,3346,12073 E Arapahoe Rd Ste 100,,Centennial,CO,80112,US,(303) 706-9992,-104.8491571,39.59552762,"Mon 05:00 - 17:00, Tue 05:00 - 17:00, Wnd 05:00 - 17:00, Thr 05:00 - 17:00, Fri 05:00 - 17:00, Sat 06:00 - 15:00, Sun 06:00 - 15:00",,,0
Einstein Bros. Bagels,3589,18191 E Hampden Ave,,Aurora,CO,80013,US,(303) 586-8137,-104.7761764,39.65349576,"Mon 05:30 - 16:00, Tue 05:30 - 16:00, Wnd 05:30 - 16:00, Thr 05:30 - 16:00, Fri 05:30 - 16:00, Sat 06:00 - 16:00, Sun 06:00 - 15:00",,,0
Einstein Bros. Bagels,3554,6232 S Parker Rd Unit 400,,Centennial,CO,80016,US,(303) 699-0649,-104.8065342,39.60379214,"Mon 05:30 - 16:00, Tue 05:30 - 16:00, Wnd 05:30 - 16:00, Thr 05:30 - 16:00, Fri 05:30 - 16:00, Sat 06:00 - 16:00, Sun 06:00 - 15:00",,,0
Caribou Coffee & Einstein Bros. Bagels,1361,14315 Orchard Parkway,,Westminster,CO,80023,US,720-214-7987,-104.994223,39.95622903,"Mon 05:00 - 19:00, Tue 05:00 - 19:00, Wnd 05:00 - 19:00, Thr 05:00 - 19:00, Fri 05:00 - 19:00, Sat 06:00 - 19:00, Sun 06:00 - 19:00",,,0
Einstein Bros. Bagels,3631,548 W South Boulder Rd,,Lafayette,CO,80026,US,(720) 509-8648,-105.0980204,39.98622299,"Mon 05:00 - 17:00, Tue 05:00 - 17:00, Wnd 05:00 - 17:00, Thr 05:00 - 17:00, Fri 05:00 - 17:00, Sat 06:00 - 16:00, Sun 06:00 - 16:00",,,0
Einstein Bros. Bagels,6200,8500 Pena Blvd,Pre Security,Denver,CO,80249,US,(303) 342-6778,-104.6739729,39.84965524,"Mon 05:00 - 21:30, Tue 05:00 - 21:30, Wnd 05:00 - 21:30, Thr 05:00 - 21:30, Fri 05:00 - 21:30, Sat 05:00 - 21:30, Sun 05:00 - 21:30",,,0
Einstein Bros. Bagels,3456,8500 Pea Blvd,"Terminal C, Center Core",Denver,CO,80249,US,(303) 342-6670,-104.673511,39.8490076,"Mon 06:00 - 21:00, Tue 06:00 - 21:00, Wnd 06:00 - 21:00, Thr 06:00 - 21:00, Fri 06:00 - 21:00, Sat 06:00 - 21:00, Sun 06:00 - 21:00",,,0
Einstein Bros. Bagels,2445,2400 Baseline Rd,,Boulder,CO,80305,US,(303) 543-1525,-105.2631257,39.99988615,"Mon 05:00 - 17:00, Tue 05:00 - 17:00, Wnd 05:00 - 17:00, Thr 05:00 - 17:00, Fri 05:00 - 17:00, Sat 06:00 - 16:00, Sun 06:00 - 15:00",,,0
Einstein Bros. Bagels,3383,2311 Clover Basin Dr,,Longmont,CO,80503,US,(303) 651-9063,-105.1320759,40.1437309,"Mon 05:00 - 16:00, Tue 05:00 - 16:00, Wnd 05:00 - 16:00, Thr 05:00 - 16:00, Fri 05:00 - 16:00, Sat 06:00 - 15:00, Sun 06:00 - 15:00",,,0
Einstein Bros. Bagels,6023,2045 10th Ave,Student Union,Greeley,CO,80639,US,970-351-1329,-104.6955415,40.40446503,"Mon 07:00 - 15:30, Tue 07:00 - 15:30, Wnd 07:00 - 15:30, Thr 07:00 - 15:30, Fri 07:00 - 15:30, Sat 08:00 - 14:00",,,0
Einstein Bros. Bagels,6071,137 Mid-Campus Drive,Hale Library,Manhattan,KS,66506,US,(785) 532-5397,-96.58024353,39.19052914,"Mon 07:00 - 22:00, Tue 07:00 - 22:00, Wnd 07:00 - 22:00, Thr 07:00 - 22:00, Fri 07:00 - 22:00, Sun 16:00 - 22:00",,,0
Caribou Coffee & Einstein Bros. Bagels,1333,1620 South Burr St,,Mitchell,SD,57301,US,605-292-0206,-98.01272392,43.69364726,"Mon 06:00 - 18:00, Tue 06:00 - 18:00, Wnd 06:00 - 18:00, Thr 06:00 - 18:00, Fri 06:00 - 18:00, Sat 06:00 - 18:00, Sun 06:00 - 18:00",,,0
Einstein Bros. Bagels,6202,414 E Clark St,Muenster University Center,Vermillion,SD,57069,US,(605) 677-5899,-96.92527703,42.78603693,"Mon 07:30 - 19:00, Tue 07:30 - 19:00, Wnd 07:30 - 19:00, Thr 07:30 - 19:00, Fri 07:30 - 16:00, Sat 10:00 - 14:00",,,0
Caribou Coffee & Einstein Bros. Bagels,1322,4200 South Louise,Suite 1000,Sioux Falls,SD,57106-3145,US,602 271-4004,-96.770523,43.507091,"Mon 05:00 - 21:00, Tue 05:00 - 21:00, Wnd 05:00 - 21:00, Thr 05:00 - 21:00, Fri 05:00 - 21:00, Sat 06:00 - 21:00, Sun 06:00 - 21:00",,,0
Caribou Coffee & Einstein Bros. Bagels,1328,2404 W 41st St,,Sioux Falls,SD,57105,US,(605) 332-5321,-96.75528266,43.51501842,"Mon 05:00 - 18:00, Tue 05:00 - 18:00, Wnd 05:00 - 18:00, Thr 05:00 - 18:00, Fri 05:00 - 18:00, Sat 06:00 - 18:00, Sun 06:00 - 18:00",,,0
Caribou Coffee & Einstein Bros. Bagels,1341,2300 S Minnesota Ave,,Sioux Falls,SD,57101,US,(605) 271-0687,-96.730798,43.523761,"Mon 05:00 - 18:00, Tue 05:00 - 18:00, Wnd 05:00 - 18:00, Thr 05:00 - 18:00, Fri 05:00 - 18:00, Sat 06:00 - 18:00, Sun 06:00 - 18:00",,,0
Einstein Bros. Bagels,3455,111 Skimor Ave,General College,Leavenworth,KS,66027,US,(913) 651-6573,-94.91590476,39.34398389,"Mon 07:30 - 14:00, Tue 07:30 - 14:00, Wnd 07:30 - 14:00, Thr 07:30 - 14:00, Fri 07:30 - 14:00",,,0
Einstein Bros. Bagels,3529,4525 Downs Dr,Remington Hall,Saint Joseph,MO,64507,US,(816) 271-4426,-94.78463237,39.75824304,"Mon 07:30 - 19:30, Tue 07:00 - 19:00, Wnd 07:30 - 19:30, Thr 06:00 - 12:00, Fri 07:00 - 15:30",,,0
Einstein Bros. Bagels,6195,800 University Dr,Student Center,Maryville,MO,64468,US,(660) 562-1212,-94.88341519,40.35172528,"Mon 07:30 - 17:00, Tue 07:30 - 17:00, Wnd 07:30 - 17:00, Thr 07:30 - 17:00, Fri 07:30 - 17:00",,,0
Einstein Bros. Bagels,6185,77 Roosevelt Ave,Education Bldg,Eau Claire,WI,54701,US,715-836-5007,-91.49805694,44.79840999,"Mon 07:30 - 17:00, Tue 07:30 - 17:00, Wnd 07:30 - 17:00, Thr 07:30 - 17:00, Fri 07:30 - 15:00",,,0
Caribou Coffee & Einstein Bros. Bagels,1360,101 Oak Avenue,Suite 4,Menomonie,WI,54751,US,715 231-2550,-91.9308855933,44.9044183521,"Mon 05:00 - 21:00, Tue 05:00 - 21:00, Wnd 05:00 - 21:00, Thr 05:00 - 21:00, Fri 05:00 - 21:00, Sat 06:00 - 21:00, Sun 06:00 - 20:00",,,0
"""COMING SOON"" - Caribou Coffee & Einstein Bros. Bagels",1352,1603 Broadway Ave N,,Rochester,MN,55906,US,1-888-227-4268,-92.46207207,44.03914355,"Mon 05:00 - 21:00, Tue 05:00 - 21:00, Wnd 05:00 - 21:00, Thr 05:00 - 21:00, Fri 05:00 - 21:00, Sat 06:00 - 21:00, Sun 06:00 - 20:00",,,0
Caribou Coffee & Einstein Bros. Bagels,1325,1930 36th Ave NW,,Rochester,MN,55901,US,(507) 281-7975,-92.51701561,44.04401889,"Mon 05:00 - 21:00, Tue 05:00 - 21:00, Wnd 05:00 - 21:00, Thr 05:00 - 21:00, Fri 05:00 - 21:00, Sat 06:00 - 21:00, Sun 06:00 - 20:00",,,0
Einstein Bros. Bagels,6287,501 Wild Rose Ave,University Center,River Falls,WI,54022,US,715-425-3274,-92.62130264,44.85212649,"Mon 07:30 - 18:00, Tue 07:30 - 18:00, Wnd 07:30 - 18:00, Thr 07:30 - 18:00, Fri 07:30 - 18:00",,,0
Caribou Coffee & Einstein Bros. Bagels,1324,2105 4th St SW Suite A,,Mason City,IA,50401,US,(641) 201-1047,-93.233054,43.147236,"Mon 05:00 - 19:00, Tue 05:00 - 19:00, Wnd 05:00 - 19:00, Thr 05:00 - 19:00, Fri 05:00 - 20:00, Sat 06:00 - 20:00, Sun 06:00 - 20:00",,,0
Caribou Coffee & Einstein Bros. Bagels,1323,365 Radio Dr,,Woodbury,MN,55125,US,(651) 340-5920,-92.93210896,44.94230476,"Mon 05:00 - 20:00, Tue 05:00 - 20:00, Wnd 05:00 - 20:00, Thr 05:00 - 20:00, Fri 05:00 - 20:00, Sat 06:00 - 20:00, Sun 06:00 - 19:00",,,0
Caribou Coffee & Einstein Bros. Bagels,1350,2751 County Road E,,White Bear Lake,MN,55110,US,(651) 493-8136,-92.98566589,45.05071201,"Mon 05:00 - 21:00, Tue 05:00 - 21:00, Wnd 05:00 - 21:00, Thr 05:00 - 21:00, Fri 05:00 - 21:00, Sat 06:00 - 21:00, Sun 06:00 - 20:00",,,0
Caribou Coffee & Einstein Bros. Bagels,1320,3405 Promenade Ave Suite 400,,Eagan,MN,55121,US,(651) 452-2343,-93.15364464,44.83307541,"Mon 05:00 - 20:00, Tue 05:00 - 20:00, Wnd 05:00 - 20:00, Thr 05:00 - 20:00, Fri 05:00 - 20:00, Sat 06:00 - 20:00, Sun 06:00 - 19:00",,,0
Caribou Coffee & Einstein Bros. Bagels,138,4733 Highway 61,,White Bear Lake,MN,55110,US,651-426-5694,-93.01109947,45.08395851,"Mon 05:00 - 21:00, Tue 05:00 - 21:00, Wnd 05:00 - 21:00, Thr 05:00 - 21:00, Fri 05:00 - 21:00, Sat 06:00 - 21:00, Sun 06:00 - 20:00",,,0
"""Coming Soon"" - Caribou Coffee & Einstein Bros. Bagels",1380,17830 Kenwood Trail,,Lakeville,MN,55044,US,1-888-227-4268,-93.28116608,44.68995285,,,,0
Einstein Bros. Bagels,3391,4300 Glumack Dr,"Concourse C, Gate 13",Saint Paul,MN,55111,US,(612) 726-5360,-93.2050044,44.88232631,"Mon 05:30 - 21:00, Tue 05:30 - 21:00, Wnd 05:30 - 21:00, Thr 05:30 - 21:00, Fri 05:30 - 21:00, Sat 05:30 - 21:00, Sun 05:30 - 21:00",,,0
Einstein Bros. Bagels,1549,704 W 78th St,,Richfield,MN,55423,US,(612) 869-8900,-93.28910981,44.86280275,"Mon 05:00 - 16:00, Tue 05:00 - 16:00, Wnd 05:00 - 16:00, Thr 05:00 - 16:00, Fri 05:00 - 16:00, Sat 06:00 - 16:00, Sun 06:00 - 15:00",,,0
Caribou Coffee & Einstein Bros. Bagels,1327,5901 Mills Civic Pkwy Suite 1000,,W Des Moines,IA,50266,US,(515) 225-1219,-93.78691689,41.55968674,"Mon 05:00 - 21:00, Tue 05:00 - 21:00, Wnd 05:00 - 21:00, Thr 05:00 - 21:00, Fri 05:00 - 21:00, Sat 06:00 - 21:00, Sun 06:00 - 20:00",,,0
Einstein Bros. Bagels,6211,1200 Grandview Ave,Library,Des Moines,IA,50316,US,(515) 263-6164,-93.6011538,41.62022467,"Mon 08:00 - 18:00, Tue 08:00 - 18:00, Wnd 08:00 - 18:00, Thr 08:00 - 18:00, Fri 08:00 - 15:00, Sun 13:00 - 18:00",,,0
Caribou Coffee & Einstein Bros. Bagels,1313,3501 East 10th St,10th & Bahnson,Sioux Falls,SD,57103,US,(605) 275-2326,-96.6834259,43.54620361,"Mon 05:00 - 18:00, Tue 05:00 - 18:00, Wnd 05:00 - 18:00, Thr 05:00 - 18:00, Fri 05:00 - 18:00, Sat 06:00 - 18:00, Sun 06:00 - 18:00",,,0
Einstein Bros. Bagels,6205,7 Centennial Student Un,Taylor Center,Mankato,MN,56001,US,(507) 389-1371,-93.99561602,44.1456525,"Mon 07:00 - 19:00, Tue 07:00 - 19:00, Wnd 07:00 - 19:00, Thr 07:00 - 19:00, Fri 07:00 - 15:00",,,0
Einstein Bros. Bagels,6167,820 N Washington Ave,Trojan Center,Madison,SD,57042,US,(605) 256-5657,-97.11041837,44.01261648,"Mon 07:30 - 19:00, Tue 07:30 - 19:00, Wnd 07:30 - 19:00, Thr 07:30 - 19:00, Fri 07:30 - 17:00",,,0
Caribou Coffee & Einstein Bros. Bagels,1339,1416 East College Dr,,Marshall,MN,56258,US,(507) 532-1006,-95.76232147,44.4500885,,,,0
Einstein Bros. Bagels,6053,1023 Student Center Lane,Student Union,Brookings,SD,57007,US,(605) 697-2550,-96.7824051,44.31756158,"Mon 07:00 - 14:00, Tue 07:00 - 14:00, Wnd 07:00 - 14:00, Thr 07:00 - 14:00, Fri 07:00 - 14:00",,,0
Caribou Coffee & Einstein Bros. Bagels,1340,8360 Hansen Ave,,Shakopee,MN,55379,US,952-403-5144,-93.40241365,44.77663703,"Mon 05:00 - 21:00, Tue 05:00 - 21:00, Wnd 05:00 - 21:00, Thr 05:00 - 21:00, Fri 05:00 - 21:00, Sat 06:00 - 21:00, Sun 06:00 - 20:00",,,0
Einstein Bros. Bagels,1842,7824 Market Blvd,,Chanhassen,MN,55317,US,(952) 937-9455,-93.53926299,44.86185371,"Mon 05:30 - 16:00, Tue 05:30 - 16:00, Wnd 05:30 - 16:00, Thr 05:30 - 16:00, Fri 05:30 - 16:00, Sat 06:00 - 16:00, Sun 06:00 - 15:00",,,0
Caribou Coffee & Einstein Bros. Bagels,1343,5125 Edina Industrial Blvd,Suite 1000,Edina,MN,55439,US,952-831-9230,-93.35408783,44.86352539,"Mon 05:00 - 19:00, Tue 05:00 - 19:00, Wnd 05:00 - 19:00, Thr 05:00 - 19:00, Fri 05:00 - 19:00, Sat 06:00 - 19:00, Sun 06:00 - 18:00",,,0
Einstein Bros. Bagels,2849,10999 Red Circle Dr,,Minnetonka,MN,55343,US,(952) 938-5915,-93.4197325,44.89373266,"Mon 05:00 - 17:00, Tue 05:00 - 17:00, Wnd 05:00 - 17:00, Thr 05:00 - 17:00, Fri 05:00 - 17:00, Sat 06:00 - 16:00, Sun 06:00 - 15:00",,,0
Caribou Coffee & Einstein Bros. Bagels,1321,6545 Lyndale Ave S,,Richfield,MN,55423,US,(612) 861-0283,-93.28585322,44.88383729,"Mon 05:00 - 20:00, Tue 05:00 - 20:00, Wnd 05:00 - 20:00, Thr 05:00 - 20:00, Fri 05:00 - 20:00, Sat 06:00 - 20:00, Sun 06:00 - 19:00",,,0
Caribou Coffee & Einstein Bros. Bagels,1358,1700 Plymouth Road,,Minnetonka,MN,55305,US,952 546-1128,-93.44351959,44.96743393,"Mon 05:00 - 21:00, Tue 05:00 - 21:00, Wnd 05:00 - 21:00, Thr 05:00 - 21:00, Fri 05:00 - 21:00, Sat 06:00 - 21:00, Sun 06:00 - 20:00",,,0
Caribou Coffee & Einstein Bros. Bagels,1344,1110 Nicollet Mall,,Minneapolis,MN,55403,US,612-338-0767,-93.27568397,44.97286543,"Mon 06:00 - 19:00, Tue 06:00 - 19:00, Wnd 06:00 - 19:00, Thr 06:00 - 19:00, Fri 06:00 - 19:00, Sat 06:30 - 19:00, Sun 07:00 - 18:00",,,0
Caribou Coffee & Einstein Bros. Bagels,1330,701 3rd Ave NE,,Buffalo,MN,55313,US,(763) 682-7047,-93.87284816,45.17969368,"Mon 05:00 - 21:00, Tue 05:00 - 21:00, Wnd 05:00 - 21:00, Thr 05:00 - 21:00, Fri 05:00 - 21:00, Sat 06:00 - 21:00, Sun 06:00 - 20:00",,,0
Einstein Bros. Bagels,6120,2211 Riverside Ave,Christensen Center,Minneapolis,MN,55454,US,(612) 359-6478,-93.24133013,44.96575275,"Mon 07:30 - 21:00, Tue 07:30 - 21:00, Wnd 07:30 - 21:00, Thr 07:30 - 21:00, Fri 07:30 - 20:00, Sat 07:30 - 17:00",,,0
Caribou Coffee & Einstein Bros. Bagels,1348,"550 S. 4th St., Suite 230",,Minneapolis,MN,55414,US,(612) 333-9088,-93.2620466,44.97697275,"Mon 06:00 - 18:00, Tue 06:00 - 18:00, Wnd 06:00 - 18:00, Thr 06:00 - 18:00, Fri 06:00 - 18:00",,,0
Einstein Bros. Bagels,3311,300 Washington Ave SE,Coffman Memorial Union,Minneapolis,MN,55455,US,(612) 625-2037,-93.2353552,44.97308163,"Mon 07:00 - 18:30, Tue 07:00 - 18:30, Wnd 07:00 - 18:30, Thr 07:00 - 18:30, Fri 07:00 - 16:00",,,0
Caribou Coffee & Einstein Bros. Bagels,1338,1180 Shingle Creek Pkwy Suite 102,,Brooklyn Center,MN,55430,US,(763) 566-0219,-93.316209,45.058621,"Mon 05:00 - 20:00, Tue 05:00 - 20:00, Wnd 05:00 - 20:00, Thr 05:00 - 20:00, Fri 05:00 - 20:00, Sat 06:00 - 20:00, Sun 06:00 - 19:00",,,0
Caribou Coffee & Einstein Bros. Bagels,1342,272 57th Ave NE,,Fridley,MN,55432,US,763-276-9770,-93.2666823394,45.0712232541,"Mon 05:00 - 20:00, Tue 05:00 - 20:00, Wnd 05:00 - 20:00, Thr 05:00 - 20:00, Fri 05:00 - 20:00, Sat 06:00 - 19:00, Sun 06:00 - 19:00",,,0
Caribou Coffee & Einstein Bros. Bagels,8588,720 4th Ave South,,St. Cloud,MN,56301,US,303-308-4373,-94.1497736407,45.5532806437,,,,0
Einstein Bros. Bagels,6158,1200 S Jay St,Student Center,Aberdeen,SD,57401,US,605-626-2015,-98.48437102,45.45114983,"Mon 07:30 - 19:00, Tue 07:30 - 19:00, Wnd 07:30 - 19:00, Thr 07:30 - 19:00, Fri 07:30 - 17:00, Sat 10:00 - 14:00",,,0
Caribou Coffee & Einstein Bros. Bagels,1318,703 Northland Dr,,Princeton,MN,55371,US,763-389-7982,-93.58399856,45.55675319,"Mon 05:00 - 20:00, Tue 05:00 - 20:00, Wnd 05:00 - 20:00, Thr 05:00 - 20:00, Fri 05:00 - 20:00, Sat 06:00 - 20:00, Sun 06:00 - 19:00",,,0
Caribou Coffee & Einstein Bros. Bagels,1367,5911 St. Croix Trail,,North Branch,MN,55056,US,651-674-6023,-92.98854065,45.51053619,"Mon 05:00 - 20:00, Tue 05:00 - 20:00, Wnd 05:00 - 20:00, Thr 05:00 - 20:00, Fri 05:00 - 20:00, Sat 06:00 - 20:00, Sun 06:00 - 19:00",,,0
Caribou Coffee & Einstein Bros. Bagels,1353,2304 College Way,,Fergus Falls,MN,56537,US,1-888-227-4268,-96.11322022,46.28964975,"Mon 05:00 - 20:00, Tue 05:00 - 20:00, Wnd 05:00 - 20:00, Thr 05:00 - 20:00, Fri 05:00 - 20:00, Sat 06:00 - 20:00, Sun 06:00 - 19:00",,,0
Einstein Bros. Bagels,6300,"901 NW 17th Street, Suite O",Park Place East Suiite O&P,Miami,FL,33136,US,787-773-3069,-80.210823,25.792268,"Mon 06:00 - 17:00, Tue 06:00 - 17:00, Wnd 06:00 - 17:00, Thr 06:00 - 17:00, Fri 06:00 - 17:00, Sat 06:00 - 14:00",,,0
Einstein Bros. Bagels,780,1500 Alton Rd,,Miami Beach,FL,33139,US,(305) 534-4003,-80.14134252,25.78744124,"Mon 05:00 - 17:00, Tue 05:00 - 17:00, Wnd 05:00 - 17:00, Thr 05:00 - 17:00, Fri 05:00 - 17:00, Sat 06:00 - 16:00, Sun 06:00 - 15:00",,,0
Einstein Bros. Bagels,2666,202 Miracle Mile,,Coral Gables,FL,33134,US,(305) 444-9928,-80.25887589,25.74928969,"Mon 05:00 - 17:00, Tue 05:00 - 17:00, Wnd 05:00 - 17:00, Thr 05:00 - 17:00, Fri 05:00 - 17:00, Sat 06:00 - 16:00, Sun 06:00 - 15:00",,,0
Einstein Bros. Bagels,6229,2100 NW 42nd Ave,Concourse D East 26,Miami,FL,33122,US,(305) 869-5632,-80.27778259,25.79723446,"Mon 00:00 - 23:30, Tue 00:00 - 23:30, Wnd 00:00 - 23:30, Thr 00:00 - 23:30, Fri 00:00 - 23:30, Sat 00:00 - 23:30, Sun 00:00 - 23:30",,,0
Einstein Bros. Bagels,6250,1350 Miller Rd,School of Law Bldg,Coral Gables,FL,33146,US,(305) 284-1134,-80.28001968,25.72063992,"Mon 07:00 - 23:00, Tue 07:00 - 23:00, Wnd 07:00 - 23:00, Thr 07:00 - 23:00, Fri 07:00 - 22:00, Sat 10:00 - 22:00, Sun 10:00 - 23:00",,,0
Einstein Bros. Bagels,2984,5946 S Dixie Hwy,,South Miami,FL,33143,US,(305) 668-6260,-80.29011604,25.70351242,"Mon 05:00 - 17:00, Tue 05:00 - 17:00, Wnd 05:00 - 17:00, Thr 05:00 - 17:00, Fri 05:00 - 17:00, Sat 06:00 - 16:00, Sun 06:00 - 15:00",,,0
Einstein Bros. Bagels,3609,9690 NW 41st St,,Doral,FL,33178,US,(786) 245-2583,-80.35266447,25.81131835,"Mon 05:00 - 17:00, Tue 05:00 - 17:00, Wnd 05:00 - 17:00, Thr 05:00 - 17:00, Fri 05:00 - 17:00, Sat 06:00 - 16:00, Sun 06:00 - 15:00",,,0
,,,,,,,,,,,"
",,,
