store_name,store_number,address,address2,city,state,zip_code,country,phone_number,latitude,longitude,store_hours,store_type,other_fields,coming_soon
Murphy,8782,1970 W Craig Road,,North Las Vegas,NV,89032,United States,(702) 636-9005,36.2398,-115.1703,,,,
Murphy,8777,3742 W. Ann Road,,North Las Vegas,NV,89031,United States,(702) 632-1020,36.2619,-115.1895,,,,
Murphy,8791,16492 Consumer Row,,King George,VA,22485,United States,(540) 663-3002,38.3505091,-77.0552616,,,,
Murphy,7634,2302 S Pleasant Valley Rd,,Winchester,VA,22601,United States,(540) 678-4725,39.15652847,-78.17197418,,,,
Murphy,8712,111 Farrow Dr.,,Winchester,VA,22602,United States,(540) 869-8488,39.0813,-78.1468,,,,
Murphy,8731,450 Kings Hwy,,Fredericksburg,VA,22405,United States,(540) 374-5218,38.287471,-77.438124,,,,
Murphy,7645,16100 Ira Hoffman Lane,,Culpeper,VA,22701,United States,(540) 825-8390,38.48169296,-77.9757703,,,,
Murphy,7560,1965 Cunningham Drive,,Hampton,VA,23666,United States,(757) 827-5857,37.042822,-76.38082,,,,
Murphy,7604,6261 College Dr,,Suffolk,VA,23435,United States,(757) 484-4237,36.882012,-76.426102,,,,
Murphy,7643,11800 Iron Bridge Plaza,,Chester,VA,23831,United States,(804) 768-4306,37.35281623,-77.48266361,,,,
Murphy,8749,1860 Stavemill Crossing Ln,,Powhatan,VA,23139,United States,(804) 794-6964,37.500548,-77.776976,,,,
Murphy,7530,205 Hillcrest Parkway,,Chesapeake,VA,23322,United States,(757) 421-2753,36.656198,-76.234109,,,,
Murphy,5505,1204 N. Main Street,,Suffolk,VA,23434,United States,(757) 934-1309,36.74726809,-76.58322969,,,,
Murphy,7417,108 Tanglewood Pkwy,,Elizabeth City,NC,27909,United States,(252) 384-1062,36.29358292,-76.29868317,,,,
Murphy,7636,1804 Peery Drive,,Farmville,VA,23901,United States,(434) 315-5975,37.2780347,-78.3983945,,,,
Murphy,8733,2140 U.S. 13 South,,Ahoskie,NC,27910,United States,(252) 209-0338,36.255153,-76.956569,,,,
Murphy,7521,423 Oakville Rd.,,Appomattox,VA,24522,United States,(434) 352-5704,37.3666,-78.8383,,,,
Murphy,8743,4201 South Amherst Highway,,Madison Heights,VA,24572,United States,(434) 845-2678,37.462586,-79.118428,,,,
Murphy,6936,220 Premier Blvd.,,Roanoke Rapids,NC,27870,United States,(252) 537-8255,36.4288,-77.63139,,,,
Murphy,7513,2021 Millennium Boulevard,,Courtland (Warren),OH,44410,United States,(330) 372-0265,41.276175,-80.774035,,,,
Murphy,6946,2869 E. State Street,,Salem,OH,44460,United States,(330) 337-9210,40.90053177,-80.81884766,,,,
Murphy,7294,6045 N. Ridge Rd.,,Madison,OH,44057,United States,(440) 417-0136,41.8025,-81.07183,,,,
Murphy,8507,1509 Washington St.,,Williamston,NC,27892,United States,(252) 792-1050,35.834434,-77.065756,,,,
Murphy,7480,1100 E. Lynchburg Salem Turnpike,,Bedford,VA,24523,United States,(540) 586-0093,37.323941,-79.497582,,,,
Murphy,8704,3506 Old Halifax Rd.,,South Boston,VA,24592,United States,(434) 575-0121,36.734169,-78.912146,,,,
Murphy,7122,3220 Atlantic Blvd. NE,,Canton,OH,44705,United States,(330) 456-7404,40.83581543,-81.32765198,,,,
Murphy,8505,100 River Oaks Dr.,,Tarboro,NC,27886,United States,(252) 641-1052,35.883395,-77.547879,,,,
Murphy,6630,9351 Mentor Avenue,,Mentor,OH,44060,United States,(440) 205-1912,41.67895496,-81.30475505,,,,
Murphy,7515,262 Tallmadge Rd,,Kent,OH,44240,United States,(330) 673-3073,41.100308,-81.380793,,,,
Murphy,7163,4030 Tuscarawas St. W.,,Canton,OH,44708,United States,(330) 477-9430,40.79613495,-81.42151642,,,,
Murphy,8502,1151 Eastern Ave.,,Nashville,NC,27856,United States,(252) 462-2383,35.97167,-77.93768,,,,
Murphy,7633,4530 Challenger Avenue,,Roanoke,VA,24012,United States,(540) 977-1202,37.32537078,-79.87273406,,,,
Murphy,8575,1426 Carolina Ave.,,Washington,NC,27889,United States,(252) 946-0543,35.561695,-77.061679,,,,
Murphy,8574,1015 Lewis Street #2,,Oxford,NC,27565,United States,(919) 693-1253,36.28055,-78.606285,,,,
Murphy,8570,800 Retail Way,,Louisburg,NC,27549,United States,(919) 340-2020,36.084407,-78.318072,,,,
Murphy,5528,"4805 Valley View Blvd., NW",,Roanoke,VA,24012,United States,(540) 362-2666,37.3038,-79.9595,,,,
Murphy,6645,250 Greenville Blvd. SW,,Greenville,NC,27834,United States,(252) 439-2261,35.576974,-77.389366,,,,
Murphy,6731,61215 Southgate Parkway,,Cambridge,OH,43725,United States,(740) 439-4822,39.99018478,-81.57520294,,,,
Murphy,6858,1051 Durham Road,,Roxboro,NC,27573,United States,(336) 330-0105,36.37538147,-78.98413086,,,,
Murphy,8584,474 Mount Cross Rd.,,Danville,VA,24540,United States,(434) 799-8900,36.598228,-79.3430296,,,,
Murphy,7263,2504 Forest Hills,,Wilson,NC,27893,United States,(252) 237-1798,35.733769,-77.95149,,,,
Murphy,7626,552 Old Frankline Turnpike,,Rocky Mount,VA,24151,United States,(540) 483-1663,37.0162,-79.8592,,,,
Murphy,8506,801 East Gannon Ave.,,Zebulon,NC,27597,United States,(919) 269-4479,35.82944,-78.29778,,,,
Murphy,7085,2120 South Main Street,,Wake Forest,NC,27587,United States,(919) 562-1740,35.95023346,-78.53501892,,,,
Murphy,7219,23739 Airport Road,,Coshocton,OH,43812,United States,(740) 291-8062,40.29701614,-81.85079956,,,,
Murphy,8741,34490 Twin Drive,,Locust Grove (Wilderness),VA,22508,United States,(540) 423-1274,37.0898,-80.1468,,,,
Murphy,7112,1450 N. New Hope Road,,Raleigh,NC,27604,United States,(919) 231-6626,35.79966736,-78.56151581,,,,
Murphy,8740,1039 Martin Luther King Jr Pkwy,,Durham,NC,27707,United States,(919) 361-6330,35.949586,-78.926206,,,,
Murphy,7233,215 E. Harris Place,,Eden,NC,27288,United States,(336) 623-1265,36.4866,-79.7372,,,,
Murphy,6938,12889 US 70 Hwy. W.,,Clayton,NC,27520,United States,(919) 553-7061,35.66434,-78.49755,,,,
Murphy,8509,4201 W. Vernon Ave.,,Kinston,NC,28504,United States,(252) 522-3561,35.261838,-77.648662,,,,
Murphy,8564,103 NC 581 Hwy N,,Goldsboro,NC,27530,United States,(919) 734-0937,35.42915,-78.062827,,,,
Murphy,8724,4520 Fayetteville Road,,Raleigh (Garner),NC,27603,United States,(919) 771-1547,35.72,-78.65,,,,
Murphy,6934,2856 Maysville Pike,,Zanesville,OH,43701,United States,(740) 450-9348,39.8926,-82.0444,,,,
Murphy,7242,1403 N. Scales,,Reidsville,NC,27320,United States,(336) 616-1445,36.38546,-79.668085,,,,
Murphy,8531,1234 N. Brightleaf Blvd.,,Smithfield,NC,27577,United States,(919) 938-0321,35.51856613,-78.31373596,,,,
Murphy,7247,1310 South Mebane Oaks Road,,Mebane,NC,27302,United States,(919) 304-5427,36.06821823,-79.27140045,,,,
Murphy,7371,46118 US Route 20,,Oberlin,OH,44074,United States,(440) 774-2621,41.26580811,-82.2209549,,,,
Murphy,8549,4993 NC Hwy 42 W.,,Garner,NC,27529,United States,(919) 662-4043,35.61145,-78.55572,,,,
Murphy,7611,568 US 70 Hwy West,,Havelock,NC,28532,United States,(252) 444-2824,34.913837,-76.939113,,,,
Murphy,7266,512 South Graham Hopedale Rd.,,Burlington,NC,27217,United States,(336) 229-7810,36.092944,-79.40543,,,,
Murphy,7613,3211 Apex Peakway,,Apex,NC,27502,United States,(919) 303-0598,35.714452,-78.84541,,,,
Murphy,7241,6705 NC 135,,Mayodan,NC,27027,United States,(336) 548-2006,36.417888,-79.936404,,,,
Murphy,8644,732 Judd Pkwy. NE,,Fuquay-Varina,NC,27526,United States,(919) 552-0681,35.593993,-78.779193,,,,
Murphy,7438,304 NC Hwy 55 West,,Mount Olive,NC,28365,United States,(919) 658-9501,35.212054,-78.070157,,,,
Murphy,6768,280 Highway 24,,Morehead City,NC,28557,United States,(252) 726-0200,34.73438263,-76.80996704,,,,
Murphy,7346,2107 (A) 16th St.,,Greensboro,NC,27405,United States,(336) 375-4574,36.110854,-79.755657,,,,
Murphy,6859,1395 N. 21st Street,,Newark,OH,43055,United States,(740) 364-0813,40.08568192,-82.42774963,,,,
Murphy,7293,2481 Possum Run Rd.,,Mansfield,OH,44903,United States,(419) 756-8914,40.69260025,-82.5109024,,,,
Murphy,6713,592 E. Jackson Blvd.,,Erwin,NC,28339,United States,(910) 892-5099,35.3241,-78.6473,,,,
Murphy,8553,100 Elmsley Meadow Lane,,Greensboro,NC,27401,United States,(336) 279-1101,36.004145,-79.791678,,,,
Murphy,8563,107 New Chatham Road,,Siler City,NC,27344,United States,(919) 742-7312,35.734469,-79.426192,,,,
Murphy,6729,12892 State Route 664,,Logan,OH,43138,United States,(740) 380-1471,39.5404,-82.44,,,,
Murphy,8569,168 Hickory Rd.,,Jacksonville,NC,28541,United States,(910) 455-3107,34.755363,-77.459152,,,,
Murphy,6933,1105 Ramada Street,,Sandusky,OH,44870,United States,(419) 609-1033,41.40313339,-82.654953,,,,
Murphy,8560,3288 NC Hwy 87 S.,,Sanford,NC,27332,United States,(919) 718-5977,35.444054,-79.128525,,,,
Murphy,7500,2726 N. Main St.,,High Point,NC,27265,United States,(336) 869-0094,35.993738,-80.00757,,,,
Murphy,7496,1453 Sunset Ave.,,Clinton,NC,28328,United States,(910) 299-0313,34.99308,-78.342686,,,,
Murphy,8540,2700 S. Main St.,,High Point,NC,27263,United States,(336) 883-6931,35.926209,-79.985691,,,,
Murphy,7364,4845 24th Ave. #1,,Ft. Gratiot,MI,48059,United States,(810) 385-6581,43.045952,-82.45816,,,,
Murphy,7472,5621 S. NC 41,,Wallace,NC,28466,United States,(910) 285-2296,34.74147,-77.97205,,,,
Murphy,8734,1280 East Dixie Drive,,Asheboro,NC,27203,United States,(336) 318-4558,35.6963555,-79.7901633,,,,
Murphy,8508,621 Lillington Hwy.,,Spring Lake,NC,28390,United States,(910) 436-0640,35.17558,-78.96956,,,,
Murphy,7420,3470 Parway Village Cr.,,Winston-Salem,NC,27127,United States,(336) 771-3917,36.029208,-80.262453,,,,
Murphy,7418,4521 Ramsey St.,,Fayetteville,NC,28311,United States,(910) 488-6736,35.123398,-78.880213,,,,
Murphy,6808,1583 Liberty Drive,,Thomasville,NC,27360,United States,(336) 476-0060,35.8566,-80.0683,,,,
Murphy,7432,3589 East Main,,Whitehall,OH,43213,United States,(614) 238-0977,39.95566559,-82.90229797,,,,
Murphy,6851,14976 State Route 93 S,,Jackson,OH,45640,United States,(740) 286-6686,39.0378,-82.6274,,,,
Murphy,7148,950 Fangboner Road,,Fremont,OH,43420,United States,(419) 334-2216,41.37360001,-83.11873627,,,,
Murphy,6540,3050 N. Main Street,,Hope Mills,NC,28348,United States,(910) 423-4389,34.98282874,-78.96394677,,,,
Murphy,6807,7719 Raeford Road,,Fayetteville,NC,28304,United States,(910) 487-9960,35.0307,-79.0534,,,,
Murphy,7271,1110 Cotton Grove Rd.,,Lexington,NC,27292,United States,(336) 224-5780,35.79501724,-80.26153564,,,,
Murphy,8522,491 C C Camp Rd.,,Elkin,NC,28621,United States,(336) 835-1952,36.275312,-80.842444,,,,
Murphy,8676,389 County Rd. 120 South,,South Point,OH,,United States,(740) 894-1462,38.41186,-82.531583,,,,
Murphy,7311,2915 W. State Route 18,,Tiffin,OH,44883,United States,(419) 448-4081,41.11124039,-83.2237854,,,,
Murphy,7313,12223 23 Mile Rd.,,Shelby Township,MI,48315,United States,(586) 731-4568,42.670387,-83.009017,,,,
Murphy,7151,75 River Trace Lane,,Chillicothe,OH,45601,United States,(740) 779-3540,39.3452,-82.9747,,,,
Murphy,8591,4625 Fayetteville Rd.,,Raeford,NC,28376,United States,(910) 848-2329,35.007591,-79.17381,,,,
Murphy,6556,125 Montgomery Crossing,,Biscoe,NC,27209,United States,(910) 428-9348,35.358561,-79.798478,,,,
Murphy,7370,145 Cooper Creek Dr.,,Mocksville,NC,27028,United States,(336) 753-6893,35.926803,-80.591861,,,,
Murphy,7234,675 W. Sanilac Rd.,,Sandusky,MI,48471,United States,(810) 648-3376,43.42021942,-82.85700989,,,,
Murphy,7309,631 Coleman's Crossing Blvd.,,Marysville,OH,43040,United States,(937) 642-2861,40.230901,-83.342981,,,,
Murphy,7592,2262 N. Telegraph Road,,Monroe,MI,48162,United States,(734) 457-0607,41.953,-83.397,,,,
Murphy,8520,1010 Freeland Dr.,,Salisbury,NC,28144,United States,(704) 636-3461,35.657201,-80.464258,,,,
Murphy,6624,5221 Sigmon Road,,Wilmington,NC,28403,United States,(910) 798-9890,34.24308169,-77.87825405,,,,
Murphy,7214,721 Leonard Ave.,,Albemarle,NC,28001,United States,(704) 984-6236,35.34231567,-80.17603302,,,,
Murphy,8558,2005 W. US Hwy 421,,Wilkesboro,NC,28697,United States,(336) 651-8895,36.149596,-81.22004,,,,
Murphy,6695,1149 Mount Jefferson Road,,West Jefferson,NC,28694,United States,(336) 246-3726,36.3915,-81.48158,,,,
Murphy,7419,1116 Newpointe Blvd.,,Leland,NC,28451,United States,(910) 371-0419,34.21149,-78.02718,,,,
Murphy,6786,5205 Carolina Beach Road,,Wilmington,NC,28412,United States,(910) 452-5540,34.1439,-77.897,,,,
Murphy,7225,716 US Hwy 74 Business East,,Rockingham,NC,28379,United States,(910) 582-5286,34.915753,-79.736159,,,,
Murphy,6760,909 US Hwy. 15 - 401 Bypass,,Laurinburg,NC,28352,United States,(910) 610-4409,34.7574501,-79.48166656,,,,
Murphy,6676,905 NC Hwy. 16 S.,,Taylorsville,NC,28681,United States,(828) 635-6635,35.90933228,-81.17553711,,,,
Murphy,7277,252 Cassidy Blvd.,,Pikeville,KY,41501,United States,(606) 432-6922,37.50593,-82.538572,,,,
Murphy,8571,158 James Ave.,,Locust,NC,28097,United States,(704) 888-3321,35.254172,-80.453913,,,,
Murphy,6912,102 Columbus Corners Drive,,Whiteville,NC,28472,United States,(910) 640-1704,34.30122,-78.72266,,,,
Murphy,8738,3985 Concord Parkway S,,Concord,NC,28027,United States,(704) 721-4947,35.366718,-80.667458,,,,
Murphy,7385,1860 US Highway 74 W,,Wadesboro,NC,28170,United States,(704) 694-3706,34.979599,-80.10203552,,,,
Murphy,6699,1399 Leesburg Avenue,,Washington Court House,OH,43160,United States,(740) 333-1215,39.52303314,-83.45791626,,,,
Murphy,7498,1209 NC Hwy 16,,Conover,NC,28613,United States,(828) 464-0386,35.655288,-81.210378,,,,
Murphy,8572,1670 North Howe Street,,Southport,NC,28461,United States,(910) 454-4061,33.944075,-78.028881,,,,
Murphy,7538,915 Blowing Rock Blvd NW,,Lenoir,NC,28645,United States,(828) 758-7055,35.926306,-81.52644,,,,
Murphy,8504,4820 Hickory,,Granite Falls,NC,28630,United States,(828) 313-0015,35.777067,-81.393874,,,,
Murphy,8527,7120 NC Hwy 73,,Denver,NC,28037,United States,(704) 827-5616,35.449689,-81.004925,,,,
Murphy,8517,613 Radford Blvd.,,Dillon,SC,29536,United States,(843) 774-4988,34.436757,-79.370438,,,,
Murphy,7168,15669 State Route 67,,Kenton,OH,43326,United States,(419) 674-4217,40.65587,-83.58257,,,,
Murphy,7459,1042 Chesterfield Hwy.,,Cheraw,SC,29520,United States,(843) 921-9911,34.69917,-79.93326,,,,
Murphy,8715,4557 Main St.,,Shallotte,NC,28470,United States,(910) 754-3212,33.9803,-78.3738,,,,
Murphy,6971,260 Century Blvd.,,Bristol,TN,37620,United States,(423) 968-7395,36.54506683,-82.23664856,,,,
Murphy,7100,2010 Galleria Blvd.,,Charlotte,NC,28270,United States,(704) 849-6341,35.13988495,-80.73308563,,,,
Murphy,7610,14049 E. Independence Blvd,,Indian Trail,NC,28079,United States,(704) 628-9078,35.078066,-80.654296,,,,
Murphy,8763,675 Hawthorne Drive NE,,Norton,VA,24273,United States,(276) 679-1797,36.95827,-82.603693,,,,
Murphy,7616,2760 Ashley Rd,,Charlotte,NC,28202,United States,(704) 395-6056,35.22630691,-80.89351654,,,,
Murphy,6833,544 Harry Sauner Road,,Hillsboro,OH,45133,United States,(937) 840-9604,39.2251,-83.6242,,,,
Murphy,8703,471 N. Generals Blvd.,,Lincolnton,NC,28092,United States,(704) 735-6018,35.48843,-81.246308,,,,
Murphy,7347,1181 Trenton Ave.,,Findlay,OH,45840,United States,(419) 425-0054,41.057315,-83.672683,,,,
Murphy,7310,50 South Tuttle Road,,Springfield,OH,45505,United States,(937) 327-3911,39.9226265,-83.74532318,,,,
Murphy,6819,200 Gunntown Road,,Bellefontaine,OH,43311,United States,(937) 592-9082,40.32918167,-83.75956726,,,,
Murphy,6666,1118 S. Main,,Bowling Green,OH,43402,United States,(419) 353-7357,41.39297867,-83.65052032,,,,
Murphy,7315,100 Caldwell Farm Rd.,,Belmont,NC,28012,United States,(704) 829-7764,35.2536,-81.0338,,,,
Murphy,7113,998 Overmountain Drive,,Elizabethton,TN,37643,United States,(423) 543-2433,36.347808,-82.243955,,,,
Murphy,6875,2749 Progress Way,,Wilmington,OH,45177,United States,(937) 382-3447,39.453,-83.7839,,,,
Murphy,8561,2691 E. Hwy 76,,Mullins,SC,29574,United States,(843) 423-0815,34.187045,-79.341202,,,,
Murphy,8719,655 Fleming Dr.,,Morganton,NC,28655,United States,(828) 439-2403,35.7289,-81.7054,,,,
Murphy,7464,2503 Lincolnton Hwy.,,Cherryville,NC,28021,United States,(704) 435-9303,35.39949,-81.34028,,,,
Murphy,7058,237 N. Myrtle School Road,,Gastonia,NC,28052,United States,(704) 854-3338,35.2612,-81.2232,,,,
Murphy,8651,3100 Fort Henry Dr.,,Kingsport,TN,37664,United States,(423) 392-7371,36.510701,-82.516771,,,,
Murphy,5822,3109 Browns Mill Road,,Johnson City,TN,37604,United States,(423) 282-3206,36.35855103,-82.39704895,,,,
Murphy,8515,138 Hwy 274,,Clover,SC,29710,United States,(803) 831-7330,35.119724,-81.082326,,,,
Murphy,6696,2520 W. Stone Drive,,Kingsport,TN,37660,United States,(423) 246-1304,36.55654907,-82.60500336,,,,
Murphy,7425,3009 W. Market St.,,Johnson City,TN,37604,United States,(423) 926-0764,36.31136,-82.40461,,,,
Murphy,7397,50 Hospitality Dr.,,Xenia,OH,45385,United States,(937) 372-6853,39.68963242,-83.96658325,,,,
Murphy,6597,2474 Halltown Road,,Spruce Pine,NC,28777,United States,(828) 766-5500,35.8690936,-82.04673899,,,,
Murphy,6749,2371 N. Dave Lyle Blvd.,,Rock Hill,SC,29730,United States,(803) 325-8674,34.9416,-80.9621,,,,
Murphy,6927,239 Wal-Mart Way,,Maysville,KY,41056,United States,(606) 759-0160,38.62211609,-83.78603363,,,,
Murphy,7332,106 Rocky Bottom Dr.,,Unicoi,TN,37692,United States,(423) 735-1113,36.18729,-82.3757,,,,
Murphy,7061,1 Justice Drive,,Hazard,KY,41701,United States,(606) 435-0283,37.27797,-83.19231,,,,
Murphy,6816,2640 Harding Hwy.,,Lima,OH,45804,United States,(419) 225-5780,40.7309,-84.0553,,,,
Murphy,6623,1160 S. Fourth Street,,Hartsville,SC,29550,United States,(843) 383-0441,34.35779813,-80.0599599,,,,
Murphy,7092,579 E. Genesee Street,,Lapeer,MI,48446,United States,(810) 245-1285,43.051547,-83.298391,,,,
Murphy,8589,105 Secession Way,,Rock Hill,SC,29732,United States,(803) 366-1001,34.982484,-81.090654,,,,
Murphy,8573,2735 Church St.,,Conway,SC,29526,United States,(843) 365-4686,33.86115,-79.08984,,,,
Murphy,8737,111 N. Beltline Dr,,Florence,SC,29501,United States,(843) 669-9178,34.1899665,-79.8242895,,,,
Murphy,8717,577 International Dr,,Myrtle Beach,SC,29579,United States,(843) 903-3165,33.767345,-78.866179,,,,
Murphy,7146,2010 S. Irby St.,,Florence,SC,29505,United States,(843) 669-7379,34.15494919,-79.76623535,,,,
Murphy,8528,1260 Hwy 9 Bypass W.,,Lancaster,SC,29720,United States,(803) 283-0995,34.73433,-80.79792,,,,
Murphy,8585,150 Middle Ridge Ave.,,Conway,SC,29526,United States,(843) 234-1983,33.778401,-78.987075,,,,
Murphy,8698,295 Cooperative Way,,York,SC,29745,United States,(803) 628-1228,34.989178,-81.20969,,,,
Murphy,7169,1281 Bellefontaine Street,,Wapakoneta,OH,45895,United States,(419) 738-6011,40.5644,-84.1772,,,,
Murphy,6732,2390 W. Michigan Street,,Sidney,OH,45365,United States,(937) 492-7756,40.28886795,-84.19225311,,,,
Murphy,7268,1302 E. Ash St.,,Piqua,OH,45356,United States,(937) 773-4982,40.15128326,-84.20838165,,,,
Murphy,8682,2757 Sugar Hill Rd.,,Marion,NC,28752,United States,(828) 652-1515,35.643326,-82.039354,,,,
Murphy,7618,865 Oak Forest Lane,,Myrtle Beach,SC,29577,United States,(843) 205-3165,33.702959,-78.913668,,,,
Murphy,6935,1911 W. Dorothy Lane,,Dayton,OH,45439,United States,(937) 643-2735,39.71049881,-84.20393372,,,,
Murphy,6753,1875 Scott Street,,Napoleon,OH,43545,United States,(419) 592-9400,41.40489197,-84.13330841,,,,
Murphy,6649,1533 E. US 223,,Adrian,MI,49221,United States,(517) 266-2281,41.87443924,-84.03199768,,,,
Murphy,7149,491 East Airport Hwy.,,Wauseon,OH,43567,United States,(419) 337-9926,41.57408524,-84.13616943,,,,
Murphy,8632,8737 Hwy. 17 Bypass,,Surfside Beach,SC,29575,United States,(843) 650-4502,33.648842,-78.980591,,,,
Murphy,7228,2759 Beaver Run Blvd.,,Surfside Beach,SC,29575,United States,(843) 215-9348,33.647397,-78.982167,,,,
Murphy,7429,1265 East 2nd St.,,Franklin,OH,45005,United States,(937) 746-1338,39.56428146,-84.27906799,,,,
Murphy,5731,10826 Kings Road,,Myrtle Beach,SC,29572,United States,(843) 692-7327,33.63867,-78.98917,,,,
Murphy,7162,7735 Hoke Road,,Clayton,OH,45315,United States,(937) 836-4062,39.85801697,-84.33190155,,,,
Murphy,7292,1815 State Route 125 (A),,Amelia,OH,45102,United States,(513) 797-5100,39.01803207,-84.19854736,,,,
Murphy,6815,229 Plaza Drive,,Forest City,NC,28043,United States,(828) 286-2388,35.3329,-81.8964,,,,
Murphy,7207,3745 E. Andrew Johnson Hwy.,,Greeneville,TN,37745,United States,(423) 638-2872,36.187007,-82.761047,,,,
Murphy,8663,2700 South Hwy 17 Business,,Garden City,SC,29576,United States,(843) 357-0222,33.58909,-79.007993,,,,
Murphy,6688,1141 E. Caro Road,,Caro,MI,48723,United States,(989) 673-3250,43.50033569,-83.38259888,,,,
Murphy,6761,1517 W. Floyd Baker Blvd.,,Gaffney,SC,29341,United States,(864) 206-0635,35.0902,-81.6622,,,,
Murphy,8675,520 Indian Mound Rd.,,Mount Sterling,KY,40353,United States,(859) 498-7116,38.0674,-83.9549,,,,
Murphy,8681,295 W. Loop Rd.,,Lake City,SC,29560,United States,(843) 374-9381,33.890916,-79.755516,,,,
Murphy,6777,4329 Hwy. 66,,Rogersville,TN,37857,United States,(423) 272-6149,36.396647,-83.01766,,,,
Murphy,7167,1934 Havemann Road,,Celina,OH,45822,United States,(419) 586-5960,40.556307,-84.541361,,,,
Murphy,8629,3 Bay Lane,,Camden,SC,29020,United States,(803) 425-7344,34.248787,-80.641129,,,,
Murphy,7387,11481 Linden Road,,Clio,MI,48420,United States,(810) 687-0619,43.176087,-83.774733,,,,
Murphy,6754,3219 Princeton Road,,Hamilton,OH,45011,United States,(513) 893-3500,39.39071655,-84.50730133,,,,
Murphy,7248,201 Town Center Blvd.,,Van Wert,OH,45891,United States,(419) 238-4299,40.888161,-84.580118,,,,
Murphy,7243,19141 South Halsted St.,,Glenwood,IL,60425,United States,(708) 754-2917,41.54113,-87.63535,,,,
Murphy,7608,431 E Lincoln Hwy,,New Lenox,IL,60451,United States,(815) 463-9963,41.51238597,-87.95406728,,,,
Murphy,7340,3850 Fountain Square Place,,Waukegan,IL,60085,United States,(847) 578-0496,42.343207,-87.895846,,,,
Murphy,7442,2350 Route 34,,Oswego,IL,60543,United States,(630) 554-0956,41.70572,-88.305177,,,,
Murphy,7580,1481 Illinois Route 59,,Joliet (Shorewood),IL,60431,United States,(815) 254-3841,41.547351,-88.202865,,,,
Murphy,7527,1927 US Route 30,,Montgomery,IL,60538,United States,(630) 801-4950,41.722561,-88.371491,,,,
Murphy,7620,250 E Kieffer Rd,,Michigan City,IN,46360,United States,(219) 879-0374,41.66748337,-86.89397916,,,,
Murphy,7600,985 Central Park Dr.,,Crystal Lake,IL,60014,United States,(815) 356-7633,42.2109096,-88.2842015,,,,
Murphy,7581,2676 North Route 83,,Round Lake Beach,IL,60073,United States,(847) 245-3283,42.395624,-88.06519,,,,
Murphy,7532,2410 Morthland Drive,,Valparaiso,IN,46383,United States,(219) 465-7467,41.4539,-87.0272,,,,
Murphy,7526,2901 N. Richmond Road,,Johnsburg (McHenry),IL,60051,United States,(815) 578-9053,42.3642597,-88.2673659,,,,
Murphy,7115,467 East Rt 173,,Antioch,IL,60002,United States,(847) 838-2381,42.475938,-88.104914,,,,
Murphy,7579,1265 Lake Ave,,Woodstock,IL,60098,United States,(815) 337-2440,42.296429,-88.424487,,,,
Murphy,6639,6700 Lakeside Road,,Plano,IL,60545,United States,(630) 552-1909,41.65453,-88.56171,,,,
Murphy,7511,507 Riverstone parkway,,Kankakee,IL,60901,United States,(815) 936-6144,41.0812,-87.8631,,,,
Murphy,7109,2005 Gateway Center Drive,,Belvidere,IL,61008,United States,(815) 544-7009,42.23917,-88.819,,,,
Murphy,7300,3665 Portage Ave.,,South Bend,IN,46628,United States,(574) 243-5712,41.72782,-86.2894,,,,
Murphy,6542,2105 S. 11th Street,,Niles,MI,49120,United States,(269) 683-9108,41.790277,-86.249874,,,,
Murphy,7430,620 W. Ireland Rd,,South Bend,IN,46614,United States,(574) 231-4572,41.6288624,-86.2537073,,,,
Murphy,7525,390 Coronado Drive,,Rochelle,IL,61068,United States,(815) 561-1568,41.936182,-89.053481,,,,
Murphy,6560,2301 N. Oak Road,,Plymouth,IN,46563,United States,(574) 935-4693,41.36326599,-86.32963562,,,,
Murphy,6691,203 73rd Street,,South Haven,MI,49090,United States,(269) 639-8971,42.40383148,-86.249,,,,
Murphy,7166,3926 W. Riverside Blvd.,,Rockford,IL,61102,United States,(815) 962-6083,42.3154,-89.1145,,,,
Murphy,7512,30898 Old U.S 20,,Elkhart,IN,46514,United States,(574) 675-0169,41.688458,-86.059262,,,,
Murphy,7165,1620 S. Galena Avenue,,Dixon,IL,61021,United States,(815) 285-2730,41.827922,-89.474999,,,,
Murphy,6726,2500 Walton Blvd.,,Warsaw,IN,46582,United States,(574) 371-2177,41.27053452,-85.85371399,,,,
Murphy,7443,14801 US 31,,Grand Haven,MI,49417,United States,(616) 842-0678,43.03324,-86.22054,,,,
Murphy,7401,3618 Concord Road,,Lafayette,IN,47909,United States,(765) 474-3500,40.3651811,-86.8570684,,,,
Murphy,6809,1450 S. Centerville Road,,Sturgis,MI,49091,United States,(269) 651-9323,41.78466797,-85.42790222,,,,
Murphy,6511,4105 N. Vermillion,,Danville,IL,61834,United States,(217) 442-7882,40.2019,-87.62963,,,,
Murphy,6827,2223 W. Market Street,,Bloomington,IL,61701,United States,(309) 828-8923,40.487941,-89.040654,,,,
Murphy,7231,2602 North Prospect Ave.,,Champaign,IL,61822,United States,(217) 356-2751,40.1466,-88.2579,,,,
Murphy,7275,110 South High Cross Road,,Urbana,IL,61802,United States,(217) 344-5109,40.110787,-88.161943,,,,
Murphy,6831,2470 E. Wabash Street,,Frankfort,IN,46041,United States,(765) 654-8460,40.2788,-86.4801,,,,
Murphy,6994,2509 East North Street,,Kendallville,IN,46755,United States,(260) 343-2606,41.44556808,-85.22434998,,,,
Murphy,6724,511 S. Dunlap,,Savoy,IL,61874,United States,(217) 356-1901,40.0481,-88.2525,,,,
Murphy,7312,1831 S. US 231,,Crawfordsville,IN,47933,United States,(765) 361-1915,40.021362,-86.902459,,,,
Murphy,6849,2346 Virginia Avenue,,Clinton,IA,52732,United States,(563) 242-0477,41.816773,-90.242812,,,,
Murphy,7451,10135 Lima Rd.,,Ft. Wayne,IN,46818,United States,(260) 489-7963,41.17711639,-85.16653442,,,,
Murphy,6687,2018 N. Wayne Street,,Angola,IN,46703,United States,(260) 665-1548,41.66116714,-84.99928284,,,,
Murphy,6512,1716 Apple Glenn Blvd.,,Ft. Wayne,IN,46804,United States,(260) 459-3404,41.07033157,-85.20051575,,,,
Murphy,7007,7079 48th Street,,Fremont,MI,49412,United States,(231) 924-2498,43.46816635,-85.97675323,,,,
Murphy,7381,7504 Southtown Crossing,,Ft. Wayne,IN,46816,United States,(260) 441-2684,41.01566696,-85.11946869,,,,
Murphy,6931,10430 Maysville Road,,Ft. Wayne,IN,46835,United States,(260) 492-5676,41.12986755,-85.01016998,,,,
Murphy,6505,2140 N. Main Street,,Bluffton,IN,46714,United States,(260) 824-0943,40.7735672,-85.1662674,,,,
Murphy,7659,10780 W Carson City Rd,,Greenville,MI,48838,United States,(616) 225-1135,43.17980194,-85.28997802,,,,
Murphy,7127,10600 Bartell Blvd.,,Galena,IL,61036,United States,(815) 776-9209,42.43378,-90.44682,,,,
Murphy,6850,5805 Elmore Avenue,,Davenport,IA,52807,United States,(563) 359-4738,41.580613,-90.527297,,,,
Murphy,7601,1686 Packard Hwy,,Charlotte,MI,48813,United States,(517) 541-0502,42.582054,-84.804633,,,,
Murphy,6973,3315 W. Kimberly,,Davenport,IA,52801,United States,(563) 445-0329,41.5601,-90.6242,,,,
Murphy,6652,4888 W. US 10,,Ludington,MI,49431,United States,(231) 843-6040,43.95595169,-86.40045166,,,,
Murphy,6585,8922 N. Terre Haute Road,,Paris,IL,61944,United States,(217) 463-8103,39.60269928,-87.68222809,,,,
Murphy,7352,1600 South 13th Street,,Decatur,IN,46733,United States,(260) 724-7390,40.80988312,-84.93939972,,,,
Murphy,6876,9620 Kincaid Drive,,Fishers,IN,46038,United States,(317) 585-0409,39.9277,-86.0191,,,,
Murphy,7016,9424 E. US Hwy. 36,,Avon,IN,46123,United States,(317) 273-8171,39.7635,-86.354,,,,
Murphy,7256,2375 E. Main St.,,Plainfield,IN,46168,United States,(317) 839-9408,39.71346283,-86.36794281,,,,
Murphy,6873,10723 Pendleton Pike,,Indianapolis,IN,46236,United States,(317) 823-3513,39.86017,-85.97655,,,,
Murphy,7306,1421 East. 29th St.,,Muncie,IN,47302,United States,(765) 286-5073,40.15950012,-85.36921692,,,,
Murphy,6565,1510 Hawthorne Drive,,Charleston,IL,61920,United States,(217) 345-3269,39.486462,-88.155701,,,,
Murphy,7307,990 W. Votaw St.,,Portland,IN,47371,United States,(260) 726-8000,40.43986511,-84.99165344,,,,
Murphy,6554,105 Dettro Drive,,Mattoon,IL,61938,United States,(217) 235-0655,39.48252869,-88.33668518,,,,
Murphy,7178,4630 S. Emerson Avenue,,Indianapolis,IN,46203,United States,(317) 780-7045,39.700063,-86.083144,,,,
Murphy,6865,1953 N. State Street,,Greenfield,IN,46140,United States,(317) 462-6490,39.81191635,-85.76854706,,,,
Murphy,6734,2740 N. Dirksen Parkway,,Springfield,IL,62702,United States,(217) 525-7132,39.8398,-89.6045,,,,
Murphy,7354,1123 Superior Dr.,,St. Johns,MI,48879,United States,(989) 227-5630,42.98008347,-84.54139709,,,,
Murphy,7305,1235 N. Emerson Ave.,,Greenwood,IN,46143,United States,(317) 885-2473,39.633294,-86.08188,,,,
Murphy,6992,298 Grand Valley Road,,Martinsville,IN,46151,United States,(765) 349-4172,39.41741,-86.408284,,,,
Murphy,6848,2121 N. Morton Street,,Franklin,IN,46131,United States,(317) 346-7724,39.5005,-86.0676,,,,
Murphy,6962,2501 Progress Parkway,,Shelbyville,IN,46176,United States,(317) 398-9411,39.52441788,-85.74233246,,,,
Murphy,7246,1521 East M 21,,Owosso,MI,48867,United States,(989) 725-6967,42.9980011,-84.14027405,,,,
Murphy,6708,1206 Avenue of Mid America,,Effingham,IL,62401,United States,(217) 342-3780,39.141837,-88.563276,,,,
Murphy,7399,3311 W. State Rd. 45,,Bloomington,IN,47403,United States,(812) 333-4432,39.145801,-86.574635,,,,
Murphy,6976,208 W. Agency Road,,West Burlington,IA,52655,United States,(319) 754-7404,40.813689,-91.158618,,,,
Murphy,6586,2261 E. Hwy. 54,,Linton,IN,47441,United States,(812) 847-4416,39.03805,-87.13108,,,,
Murphy,7179,3954 Plett Road,,Cadillac,MI,49601,United States,(231) 876-2376,44.282196,-85.397108,,,,
Murphy,7287,5497 Business Hwy 151,,Marion,IA,52302,United States,(319) 377-4288,42.03473282,-91.55183411,,,,
Murphy,6719,3607 E. Main Street,,Richmond,IN,47374,United States,(765) 935-1968,39.82941818,-84.85289764,,,,
Murphy,7531,1951 W. Morton Avenue,,Jacksonville,IL,62650,United States,(217) 243-7920,39.723046,-90.2645388,,,,
Murphy,6844,975 Whitfield Drive,,Columbus,IN,47201,United States,(812) 375-9928,39.20853,-85.88,,,,
Murphy,6524,3030 Edgewood Road SW,,Cedar Rapids,IA,52404,United States,(319) 396-4418,41.94832054,-91.71614217,,,,
Murphy,7152,900 Joe Mann Blvd,,Midland,MI,48642,United States,(989) 832-1729,43.66,-84.237,,,,
Murphy,7003,907 E. Baker Street,,Mount Pleasant,IA,52641,United States,(319) 986-6353,40.978155,-91.539848,,,,
Murphy,5809,1201 W. Ferndon Street,,Litchfield,IL,62056,United States,(217) 324-3120,39.183215,-89.667451,,,,
Murphy,7021,101 North Mattes Avenue,,Vandalia,IL,62471,United States,(618) 283-1228,38.96638,-89.13243,,,,
Murphy,7077,3450 Main Street,,Keokuk,IA,52632,United States,(319) 524-2164,40.420304,-91.409817,,,,
Murphy,7621,1552 East Tipton,,Seymour,IN,47274,United States,(812) 524-1003,38.95597457,-85.86439514,,,,
Murphy,7000,2141 W. Houghton Lake Drive,,Houghton Lake,MI,48629,United States,(989) 366-8159,44.2981987,-84.68126678,,,,
Murphy,7006,5217 Broadway Street,,Quincy,IL,62305,United States,(217) 222-4148,39.936393,-91.331675,,,,
Murphy,6882,1880 W. Main,,Salem,IL,62881,United States,(618) 548-2243,38.6241,-88.98217,,,,
Murphy,7025,2762 Cook Road,,West Branch,MI,48661,United States,(989) 343-0224,44.25356674,-84.22644806,,,,
Murphy,6566,1620 West McClain Avenue,,Scottsburg,IN,47170,United States,(812) 752-0961,38.6850235,-85.79613718,,,,
Murphy,6601,553 Ivy Tech Drive,,Madison,IN,47250,United States,(812) 273-9545,38.78258514,-85.37889862,,,,
Murphy,7177,1000 Commerce Street,,Fairfield,IL,62837,United States,(618) 842-5970,38.377949,-88.388321,,,,
Murphy,6775,3660 Stardust,,Hannibal,MO,63401,United States,(573) 221-2762,39.724983,-91.398009,,,,
Murphy,6970,518 Brandilynn Blvd.,,Cedar Falls,IA,50613,United States,(319) 266-0473,42.484578,-92.440296,,,,
Murphy,8711,8228 US Hwy 42,,Florence,KY,41042,United States,(859) 282-1966,38.981831,-84.650134,,,,
Murphy,6945,1939 Venture Drive,,Ottumwa,IA,52501,United States,(641) 682-1159,41.01525497,-92.4563446,,,,
Murphy,7602,859 Edelweiss Parkway,,Gaylord,MI,49735,United States,(989) 705-8628,44.94163894,-84.67404174,,,,
Murphy,6640,210 Floyd Drive,,Carrolton,KY,41008,United States,(502) 732-0417,38.65764999,-85.12921906,,,,
Murphy,7005,2201 A Avenue West,,Oskaloosa,IA,52577,United States,(641) 673-5085,41.296925,-92.668561,,,,
Murphy,6828,1348 IL Hwy. 1,,Carmi,IL,62821,United States,(618) 382-3393,38.07481003,-88.19081116,,,,
Murphy,7180,611 E. Lake Street,,Tawas City,MI,48763,United States,(989) 362-1829,44.27626801,-83.50453186,,,,
Murphy,5803,105 E. Hwy. 47,,Troy,MO,63379,United States,(636) 528-9971,38.987341,-90.980658,,,,
Murphy,7606,1021 New Moody Lane,,La Grange,KY,40031,United States,(502) 222-4175,38.39633,-85.373219,,,,
Murphy,7114,5210 Pearl Drive,,Evansville,IN,47712,United States,(812) 422-9519,37.9754,-87.6394,,,,
Murphy,7289,723 Robert Raymond Dr.,,Lake St. Louis,MO,63367,United States,(636) 625-1238,38.773397,-90.784139,,,,
Murphy,7533,7000 Raggard Road,,Louisville,KY,40216,United States,(502) 449-5880,38.173807,-85.870816,,,,
Murphy,7024,1940 South Stephenson Avenue,,Iron Mountain,MI,49801,United States,(906) 774-4690,45.8094,-88.0402,,,,
Murphy,7631,10 Ferguson Blvd,,Dry Ridge,KY,41035,United States,(859) 823-0038,38.6812,-84.6008,,,,
Murphy,7157,2018 Bashford Manor Lane,,Louisville,KY,40218,United States,(502) 454-9770,38.1999,-85.6703,,,,
Murphy,6957,917 Giacone Drive,,West City,IL,62812,United States,(618) 439-7308,37.999223,-88.937627,,,,
Murphy,7576,185 Outer Loop,,Louisville,KY,40214,United States,(502) 364-9150,38.126549,-85.778138,,,,
Murphy,6963,3818 Ruckriegel Parkway,,Louisville,KY,40299,United States,(502) 240-0040,38.1885,-85.5656,,,,
Murphy,6513,200 Iowa Speedway Dr.,,Newton,IA,50208,United States,(641) 792-8980,41.697586,-93.013976,,,,
Murphy,7569,1135 Barret Blvd,,Henderson,KY,42420,United States,(270) 830-9742,37.8589,-87.5671,,,,
Murphy,6793,7100 Cedar Springs Blvd.,,Louisville,KY,40291,United States,(502) 231-7792,38.1435318,-85.58506775,,,,
Murphy,5744,2204 N. Baltimore Street,,Kirksville,MO,63501,United States,(660) 665-4209,40.21587,-92.5828,,,,
Murphy,5750,520 Taylorsville Road,,Shelbyville,KY,40065,United States,(502) 647-3327,38.208474,-85.264069,,,,
Murphy,6518,906 W. Bell Avenue,,Knoxville,IA,50138,United States,(641) 828-6617,41.30559921,-93.10787964,,,,
Murphy,7213,3159 Hwy. 54,,Owensboro,KY,42303,United States,(270) 683-1932,37.755015,-87.0614,,,,
Murphy,7585,611 Rollie Moore Drive,,Harrisburg,IL,62946,United States,(618) 252-4688,37.728528,-88.535584,,,,
Murphy,7416,1645 Aroy Drive,,Washington,MO,63090,United States,(636) 390-9386,38.539455,-90.991473,,,,
Murphy,5775,630 S. Truman Blvd.,,Festus,MO,63028,United States,(636) 937-2920,38.21352529,-90.38996532,,,,
Murphy,6943,1145 Wal-Mart Way,,Radcliff,KY,40160,United States,(270) 352-5308,37.84885,-85.94383,,,,
Murphy,7181,4800 S. Clark Street,,Mexico,MO,65265,United States,(573) 581-3995,39.120823,-91.893132,,,,
Murphy,6795,4059 4th Street SW,,Mason City,IA,50401,United States,(641) 424-5748,43.1474,-93.2606,,,,
Murphy,6738,116 Osbourne Way,,Georgetown,KY,40324,United States,(502) 863-7321,38.2318,-84.5378,,,,
Murphy,7341,1016 Hwy 127,,Lawrenceburg,KY,40342,United States,(502) 839-7042,38.0357666,-84.91113281,,,,
Murphy,5748,1303 Hwy. 24 E.,,Moberly,MO,65270,United States,(660) 269-9857,39.446097,-92.42023,,,,
Murphy,6700,1260 M 32 W.,,Alpena,MI,49707,United States,(989) 358-9818,45.06236649,-83.47668457,,,,
Murphy,6550,3405 8th St. SW,,Altoona,IA,50009,United States,(515) 957-8441,41.64419612,-93.50277623,,,,
Murphy,7111,3765 E. John Rowan,,Bardstown,KY,40004,United States,(502) 349-2017,37.800604,-85.434249,,,,
Murphy,7594,1006 SE National Drive,,Ankeny,IA,50023,United States,(515) 964-8416,41.7052,-93.5852,,,,
Murphy,5806,1502 N. Jefferson Street,,Indianola,IA,50125,United States,(515) 961-3630,41.37373352,-93.55740356,,,,
Murphy,7414,404 Letton Dr.,,Paris,KY,40361,United States,(859) 987-0728,38.19846725,-84.27577972,,,,
Murphy,6558,1691 N. Main Street,,Beaver Dam,KY,42320,United States,(270) 274-2261,37.428044,-86.880648,,,,
Murphy,6922,1873 Elizabethtown Road,,Leitchfield,KY,42754,United States,(270) 259-0560,37.4871,-86.2655,,,,
Murphy,7392,2353 Grey Lag Way,,Lexington,KY,40509,United States,(859) 543-0868,38.03694916,-84.42398071,,,,
Murphy,6870,403 North State Street,,Desloge,MO,63601,United States,(573) 518-0457,37.881658,-90.5121,,,,
Murphy,7617,1723 W. Everly Brothers Blvd,,Central City,KY,42330,United States,(270) 754-1909,37.272814,-87.143939,,,,
Murphy,6598,107 Village Parkway,,Nicholasville,KY,40356,United States,(859) 881-5178,37.89846802,-84.56394958,,,,
Murphy,6894,2 Memorial Drive,,Potosi,MO,63664,United States,(573) 436-1175,37.924747,-90.773994,,,,
Murphy,7454,2090 Campbellsville Rd.,,Lebanon,KY,40033,United States,(270) 699-2703,37.554937,-85.285305,,,,
Murphy,8605,120 Codella Dr.,,Winchester,KY,40391,United States,(859) 737-1323,37.990063,-84.210083,,,,
Murphy,5805,3039 E. Jackson Blvd.,,Jackson,MO,63755,United States,(573) 204-7295,37.36398295,-89.6328935,,,,
Murphy,7230,1021 Walton Dr.,,Fredericktown,MO,63645,United States,(573) 783-1975,37.559408,-90.321483,,,,
Murphy,7578,110 Walton Ave,,Danville,KY,40422,United States,(859) 239-9059,37.614137,-84.773081,,,,
Murphy,5697,625 Campbellsville Bypass,,Campbellsville,KY,42718,United States,(270) 465-0768,37.34518,-85.3711,,,,
Murphy,7471,2148 Main St.,,Boonville,MO,65233,United States,(660) 882-3054,38.951176,-92.741641,,,,
Murphy,5701,5132 Hinkleville Road,,Paducah,KY,42001,United States,(270) 442-6227,37.074238,-88.687952,,,,
Murphy,6538,3010 1st Avenue S.,,Fort Dodge,IA,50501,United States,(515) 955-1866,42.50553894,-94.1554184,,,,
Murphy,5679,818 Eastern By Pass,,Richmond,KY,40475,United States,(859) 626-1375,37.73041534,-84.28375244,,,,
Murphy,8580,3330 Irvin Cobb Drive,,Paducah,KY,42003,United States,(270) 444-8379,37.050791,-88.566595,,,,
Murphy,7202,1307 US Hwy 27 N.,,Stanford,KY,40484,United States,(606) 365-8128,37.54773331,-84.64703369,,,,
Murphy,7206,"2345 Happy Valley Road, Suite A",,Glasgow,KY,42141,United States,(270) 678-8871,37.022809,-85.936375,,,,
Murphy,6516,308 W. 5th Street,,Benton,KY,42025,United States,(270) 527-4348,36.867614,-88.359694,,,,
Murphy,5626,240 Clinic Drive,,Hopkinsville,KY,42240,United States,(270) 885-6380,36.829018,-87.471623,,,,
Murphy,7270,110 Sam Walton Dr.,,Russellville,KY,42276,United States,(270) 726-9926,36.845343,-86.917476,,,,
Murphy,7183,846 Cherokee Drive,,Marshall,MO,65340,United States,(660) 831-5353,39.1141,-93.2134,,,,
Murphy,8550,1202 Paris Rd.,,Mayfield,KY,42066,United States,(270) 247-6201,36.72318,-88.62706,,,,
Murphy,7577,8050 Lakeland Avenue North,,Brooklyn Park,MN,55445,United States,(763) 493-0952,45.1017152,-93.3891995,,,,
Murphy,7244,997 Razorback Dr.,,Houghton,MI,49931,United States,(906) 482-6094,47.1125,-88.5865,,,,
Murphy,5737,807 N. 12th Street,,Murray,KY,42071,United States,(270) 762-0126,36.62585124,-88.31459869,,,,
Murphy,8699,1495 Nashville Rd.,,Franklin,KY,42134,United States,(270) 598-6000,36.662625,-86.554795,,,,
Murphy,8702,6595 US Hwy 98 W,,Santa Rosa Beach,FL,32459,United States,(850) 622-1233,36.662625,-86.554795,,,,
Murphy,5596,3058 Wilma Rudolph Blvd.,,Clarksville,TN,37040,United States,(931) 906-1723,36.59255406,-87.28997469,,,,
Murphy,5367,1680 B. Ft. Campbell Blvd,,Clarksville,TN,37042,United States,(931) 906-0918,36.5798,-87.41032,,,,
Murphy,8545,4294 Osage Beach Parkway,,Osage Beach,MO,65065,United States,(573) 348-2120,38.14960098,-92.61740875,,,,
Murphy,7605,195 St Robert Boulevard,,Saint Robert,MO,65584,United States,(573) 336-8779,37.824837,-92.155748,,,,
Murphy,5783,3203 W. Broadway,,Sedalia,MO,65301,United States,(660) 829-4440,38.70925359,-93.26738059,,,,
Murphy,5812,80 Washington Drive,,Somerset,KY,42501,United States,(606) 676-9688,37.06756592,-84.62153625,,,,
Murphy,6776,2309 Madison Street,,Clarksville,TN,37043,United States,(931) 905-0237,36.5083,-87.2717,,,,
Murphy,7193,2027 Hwy. Business 60 West,,Dexter,MO,63841,United States,(573) 624-5096,36.803139,-89.991964,,,,
Murphy,6798,3414 Tom Austin Hwy.,,Springfield,TN,37172,United States,(615) 382-8934,36.485124,-86.886717,,,,
Murphy,7106,1403 Middle Road,,Fulton,KY,42041,United States,(270) 472-9785,36.515939,-88.899671,,,,
Murphy,7518,215 Wilkinson Lane,,White House,TN,37188,United States,(615) 672-0329,36.472003,-86.675928,,,,
Murphy,6811,2046 2nd Avenue SE,,Cambridge,MN,55008,United States,(763) 691-1714,45.572269,-93.197931,,,,
Murphy,6730,16 Cumberland Crossing,,Monticello,KY,42633,United States,(606) 348-5821,36.85661697,-84.84608459,,,,
Murphy,7182,90 Cecil Street,,Camdenton,MO,65020,United States,(573) 317-9340,38.02368,-92.723578,,,,
Murphy,7603,1823 W. Hwy 192,,London,KY,40741,United States,(606) 862-2175,37.097518,-84.119603,,,,
Murphy,7301,419 Hwy 52 Bypass W. Bldg. (A),,Lafayette,TN,37083,United States,(615) 666-3555,36.52128,-86.03611,,,,
Murphy,7599,940 Evergreen Square SW,,Pine City,MN,55063,United States,(320) 629-1034,45.819134,-92.978957,,,,
Murphy,7164,1903 E. 7th Street,,Atlantic,IA,50022,United States,(712) 243-7937,41.4039,-94.9856,,,,
Murphy,8654,303 South Westwood,,Poplar Bluff,MO,63901,United States,(573) 785-1001,36.755679,-90.408153,,,,
Murphy,7591,1429 West Reelfoot Ave,,Union City,TN,38261,United States,(731) 884-8020,36.414853,-89.074541,,,,
Murphy,5791,301 A. East Cooper Avenue,,Warrensburg,MO,64093,United States,(660) 747-3603,38.7797,-93.73663,,,,
Murphy,7078,1219 Hwy. 25 N.,,Buffalo,MN,55313,United States,(763) 684-4010,45.1861,-93.8761,,,,
Murphy,5777,48 S. Stewart Road,,Corbin,KY,40701,United States,(606) 526-0072,36.974142,-84.103021,,,,
Murphy,7366,116 Courtright Road,,Martin,TN,38237,United States,(731) 587-5201,36.35346,-88.88232,,,,
Murphy,8511,1110 Mineral Wells Ave.,,Paris,TN,38242,United States,(731) 641-6941,36.2854,-88.30839,,,,
Murphy,7279,415 North Parrish Place,,Hendersonville,TN,37075,United States,(615) 264-0254,36.304774,-86.619996,,,,
Murphy,7150,2211 Patsy Lane,,Excelsior Springs,MO,64024,United States,(816) 637-6930,39.33396,-94.26355,,,,
Murphy,7062,1620 Hwy. 12 South,,Ashland City,TN,37015,United States,(615) 792-4006,36.2507,-87.0336,,,,
Murphy,6864,1431 S. Sam Houston Blvd.,,Houston,MO,65483,United States,(417) 967-1607,37.313,-91.9602,,,,
Murphy,6923,1829 Lake Avenue,,Storm Lake,IA,50588,United States,(712) 732-2717,42.663455,-95.200135,,,,
Murphy,6539,1603 South Main Street,,Maryville,MO,64468,United States,(660) 562-2489,40.32990722,-94.87392987,,,,
Murphy,8618,3434 Doverside,,Nashville,TN,37207,United States,(615) 860-5095,36.24127,-86.767889,,,,
Murphy,6991,102 West Polk,,Warsaw,MO,65355,United States,(660) 438-6514,38.26327,-93.37065,,,,
Murphy,6986,4720 Andrew Jackson Parkway,,Hermitage,TN,37076,United States,(615) 902-0089,36.2171,-86.5976,,,,
Murphy,6703,1290 Hwy. 15 S.,,Hutchinson,MN,55350,United States,(320) 234-3507,44.8729,-94.3756,,,,
Murphy,8653,355 Pleasant Grove #1100,,Mount Juliet,TN,37122,United States,(615) 758-3238,36.177894,-86.513278,,,,
Murphy,8708,603  S. Cumberland,,Lebanon,TN,37087,United States,(615) 444-3423,36.1942,-86.2932,,,,
Murphy,7449,111 Myer St.,,Carthage,TN,37030,United States,(615) 735-3143,36.24425,-85.940548,,,,
Murphy,7192,610 N.E. Coronado Drive,,Blue Springs,MO,64014,United States,(816) 229-8185,39.026404,-94.255647,,,,
Murphy,6928,145 Walton Drive,,Waverly,TN,37185,United States,(931) 296-1176,36.082299,-87.832898,,,,
Murphy,7331,2102 641 North,,Camden,TN,38320,United States,(731) 584-1853,36.086538,-88.109463,,,,
Murphy,6868,179 Beasley Drive,,Dickson,TN,37055,United States,(615) 740-8397,36.061516,-87.381396,,,,
Murphy,8753,1225 US Highway 51,,Ponchatoula,LA,70454,United States,(985) 386-1499,36.487862,-90.4827,,,,
Murphy,7559,8281 N. Church Rd.,,Kansas City,MO,64158,United States,(816) 415-3000,39.23111,-94.465721,,,,
Murphy,6654,3018 S. Belt Hwy.,,St. Joseph,MO,64503,United States,(816) 676-0540,39.737605,-94.801723,,,,
Murphy,7316,523 E. Central Ave.,,Jamestown,TN,38556,United States,(931) 752-5190,36.42683,-84.923803,,,,
Murphy,6975,3049 Hamilton Church Road,,Antioch,TN,37013,United States,(615) 361-6388,36.0624,-86.6309,,,,
Murphy,8539,19743 Alberta St.,,Oneida,TN,37841,United States,(423) 286-3700,36.51534,-84.50634,,,,
Murphy,6769,176 Veteran Drive N.,,Huntingdon,TN,38344,United States,(731) 986-9620,35.996378,-88.437104,,,,
Murphy,6604,2106 N. Main Avenue,,Mountain Grove,MO,65711,United States,(417) 926-1585,37.150293,-92.262208,,,,
Murphy,6961,1310 Hwy. 33 South,,Cloquet,MN,55720,United States,(218) 879-7513,46.70365,-92.45585,,,,
Murphy,7027,581 West Main Street,,Cookeville,TN,38506,United States,(931) 537-3625,36.1844,-85.4576,,,,
Murphy,5745,1502 First Street,,Kennett,MO,63857,United States,(573) 717-7040,36.237049,-90.037228,,,,
Murphy,7008,780 South Jefferson,,Cookeville,TN,38501,United States,(931) 520-7058,36.143855,-85.499846,,,,
Murphy,5675,584 Enon Springs Road E.,,Smyrna,TN,37167,United States,(615) 223-1836,35.972604,-86.494349,,,,
Murphy,5704,2640 Lake Road,,Dyersburg,TN,38024,United States,(731) 287-3913,36.063405,-89.395157,,,,
Murphy,5782,1720 N. 291 Hwy.,,Harrisonville,MO,64701,United States,(816) 380-6957,38.6672,-94.36716,,,,
Murphy,7296,15425 S. First St.,,Milan,TN,38358,United States,(731) 723-0018,35.87598,-88.74469,,,,
Murphy,5699,1277 US Hwy. 25 E.,,Middlesboro,KY,40965,United States,(606) 242-3693,36.62245,-83.70564,,,,
Murphy,8683,1695 Memorial Blvd.,,Murfreesboro,TN,37129,United States,(615) 896-0040,35.852434,-86.397318,,,,
Murphy,5509,2018 Old Fort Parkway,,Murfreesboro,TN,37130,United States,(615) 907-8616,35.847966,-86.427346,,,,
Murphy,7344,14724 State Hwy 38,,Marshfield,MO,65706,United States,(417) 859-4854,37.339746,-92.939221,,,,
Murphy,5784,1309 Southern Hills Center,,West Plains,MO,65775,United States,(417) 257-2999,36.7145,-91.87373,,,,
Murphy,7295,2658 Central Ave,,Humboldt,TN,38343,United States,(731) 784-2229,35.83913,-88.91438,,,,
Murphy,7486,1050 Eisenhower Road,,Leavenworth,KS,66048,United States,(913) 727-1315,39.26673,-94.928948,,,,
Murphy,6889,2435 Billy Blvd.,,Murfreesboro,TN,37127,United States,(615) 849-8657,35.832,-86.34866,,,,
Murphy,8700,3028 Bellshire Village Dr.,,Spring Hill,TN,37174,United States,(615) 302-0270,35.7708,-86.9181,,,,
Murphy,8516,2135 Jacksboro Pike,,LaFollette,TN,37766,United States,(423) 562-9545,36.348733,-84.158195,,,,
Murphy,6959,149 Sam Walton Drive,,Sparta,TN,38583,United States,(931) 739-2600,35.930137,-85.487186,,,,
Murphy,6590,1413 Hwy 67 South,,Pocahontas,AR,72455,United States,(870) 248-0415,36.250647,-90.963257,,,,
Murphy,8514,3714 East Main St.,,Blytheville,AR,72315,United States,(870) 762-5124,35.928756,-89.873195,,,,
Murphy,5594,482 Obed Plaza,,Crossville,TN,38555,United States,(931) 707-1738,35.982925,-85.038049,,,,
Murphy,8533,2516 West Kings Hwy.,,Paragould,AR,72450,United States,(870) 236-2457,36.05957,-90.519836,,,,
Murphy,6829,559 W. Church Street,,Lexington,TN,38351,United States,(731) 967-5896,35.6571,-88.4103,,,,
Murphy,7033,1315 NW 12th Ave.,,Ava,MO,65608,United States,(417) 683-6808,36.9627,-92.6772,,,,
Murphy,5685,630 Hwy. 51 N.,,Ripley,TN,38063,United States,(731) 221-8110,35.76147372,-89.54614326,,,,
Murphy,8774,9810 Redick Ave,,Omaha (Blair High),NE,68122,United States,(402) 763-9578,41.3178,-96.0653,,,,
Murphy,7035,2159 S. Highland Avenue,,Jackson,TN,38301,United States,(731) 424-7979,35.5508,-88.8075,,,,
Murphy,7318,1139 South Dupree St.,,Brownsville,TN,38012,United States,(731) 772-2279,35.58648,-89.24162,,,,
Murphy,6800,105 US Hwy. 62,,Ash Flat,AR,72513,United States,(870) 994-2110,36.23932,-91.59599,,,,
Murphy,6646,1100 N. Gateway Avenue,,Rockwood,TN,37854,United States,(865) 354-6465,35.881103,-84.660688,,,,
Murphy,6915,1890 North Main Street,,Shelbyville,TN,37160,United States,(931) 680-9577,35.514,-86.4556,,,,
Murphy,6681,3516 W. Sunshine,,Springfield,MO,65807,United States,(417) 882-6068,37.18287024,-93.34997124,,,,
Murphy,7194,1370 Rock Crusher Road,,Lewisburg,TN,37091,United States,(931) 359-6856,35.469622,-86.790672,,,,
Murphy,8616,7555 Fork Station Way,,Knoxville,TN,37938,United States,(865) 922-5556,36.08628464,-83.93753052,,,,
Murphy,8523,1601 Stadium Blvd.,,Jonesboro,AR,72401,United States,(870) 268-6526,35.82822,-90.6697,,,,
Murphy,6843,3420 Singing Hills Blvd.,,Sioux City,IA,51106,United States,(712) 258-2112,42.4363,-96.3634,,,,
Murphy,7661,6783 Clinton Highway,,Knoxville,TN,37912,United States,(865) 947-4117,36.0070018,-84.027102,,,,
Murphy,6921,3115 Floyd Blvd.,,Sioux City,IA,51108,United States,(712) 239-3001,42.5313,-96.3723,,,,
Murphy,5807,1807 E. Highland Drive,,Jonesboro,AR,72401,United States,(870) 802-1668,35.82123446,-90.6852344,,,,
Murphy,6561,1106 N. Massey Blvd.,,Nixa,MO,65714,United States,(417) 724-9120,37.060676,-93.302366,,,,
Murphy,7060,1721 S. 19th Street,,Ozark,MO,65721,United States,(417) 582-2498,37.004085,-93.225498,,,,
Murphy,7135,1905 W. Parker Road,,Jonesboro,AR,72403,United States,(870) 932-2940,35.834786,-90.753119,,,,
Murphy,8660,7740 Crestwood Dr.,,Birmingham,AL,35210,United States,(205) 956-9773,35.390124,-86.718109,,,,
Murphy,7396,1631 Hwy 51 South,,Covington,TN,38019,United States,(901) 476-3692,35.544248,-89.66451,,,,
Murphy,6978,3019 Kinzel Way,,Knoxville,TN,37924,United States,(865) 525-7243,36.031309,-83.868937,,,,
Murphy,6910,405 S. Barrett,,Nevada,MO,64772,United States,(417) 448-5998,37.83399,-94.327448,,,,
Murphy,6821,1140 US Hwy. 60 E.,,Republic,MO,65738,United States,(417) 732-9390,37.1281,-93.4613,,,,
Murphy,6671,2538 Hillsboro Hwy.,,Manchester,TN,37355,United States,(931) 723-8790,35.454922,-86.045824,,,,
Murphy,8664,2040 N. Jackson St.,,Tullahoma,TN,37388,United States,(931) 454-1061,35.390402,-86.23801,,,,
Murphy,7276,1110 N. Chucky Pike,,Jefferson City,TN,37760,United States,(865) 475-1270,36.12823,-83.47025,,,,
Murphy,7280,905 Hwy 321 N.,,Lenoir City,TN,37771,United States,(865) 986-6634,35.821552,-84.26684,,,,
Murphy,7088,510 Industrial Drive,,Trumann,AR,72472,United States,(870) 483-2237,35.681026,-90.551414,,,,
Murphy,6710,489 S. Davy Crockett Parkway,,Morristown,TN,37813,United States,(423) 581-7515,36.2116,-83.2616,,,,
Murphy,7487,3008 E 23rd Ave N,,Fremont,NE,68025,United States,(402) 721-1048,41.451677,-96.457526,,,,
Murphy,7583,2148 N Locust Ave,,Lawrenceburg,TN,38464,United States,(931) 766-0057,35.27,-87.318,,,,
Murphy,6772,50 Wal-Mart Drive,,Mountain Home,AR,72653,United States,(870) 492-5550,36.357018,-92.340787,,,,
Murphy,7004,120 Green Road,,Knoxville,TN,37920,United States,(865) 579-2626,35.91053,-83.8463,,,,
Murphy,6840,1760 Wayne Road,,Savannah,TN,38372,United States,(731) 925-7196,35.225901,-88.21588,,,,
Murphy,6834,1602 W. Market Street,,Bolivar,TN,38008,United States,(731) 659-3900,35.278634,-89.023973,,,,
Murphy,5714,1663 W. College Street,,Pulaski,TN,38478,United States,(931) 424-6133,35.20351791,-87.06020355,,,,
Murphy,6641,12070 Hwy. 169,,Hibbing,MN,55746,United States,(218) 263-1376,47.39701175,-92.98834004,,,,
Murphy,7424,16755 Rankin Ave,,Dunlap,TN,37327,United States,(423) 949-5715,35.384838,-85.380767,,,,
Murphy,6888,130 Sam Walton Drive,,Dayton,TN,37321,United States,(423) 775-3670,35.458881,-85.046459,,,,
Murphy,7076,25 Southwest 1st Lane,,Lamar,MO,64759,United States,(417) 681-0755,37.4953,-94.301,,,,
Murphy,5680,8441 Hwy. 51 N.,,Millington,TN,38053,United States,(901) 873-2848,35.35697284,-89.89468782,,,,
Murphy,8521,2601 Decherd Blvd.,,Winchester,TN,37398,United States,(931) 962-0150,35.2181,-86.10011,,,,
Murphy,7450,2415 Market Place Dr.,,Maryville,TN,37801,United States,(865) 380-4301,35.71819,-84.01312,,,,
Murphy,5724,1015 Mulberry Avenue,,Selmer,TN,38375,United States,(731) 645-9468,35.13994358,-88.57169384,,,,
Murphy,8562,310 Winfield-Dunn Pkwy.,,Sevierville,TN,37862,United States,(865) 428-2856,35.87379,-83.56863,,,,
Murphy,5510,104 Commercial Drive,,Fayetteville,TN,37334,United States,(931) 433-4797,35.14156575,-86.56878184,,,,
Murphy,7184,49 Wal-Mart Drive,,Flippin,AR,72634,United States,(870) 453-6010,36.2753,-92.601,,,,
Murphy,8599,1531 SW Wanamaker Road,,Topeka,KS,66604,United States,(785) 271-4993,39.038533,-95.762357,,,,
Murphy,8756,6715 US Highway 64,,Oakland,TN,38060,United States,(901) 465-0299,35.229521,-89.523518,,,,
Murphy,7446,3018 S. Elliot,,Aurora,MO,65605,United States,(417) 678-2015,36.946111,-93.718007,,,,
Murphy,5796,18419 State Hwy. 13,,Branson West,MO,65737,United States,(417) 272-0727,36.70070669,-93.3696012,,,,
Murphy,7232,1813 Decatur Pike,,Athens,TN,37303,United States,(423) 507-1544,35.4545,-84.6282,,,,
Murphy,7635,3162 Harrison,,Batesville,AR,72501,United States,(870) 793-6262,35.7648,-91.614,,,,
Murphy,6667,4527 Hwy. 411,,Madisonville,TN,37354,United States,(423) 442-7066,35.511608,-84.361096,,,,
Murphy,6574,1077 Cosby Hwy.,,Newport,TN,37821,United States,(423) 613-5614,35.94227566,-83.20922353,,,,
Murphy,8730,1417 Hwy. 367 North,,Newport,AR,72112,United States,(870) 523-2979,35.618512,-91.253858,,,,
Murphy,6847,6506 Memphis Arlington Road,,Bartlett,TN,38135,United States,(901) 373-6092,35.2269,-89.8465,,,,
Murphy,7208,"9334 Dayton Pike, Bldg. B",,Soddy Daisy,TN,37379,United States,(423) 451-9818,35.235492,-85.200982,,,,
Murphy,8713,5856 Summer Avenue,,Memphis,TN,38134,United States,(901) 381-1124,35.1726,-89.8684,,,,
Murphy,6805,879 E. US Hwy. 60,,Monett,MO,65708,United States,(417) 235-1900,36.913464,-93.904084,,,,
Murphy,7253,407 Sylamore Ave.,,Mountain View,AR,72560,United States,(870) 269-7430,35.867729,-92.103983,,,,
Murphy,7264,545 N. Germantown Pkwy.,,Cordova,TN,38018,United States,(901) 754-6978,35.14045,-89.79556,,,,
Murphy,6727,5716 Hwy. 153,,Hixson,TN,37343,United States,(423) 877-0310,35.1525,-85.2489,,,,
Murphy,5751,2635 Grand Avenue,,Carthage,MO,64836,United States,(417) 359-9953,37.14330295,-94.31050074,,,,
Murphy,5666,2201 S. Harper Road,,Corinth,MS,38834,United States,(662) 665-9325,34.912218,-88.501997,,,,
Murphy,8678,646 Service Road,,West Memphis,AR,72301,United States,(870) 733-0875,35.16774,-90.198126,,,,
Murphy,7582,463 Signal Mountain Rd,,Chattanooga,TN,37405,United States,(423) 634-6363,35.088833,-85.329872,,,,
Murphy,5682,4475 Keith Street NW,,Cleveland,TN,37312,United States,(423) 476-7094,35.19932525,-84.84739659,,,,
Murphy,6908,2858 Hickory Hill Road,,Memphis,TN,38115,United States,(901) 368-0024,35.0708,-89.8646,,,,
Murphy,8674,7705 Winchester Rd.,,Memphis,TN,38125,United States,(901) 753-0704,35.049437,-89.806043,,,,
Murphy,5739,179 N. Wal-Mart Dr.,,Harrison,AR,72601,United States,(870) 743-6570,36.267157,-93.138246,,,,
Murphy,6926,802 Hwy. 64 E.,,Wynne,AR,72396,United States,(870) 238-6306,35.251977,-90.777483,,,,
Murphy,7587,3538 Cummings Highway,,Chattanooga,TN,37419,United States,(423) 875-7055,35.017,-85.375,,,,
Murphy,7423,5590 Little Debbie Pkwy,,Ooltewah,TN,37363,United States,(423) 238-1116,35.08336,-85.06397,,,,
Murphy,7026,2455 Treasury Lane SE,,Cleveland,TN,37323,United States,(423) 728-0072,35.127185,-84.867214,,,,
Murphy,5792,1224 S. Madison Avenue,,Webb City,MO,64870,United States,(417) 673-1253,37.13346065,-94.47520392,,,,
Murphy,7320,1201 Old Exeter Road,,Cassville,MO,65625,United States,(417) 847-1153,36.67694,-93.88301,,,,
Murphy,8551,6398 Lee Hwy.,,Chattanooga,TN,37421,United States,(423) 893-8882,35.03469,-85.1813,,,,
Murphy,5625,800 US Highway 31 South,,Athens,AL,35611,United States,(256) 216-9073,34.787307,-86.957126,,,,
Murphy,7074,310 Greenway View Drive,,Chattanooga,TN,37411,United States,(423) 899-4001,35.010482,-85.207424,,,,
Murphy,5368,571-A West Avalon Ave,,Muscle Shoals,AL,35661,United States,(256) 314-4620,34.74551773,-87.67341614,,,,
Murphy,8530,5970 Goodman Road,,Olive Branch,MS,38654,United States,(662) 890-9412,34.962837,-89.88424,,,,
Murphy,7029,2150 Sparkman Drive NW,,Huntsville,AL,35810,United States,(256) 851-1674,34.763393,-86.593396,,,,
Murphy,6784,2411 Goodman Road W.,,Horn Lake,MS,38637,United States,(662) 393-7984,34.9626,-90.0325,,,,
Murphy,5789,2619 W. 7th Street,,Joplin,MO,64801,United States,(417) 624-6675,37.08460772,-94.54589638,,,,
Murphy,5734,1000 W. Trimble #2,,Berryville,AR,72616,United States,(870) 423-5651,36.377988,-93.586394,,,,
Murphy,5693,24 Battlefield Station Drive,,Ft. Oglethorpe,GA,30742,United States,(706) 858-0770,34.93929,-85.216635,,,,
Murphy,5721,8600 Madison Blvd.,,Madison,AL,35758,United States,(256) 464-3955,34.681802,-86.74025,,,,
Murphy,8526,1205 N. Second St.,,Booneville,MS,38829,United States,(662) 728-4385,34.68069,-88.56042,,,,
Murphy,6803,1510 Hwy. 25 B N.,,Heber Springs,AR,72543,United States,(501) 362-1958,35.507365,-92.029853,,,,
Murphy,8536,1290 South Valley Dr.,,Las Cruces,NM,88005,United States,(575) 523-9525,32.293601,-106.786572,,,,
Murphy,8613,3480 Northrise Dr.,,Las Cruces,NM,88012,United States,(575) 382-5493,32.3619,-106.748,,,,
Murphy,8554,1419 Main St. SW,,Los Lunas,NM,87031,United States,(505) 866-9053,34.81567,-106.75046,,,,
Murphy,8588,2730 Sunshine West Plaza Dr. SW,,Albuquerque,NM,87121,United States,(505) 877-4850,35.069002,-106.700848,,,,
Murphy,8710,2707 Carlisle Blvd.,,Albuquerque (Carlisle),NM,87107,United States,(505) 872-0967,35.1121,-106.604258,,,,
Murphy,8725,600 San Mateo Blvd. SE,,Albuquerque (San Mateo),NM,87108,United States,(505) 266-6072,35.0725,-106.586,,,,
Murphy,8648,600 NM 528,,Bernalillo,NM,87004,United States,(505) 771-4171,35.318833,-106.575386,,,,
Murphy,6553,4540 Woodrow Bean Trans. Mtn. Dr.,,El Paso,TX,79924,United States,(915) 759-8200,31.89778328,-106.4374542,,,,
Murphy,6909,10655 Gateway Blvd. W.,,El Paso,TX,79935,United States,(915) 594-8840,31.75189972,-106.3422318,,,,
Murphy,6879,11701 Pebble Hill Blvd.,,El Paso,TX,79936,United States,(915) 921-7990,31.78330421,-106.2840576,,,,
Murphy,7218,1561 North Zaragoza Road,,El Paso,TX,79936,United States,(915) 921-6187,31.7433033,-106.2878418,,,,
Murphy,6704,9431 Alameda Road,,El Paso,TX,79910,United States,(915) 790-1686,31.68217278,-106.3137741,,,,
Murphy,5776,1820 N. Zaragoza Road,,El Paso,TX,79936,United States,(915) 849-1279,31.75673,-106.27277,,,,
Murphy,7516,12801 Tierra Este Rd,,El Paso,TX,79938,United States,(915) 855-6865,31.769706,-106.249764,,,,
Murphy,8805,3591 Zaragoza Rd,,El Paso,TX,79938,United States,(915) 856-7885,31.7975,-106.2302,,,,
Murphy,7499,10361 Alameda Ave.,,Socorro,TX,79927,United States,(915) 859-4474,31.653298,-106.289379,,,,
Murphy,7644,165 S. Darrington Road,,Horizon City,TX,79928,United States,(915) 852-1596,31.6805,-106.2007,,,,
Murphy,8609,5301 Las Soleras Dr.,,Santa Fe,NM,87507,United States,(505) 474-9209,35.620562,-106.029943,,,,
Murphy,8693,1628 Riverside Dr.,,Espanola,NM,87532,United States,(505) 747-1859,36.0165,-106.065,,,,
Murphy,8608,3624 N. Main St.,,Roswell,NM,88203,United States,(575) 627-5886,33.442888,-104.523327,,,,
Murphy,8607,2301 S. Canal St.,,Carlsbad,NM,88220,United States,(575) 885-6009,32.395689,-104.221956,,,,
Murphy,8780,1679 W State Street,,Pleasant Grove,UT,84062,United States,(801) 492-8159,40.3689278,-111.7637998,,,,
Murphy,8800,1534 N Commerce Dr,,Saratoga Springs,UT,84045,United States,(801) 766-9196,40.391,-111.9162,,,,
Murphy,8784,13443 S Hamilton View Rd,,Riverton,UT,84065,United States,(801) 253-4444,40.506804,-111.976173,,,,
Murphy,8807,3853 W Campus View Dr,,West Jordan,UT,84084,United States,(801) 280-0069,40.621094,-111.983955,,,,
Murphy,8775,6135 S 5600 W,,Kearns,UT,84118,United States,(801) 963-7763,40.6398,-112.0238,,,,
Murphy,7055,1200 SE Military Drive Bldg 2,,San Antonio,TX,78214,United States,(210) 924-5877,29.35338,-98.47758,,,,
Murphy,6972,1603 Vance Jackson Bldg. 2,,San Antonio,TX,78213,United States,(210) 732-3820,29.48671,-98.53526,,,,
Murphy,8679,2519 SE Military Dr.,,San Antonio,TX,78224,United States,(210) 337-1593,29.351869,-98.451054,,,,
Murphy,6968,1430 Austin Hwy. Bldg. 2,,San Antonio,TX,78209,United States,(210) 828-4408,29.49179268,-98.4373703,,,,
Murphy,5773,8526 Jones Maltsburger,,San Antonio,TX,78216,United States,(210) 308-0767,29.51670837,-98.48306274,,,,
Murphy,6824,"2100 Loop 410 SE, Bldg. 2",,San Antonio,TX,78220,United States,(210) 648-8728,29.40010643,-98.3874588,,,,
Murphy,8755,1427 Palo Alto Road,,San Antonio,TX,78211,United States,(210) 921-6016,29.338294,-98.552349,,,,
Murphy,8721,4406 N. Foster Rd.,,San Antonio (Foster),TX,78244,United States,(210) 662-4904,29.47015556,-98.35940278,,,,
Murphy,6983,"8030 Bandera Rd., #2",,San Antonio,TX,78250,United States,(210) 543-9844,29.51701736,-98.63516998,,,,
Murphy,8714,9530 Culebra Rd.,,San Antonio,TX,78251,United States,(210) 681-8969,29.4864,-98.6705,,,,
Murphy,6964,8315 FM 78 GSPMP,,Converse,TX,78109,United States,(210) 310-7640,29.49794006,-98.32243347,,,,
Murphy,7462,11302 Potranco Rd.,,San Antonio,TX,78253,United States,(210) 679-9240,29.43388,-98.71604,,,,
Murphy,5801,6711 Leslie Road,,San Antonio,TX,78254,United States,(210) 688-6188,29.49909782,-98.7032547,,,,
Murphy,8773,1930 Pat Booker Road,,Universal City,TX,78148,United States,(210) 659-1785,29.553677,-98.309741,,,,
Murphy,5740,16501 Nacogdoches Road,,San Antonio,TX,78247,United States,(210) 646-0960,29.59201,-98.35564,,,,
Murphy,7186,17601 Four Oaks Lane,,Schertz,TX,78154,United States,(210) 651-9864,29.60366821,-98.2780304,,,,
Murphy,7493,305 10th St. Bldg. B,,Floresville,TX,78114,United States,(830) 393-3407,29.163692,-98.178976,,,,
Murphy,7652,1379 S. Main,,Boerne,TX,78006,United States,(830) 249-0771,29.7775567,-98.7263513,,,,
Murphy,6690,1209 A South IH 35,,New Braunfels,TX,78130,United States,(830) 626-1017,29.6843586,-98.1261673,,,,
Murphy,7656,146 Oak Hill Drive,,Devine,TX,78016,United States,(830) 663-9458,29.1315,-98.8932,,,,
Murphy,7649,2145 W. Oaklawn,,Pleasanton,TX,78064,United States,(830) 569-5860,28.9396387,-98.5127819,,,,
Murphy,6621,1398 Eastwood Drive,,Seguin,TX,78155,United States,(830) 379-4868,29.56497192,-97.9431839,,,,
Murphy,7357,111 22nd St.,,Hondo,TX,78861,United States,(830) 426-8438,29.34532356,-99.1280899,,,,
Murphy,7522,125 Business Park Drive,,Kenedy,TX,78119,United States,(830) 583-9801,28.834707,-97.865757,,,,
Murphy,7395,1615 Main St.,,Buda,TX,78610,United States,(512) 295-1257,30.08827972,-97.82338715,,,,
Murphy,7211,9300 South IH 35 Service Rd. Bldg J,,Austin,TX,78748,United States,(512) 280-6956,30.16638947,-97.78879547,,,,
Murphy,7209,"710 E. Ben White Blvd., Unit C",,Austin,TX,78704,United States,(512) 804-5338,30.2192,-97.7562,,,,
Murphy,7125,3100-A E. Main Street,,Uvalde,TX,78801,United States,(830) 279-0639,29.23361,-99.75355,,,,
Murphy,6929,1030 Norwood Park Blvd. #2,,Austin,TX,78753,United States,(512) 491-7790,30.34046,-97.69171,,,,
Murphy,7390,500 East FM 351,,Beeville,TX,78102,United States,(361) 362-0742,28.42353,-97.75439,,,,
Murphy,5661,2612 Hwy. 281 N.,,Marble Falls,TX,78654,United States,(830) 798-9504,30.60018,-98.26981,,,,
Murphy,6967,"13000 I-H 35 Service Road, Bldg. #8",,Austin,TX,78753,United States,(512) 837-7178,30.41276741,-97.67519379,,,,
Murphy,7567,490 Agnes St.,,Bastrop,TX,78602,United States,(512) 332-0622,30.110495,-97.31527,,,,
Murphy,6745,201 Walton Way Building B,,Cedar Park,TX,78613,United States,(512) 528-1268,30.52137,-97.83353,,,,
Murphy,8614,1454 E. Whitestone Blvd.,,Cedar Park,TX,78613,United States,(512) 528-8302,30.527228,-97.809324,,,,
Murphy,7436,1548 FM 685 Bldg. #2,,Pflugerville,TX,78660,United States,(512) 989-8573,30.45191383,-97.60587311,,,,
Murphy,8671,1600 Round Rock Ave. (620),,Round Rock,TX,78681,United States,(512) 218-5086,30.513329,-97.702136,,,,
Murphy,8649,2211 East Palm Valley Blvd.,,Round Rock,TX,78664,United States,(512) 238-1411,30.518461,-97.651135,,,,
Murphy,7198,"4700 E. Palm Valley Blvd., Bldg. #2",,Round Rock,TX,78664,United States,(512) 246-1209,30.53331,-97.61419,,,,
Murphy,6951,622 South I-H 35,,Georgetown,TX,78626,United States,(512) 868-3671,30.64495,-97.6894,,,,
Murphy,8625,8508 N. Navarro St.,,Victoria,TX,77904,United States,(361) 576-9549,28.873133,-96.997179,,,,
Murphy,7663,1871 W State Hwy 71,,La Grange,TX,78945,United States,(979) 639-0051,29.9033,-96.9059,,,,
Murphy,7082,105 Carlos G. Parker Blvd.,,Taylor,TX,76574,United States,(512) 352-5779,30.60037,-97.41821,,,,
Murphy,7043,1712 Central Texas Expy,,Lampasas,TX,76550,United States,(512) 556-5690,31.06381,-98.15972,,,,
Murphy,7065,2911 E. Main Street,,Alice,TX,78332,United States,(361) 396-0460,27.76832,-98.04134,,,,
Murphy,7627,3837 IH 69 Access Rd.,,Corpus Christi,TX,78410,United States,(361) 387-0060,27.8538025,-97.6308342,,,,
Murphy,7197,715 W. US Hwy. 79,,Rockdale,TX,76567,United States,(512) 446-3492,30.64408,-97.03338,,,,
Murphy,5664,2712 E. Hwy. 190,,Copperas Cove,TX,76522,United States,(254) 547-7127,31.11998,-97.87132,,,,
Murphy,7210,2010 Heights Drive,,Harker Heights,TX,76548,United States,(254) 690-0083,31.0687,-97.6712,,,,
Murphy,7204,1108 SH 35 N,,Port Lavaca,TX,77979,United States,(361) 553-4832,28.63333,-96.62835,,,,
Murphy,7118,2045 Hwy. 181,,Portland,TX,78374,United States,(361) 643-6185,27.89609,-97.30553,,,,
Murphy,7098,2301 Hwy. 35 N.,,Rockport,TX,78382,United States,(361) 790-9524,28.04648,-97.04285,,,,
Murphy,7650,490 S. Bibb,,Eagle Pass,TX,78852,United States,(830) 752-1724,28.7012864,-100.4832287,,,,
Murphy,7195,2670 N. Main Street,,Belton,TX,76513,United States,(254) 933-7278,31.08257,-97.45897,,,,
Murphy,6670,2601 W. Wheeler Avenue,,Aransas Pass,TX,78336,United States,(361) 758-9200,27.92384531,-97.17534845,,,,
Murphy,7628,1801 S Padre Island Dr,,Corpus Christi,TX,78416,United States,(361) 806-2025,27.73852157,-97.43843841,,,,
Murphy,5798,2615 Hwy. 36 S.,,Brenham,TX,77833,United States,(979) 830-1910,30.14054,-96.39533,,,,
Murphy,8718,10714 International Blvd.,,Laredo,TX,78045,United States,(956) 729-1718,27.611965,-99.466245,,,,
Murphy,8793,6625 Saratoga Blvd,,Corpus Christi,TX,78414,United States,(361) 994-5555,27.677191,-97.367657,,,,
Murphy,7646,1127 E Gen Cavazos Blvd,,Kingsville,TX,78363,United States,(361) 592-4717,27.4910582,-97.8542167,,,,
Murphy,8691,1302 Flour Bluff Dr.,,Corpus Christi,TX,78418,United States,(361) 939-7997,27.673242,-97.301605,,,,
Murphy,7435,216 Schmidt Rd.,,Sealy,TX,77474,United States,(979) 627-0770,29.756887,-96.151186,,,,
Murphy,7018,1245 Hwy. 59 Loop,,Wharton,TX,77488,United States,(979) 532-1639,29.32731628,-96.12335205,,,,
Murphy,6797,2318 Bob Bullock Loop 20,,Laredo,TX,78043,United States,(956) 791-2889,27.51762,-99.44996,,,,
Murphy,6785,2427 Avenue F,,Del Rio,TX,78840,United States,(830) 778-6888,29.3962,-100.90434,,,,
Murphy,7223,2801 South Hwy 36,,Gatesville,TX,76528,United States,(254) 865-1326,31.42533,-97.7153,,,,
Murphy,7368,4419 South Hwy 83,,Laredo,TX,78041,United States,(956) 753-6595,27.45205,-99.47708,,,,
Murphy,7519,2220 Harvey Mitchell Parkway South,,College Station,TX,77845,United States,(979) 694-6539,30.59,-96.3,,,,
Murphy,6526,2208 Briarcrest Drive,,Bryan,TX,77802,United States,(979) 731-8480,30.65876233,-96.33285145,,,,
Murphy,7426,4608 7th St.,,Bay City,TX,77414,United States,(979) 244-9003,28.98792,-95.93427,,,,
Murphy,7651,403 W. Commerce,,Brownwood,TX,76801,United States,(325) 641-9355,31.7289668,-98.9832063,,,,
Murphy,7083,8515 Imperial Drive,,Waco,TX,76712,United States,(254) 420-0156,31.49084,-97.21256,,,,
Murphy,7453,22950 Bellaire Blvd.,,Richmond,TX,77406,United States,(281) 232-2097,29.684808,-95.780443,,,,
Murphy,5672,5334 FM 1640,,Richmond,TX,77469,United States,(281) 232-2449,29.55903358,-95.76214816,,,,
Murphy,7625,200 S. New Road,,Waco,TX,76710,United States,(254) 741-1348,31.5224,-97.1666,,,,
Murphy,7488,6010 N. Fry Rd.,,Katy,TX,77449,United States,(281) 855-8923,29.858811,-95.71895,,,,
Murphy,5785,1519 I-35 N.,,Bellmead,TX,76705,United States,(254) 412-1886,31.600954,-97.107225,,,,
Murphy,7054,26272 Northwest Freeway,,Cypress,TX,77429,United States,(281) 256-9180,29.97451591,-95.69902039,,,,
Murphy,6950,3454 State Hwy. 6 South,,Houston,TX,77082,United States,(281) 679-6820,29.7205162,-95.64530182,,,,
Murphy,6717,4814 Hwy. 6,,Houston,TX,77084,United States,(281) 345-1504,29.84539986,-95.64524841,,,,
Murphy,6904,6914 Lakeview Haven Drive,,Houston,TX,77084,United States,(281) 463-7455,29.87714386,-95.65073395,,,,
Murphy,6765,11725 Beechnut Street,,Houston,TX,77072,United States,(832) 351-3232,29.6870327,-95.58685303,,,,
Murphy,7514,9727 TX State Hwy 6,,Missouri City,TX,77459,United States,(281) 438-2308,29.534397,-95.57293,,,,
Murphy,8806,12250 Southwest Freeway,,Stafford,TX,77477,United States,(281) 980-9690,29.64432,-95.57715,,,,
Murphy,8647,6414 Hwy. 6,,Missouri City,TX,77459,United States,(281) 261-1035,29.561489,-95.560909,,,,
Murphy,6706,12411 FM 1960 W.,,Houston,TX,77065,United States,(832) 912-7370,29.92181587,-95.60333252,,,,
Murphy,8669,14510 FM 2920,,Tomball,TX,77375,United States,(281) 255-4000,30.095339,-95.643298,,,,
Murphy,7237,9450 W. Sam Houston Pkwy. S.,,Houston,TX,77099,United States,(281) 933-2500,29.68021584,-95.56021881,,,,
Murphy,5663,27630 Tomball Parkway,,Tomball,TX,77375,United States,(281) 516-1042,30.07611656,-95.62713623,,,,
Murphy,7011,8610 West BellFort Street,,Houston,TX,77031,United States,(713) 778-1690,29.65596581,-95.52950287,,,,
Murphy,6737,2744 Gessner Drive,,Houston,TX,77080,United States,(713) 895-8598,29.82240295,-95.54444122,,,,
Murphy,7335,30202 FM 2978,,Magnolia,TX,77354,United States,(281) 419-6581,30.190965,-95.590442,,,,
Murphy,6916,18702 Hwy. 105 W.,,Montgomery,TX,77356,United States,(936) 582-0394,30.38218689,-95.6519165,,,,
Murphy,5694,5525 Sherwood Way,,San Angelo,TX,76904,United States,(325) 224-3338,31.42825,-100.51037,,,,
Murphy,7529,1104 Silber Road,,Houston,TX,77055,United States,(713) 263-7186,29.78514,-95.467942,,,,
Murphy,8677,13350 Tomball Parkway,,Houston,TX,77086,United States,(281) 591-7286,29.916053,-95.486967,,,,
Murphy,7040,21170 Kuykendahl Road,,Spring,TX,77379,United States,(281) 288-9649,30.07624245,-95.5149765,,,,
Murphy,7378,618 West 29th St.,,San Angelo,TX,76903,United States,(325) 655-0526,31.48609,-100.46024,,,,
Murphy,6856,3500 FM 1960 W.,,Houston,TX,77068,United States,(281) 397-0023,29.99681282,-95.48397827,,,,
Murphy,5688,121-B West Hwy. 332,,Lake Jackson,TX,77566,United States,(979) 285-2300,29.04682,-95.45762,,,,
Murphy,5695,1803 N. Velasco,,Angleton,TX,77515,United States,(979) 848-8118,29.184351,-95.43388,,,,
Murphy,8628,1527 N. Loop West,,Houston,TX,77008,United States,(713) 869-3207,29.81266,-95.42774,,,,
Murphy,8619,1626 Louetta Rd.,,Spring,TX,77388,United States,(281) 907-7191,30.0643781,-95.43965,,,,
Murphy,7489,1045 Sawdust Rd.,,Spring,TX,77380,United States,(281) 292-8172,30.126734,-95.451606,,,,
Murphy,7589,45 E. Crosstimbers,,Houston,TX,77022,United States,(713) 742-0442,29.8305,-95.379,,,,
Murphy,6628,3042 College Park Drive,,The Woodlands,TX,77384,United States,(936) 273-6437,30.20921326,-95.45852661,,,,
Murphy,8767,2401 S. Wayside Drive,,Houston,TX,77023,United States,(713) 514-9849,29.7153833,-95.3151664,,,,
Murphy,7586,151 Wolfe Nursery Road,,Stephenville,TX,76401,United States,(254) 918-7289,32.206201,-98.239392,,,,
Murphy,7226,1917 N. Main St.,,Pearland,TX,77581,United States,(281) 485-2541,29.5729332,-95.28507996,,,,
Murphy,5628,169 Interstate Hwy. 45 S.,,Huntsville,TX,77320,United States,(936) 435-9424,30.71399117,-95.56858063,,,,
Murphy,6584,1580 E. Hwy. 6,,Alvin,TX,77511,United States,(281) 388-1088,29.42389,-95.23024,,,,
Murphy,6614,316 I-35 Hwy. SE,,Hillsboro,TX,76645,United States,(254) 580-0890,32.00336,-97.09702,,,,
Murphy,8692,9445 FM 1960,,Humble,TX,77338,United States,(281) 540-0277,30.001368,-95.2805,,,,
Murphy,6559,1410 E. Milam,,Mexia,TX,76667,United States,(254) 562-3624,31.68567103,-96.45742044,,,,
Murphy,7467,4802 Wilson Rd.,,Humble,TX,77396,United States,(281) 441-2866,29.93697357,-95.25079346,,,,
Murphy,8661,510 Southmore Ave.,,Pasadena,TX,77502,United States,(713) 920-7139,29.690272,-95.206511,,,,
Murphy,7575,23593 US Hwy 59,,Porter,TX,77365,United States,(281) 354-1793,30.105,-95.234,,,,
Murphy,7012,5745 E. Sam Houston Parkway N.,,Houston,TX,77015,United States,(713) 453-4840,29.80791664,-95.16449738,,,,
Murphy,6817,6610 FM 1960 E.,,Humble,TX,77346,United States,(832) 445-0895,29.99781,-95.17558,,,,
Murphy,7358,1721 W. FM 646,,League City,TX,77573,United States,(281) 337-4250,29.46823311,-95.08781433,,,,
Murphy,7254,1408 E. Main,,Eastland,TX,76448,United States,(254) 629-8423,32.40301132,-98.79280853,,,,
Murphy,6905,6500 Interstate 45,,La Marque,TX,77568,United States,(409) 986-8790,29.40424919,-95.03646851,,,,
Murphy,7042,14219 FM 2100,,Crosby,TX,77532,United States,(281) 328-2696,29.89534,-95.06421,,,,
Murphy,6779,155 F.M. 518,,Kemah,TX,77565,United States,(281) 538-9829,29.53632,-95.01945,,,,
Murphy,7261,14083 FM 490,,Raymondville,TX,78580,United States,(956) 689-2086,26.45218,-97.78223,,,,
Murphy,6648,1614 W. Henderson,,Cleburne,TX,76031,United States,(817) 641-7695,32.3392,-97.41304,,,,
Murphy,7630,4530 E. Hwy 83,,Rio Grande City,TX,78582,United States,(956) 487-6316,26.3657,-98.7949,,,,
Murphy,5656,801 Hwy. 377 E.,,Granbury,TX,76048,United States,(817) 573-5045,32.43361,-97.77964,,,,
Murphy,6718,4906 Garth Road,,Baytown,TX,77521,United States,(281) 421-8388,29.77653313,-94.97714996,,,,
Murphy,6616,838 S. Washington Avenue,,Cleveland,TX,77327,United States,(281) 432-2560,30.335721,-95.098455,,,,
Murphy,5727,1720 W. University Drive,,Edinburg,TX,78539,United States,(956) 387-0881,26.30404033,-98.18021955,,,,
Murphy,8757,2762 S 169C,,Edinburg,TX,78542,United States,(956) 386-1910,26.301737,-98.163343,,,,
Murphy,6948,3831 West Hwy. 31,,Corsicana,TX,75110,United States,(903) 875-0755,32.06768417,-96.50801849,,,,
Murphy,7658,8800 N SH 146,,Baytown,TX,77523,United States,(281) 573-1066,29.8185,-94.8999,,,,
Murphy,7655,431 South Broadway Ave,,Elsa,TX,78543,United States,(956) 262-9618,26.2908,-97.9932,,,,
Murphy,7196,4500 N. Conway Avenue,,Palmhurst,TX,78574,United States,(956) 583-1613,26.26147,-98.31744,,,,
Murphy,7400,4245 South McColl Rd.,,Edinburg,TX,78539,United States,(956) 631-5792,26.26662,-98.20242,,,,
Murphy,8705,1900 East Expressway 83,,Penitas,TX,78576,United States,(956) 581-3232,26.243066,-98.442106,,,,
Murphy,7393,2700 Nolana Ave.,,McAllen,TX,78504,United States,(956) 618-1429,26.24116,-98.24393,,,,
Murphy,6653,6810 Seawall Blvd.,,Galveston,TX,77551,United States,(409) 744-3151,29.26315,-94.83364,,,,
Murphy,7235,1434 East Overland Trail,,Abilene,TX,79601,United States,(325) 672-6778,32.47914505,-99.70018005,,,,
Murphy,7143,2416 E. Expressway 83,,Mission,TX,78572,United States,(956) 519-8128,26.19457,-98.28539,,,,
Murphy,7015,626 N. Cesar Chavez Road,,Alamo,TX,78516,United States,(956) 783-9379,26.19188,-98.13377,,,,
Murphy,5627,921 S. W. Wilshire Blvd.,,Burleson,TX,76028,United States,(817) 426-1505,32.52932,-97.33955,,,,
Murphy,7640,2001 Murphy Ave,,Donna,TX,78537,United States,(956) 464-1224,26.181,-98.0409,,,,
Murphy,7647,215 E. Expressway 83 - formerly 5808,,Weslaco,TX,78596,United States,(956) 447-9290,26.1595194,-97.9908366,,,,
Murphy,7334,211 Hwy. 146 Bypass,,Liberty,TX,77575,United States,(936) 334-1343,30.07530022,-94.7728653,,,,
Murphy,8729,849 West Rendon Crowley Rd,,Fort Worth (Crowley),TX,76208,United States,(817) 297-4147,32.5773,-97.3295,,,,
Murphy,5703,1202 Hwy 77 N.,,Waxahachie,TX,75165,United States,(972) 923-3232,32.41768,-96.84047,,,,
Murphy,7434,100 Walton Way,,Midlothian,TX,76065,United States,(972) 775-3479,32.48259354,-97.00661469,,,,
Murphy,6744,1805 W. Lincoln,,Harlingen,TX,78552,United States,(956) 425-8144,26.18106651,-97.71561432,,,,
Murphy,7010,609 East Knox Street,,Ennis,TX,75119,United States,(972) 875-1729,32.33126831,-96.62146759,,,,
Murphy,7547,1616 W. Church St.,,Livingston,TX,77351,United States,(936) 327-7662,30.7112849,-94.9519016,,,,
Murphy,6627,7401 McCart Avenue,,Ft. Worth,TX,76133,United States,(817) 423-3163,32.63723373,-97.36945343,,,,
Murphy,7662,1832 S. Main Street,,Weatherford,TX,76086,United States,(817) 594-1085,32.7330625,-97.7934249,,,,
Murphy,5753,950 N. Walnut Creek Drive,,Mansfield,TX,76063,United States,(817) 453-8784,32.57925102,-97.13251634,,,,
Murphy,6855,150 Bonner Street,,San Benito,TX,78586,United States,(956) 399-3643,26.14625,-97.63503,,,,
Murphy,6555,2981 Matlock Road,,Mansfield,TX,76063,United States,(817) 453-4497,32.60622344,-97.1153589,,,,
Murphy,7236,6740 West Vickery Blvd.,,Ft. Worth,TX,76116,United States,(817) 731-1349,32.70213318,-97.42818451,,,,
Murphy,7239,603 N. FM 1821,,Mineral Wells,TX,76067,United States,(940) 325-8648,32.8132,-98.0829,,,,
Murphy,8690,124 East Ovilla Rd.,,Red Oak,TX,75154,United States,(972) 576-3368,32.531932,-96.85709,,,,
Murphy,8525,5071 Little School Rd.,,Arlington,TX,76017,United States,(817) 561-9244,32.66615,-97.20551,,,,
Murphy,7176,405 NE Georgia Street,,Sweetwater,TX,79556,United States,(325) 235-1100,32.45187,-100.39394,,,,
Murphy,7333,9504 Clifford St.,,Ft. Worth,TX,76108,United States,(817) 246-1035,32.76423,-97.48142,,,,
Murphy,7326,941 W. Beltline Rd.,,Desoto,TX,75115,United States,(972) 274-0184,32.59036636,-96.87944794,,,,
Murphy,7654,170 N. Beckley,,Lancaster,TX,75146,United States,(972) 230-7755,32.5929492,-96.821725,,,,
Murphy,8788,2228 Jacksboro Highway,,Fort Worth,TX,76114,United States,(817) 624-3865,32.78465,-97.38032,,,,
Murphy,7097,3877 Maurice Avenue,,Ft. Worth,TX,76111,United States,(817) 222-0543,32.77643,-97.28947,,,,
Murphy,8779,6781 Lake Worth Blvd,,Lake Worth,TX,76135,United States,(817) 238-2278,32.8147,-97.4394,,,,
Murphy,7053,3102 West Wheatland Road,,Dallas,TX,75237,United States,(972) 709-8274,32.64776611,-96.87138367,,,,
Murphy,7590,1405 Hwy 100,,Port Isabel,TX,78578,United States,(956) 943-7701,26.071559,-97.221821,,,,
Murphy,5657,1190 West Main,,Gun Barrel City,TX,75156,United States,(903) 887-3234,32.33151627,-96.13438416,,,,
Murphy,7269,540 Northwest Pkwy,,Azle,TX,76020,United States,(817) 270-0673,32.90090942,-97.54608154,,,,
Murphy,7119,108 W. Bailey Boswell Road,,Saginaw,TX,76179,United States,(817) 847-0309,32.88188171,-97.38399506,,,,
Murphy,7657,2215 E Ruben Torres Sr Blvd,,Brownsville,TX,78526,United States,(956) 544-1306,25.951,-97.4831,,,,
Murphy,6930,1728 Precinct Line Road,,Hurst,TX,76054,United States,(817) 503-0973,32.84671,-97.18591,,,,
Murphy,5691,1401 E. Tyler,,Athens,TX,75751,United States,(903) 677-8810,32.20953,-95.8328,,,,
Murphy,6522,5351 Basswood Blvd.,,Ft. Worth,TX,76137,United States,(817) 605-9394,32.87486,-97.26939,,,,
Murphy,7161,6125 E. FM 802,,Brownsville,TX,78521,United States,(956) 838-0102,25.94303,-97.42641,,,,
Murphy,6949,1545 N. Cockrell Hill Road,,Dallas,TX,75211,United States,(214) 337-9100,32.76414,-96.89645,,,,
Murphy,7365,2719 Boca Chica Blvd.,,Brownsville,TX,78521,United States,(956) 550-8596,25.92445,-97.47942,,,,
Murphy,7160,2104 Bedford Road,,Bedford,TX,76021,United States,(817) 685-2424,32.84425,-97.13228,,,,
Murphy,7066,4611 N. Tarrant Parkway,,Keller,TX,76244,United States,(817) 503-7873,32.893753,-97.287067,,,,
Murphy,7588,4109 State Highway 121,,Bedford,TX,76021,United States,(817) 358-8704,32.850346,-97.111131,,,,
Murphy,7064,200 North Hwy. 175,,Seagoville,TX,75159,United States,(972) 287-9583,32.6476,-96.5348,,,,
Murphy,6812,9101-A North Tarrant Parkway,,North Richland Hills,TX,76180,United States,(817) 281-0564,32.90471,-97.18858,,,,
Murphy,7258,2100 Wal Mart Drive,,Graham,TX,76450,United States,(940) 549-2169,33.08335,-98.58203,,,,
Murphy,8750,2501 Avondale Haslet Road,,Fort Worth,TX,76052,United States,(817) 439-8396,32.96786,-97.41707,,,,
Murphy,7350,12330 Lake June Rd.,,Balch Springs,TX,75180,United States,(972) 286-4407,32.73478,-96.61499,,,,
Murphy,7653,2500-B Daniel McCall Dr,,Lufkin,TX,75901,United States,(936) 639-9419,31.2998265,-94.7303102,,,,
Murphy,7189,1230 N. Hwy. 377,,Roanoke,TX,76262,United States,(682) 831-9387,33.01399994,-97.21911621,,,,
Murphy,7216,802 Suite A East Hwy. 80,,Forney,TX,75126,United States,(972) 552-9890,32.74363327,-96.44826508,,,,
Murphy,6620,1315 S. Jackson Street,,Jacksonville,TX,75766,United States,(903) 541-0086,31.9522943,-95.26404296,,,,
Murphy,7622,525 West Interstate 30,,Garland,TX,75043,United States,(972) 240-5090,32.8395037,-96.5980641,,,,
Murphy,5696,201-A W. Marcy,,Big Spring,TX,79720,United States,(432) 263-5550,32.22901,-101.46904,,,,
Murphy,7063,90 North LHS Drive,,Lumberton,TX,77657,United States,(409) 755-2073,30.25635,-94.21577,,,,
Murphy,7013,186 East FM 3040,,Lewisville,TX,75067,United States,(972) 459-9362,33.00317,-96.99007,,,,
Murphy,5725,1850 W. Moore Avenue,,Terrell,TX,75160,United States,(972) 551-3700,32.73876572,-96.30444336,,,,
Murphy,6548,13729 North Central Expressway,,Dallas,TX,75243,United States,(214) 575-7920,32.93560248,-96.75212261,,,,
Murphy,5719,4115 N. Dowlen Road,,Beaumont,TX,77706,United States,(409) 892-0564,30.12085,-94.16773,,,,
Murphy,6636,18041 Marsh Lane,,Dallas,TX,75287,United States,(972) 862-3106,32.9950183,-96.85542922,,,,
Murphy,7584,100 Marketplace Lane,,Highland Village,TX,75077,United States,(972) 966-2455,33.0757,-97.0782,,,,
Murphy,6635,2505 Lakeview Parkway,,Rowlett,TX,75088,United States,(214) 607-0880,32.90841675,-96.57836914,,,,
Murphy,6701,1519 FM 407,,Lewisville,TX,75077,United States,(972) 317-0554,33.07214,-97.03844,,,,
Murphy,5712,601 E. Hwy. 243,,Canton,TX,75103,United States,(903) 567-0946,32.54501,-95.85487,,,,
Murphy,7050,1003 Hwy. 96 Bypass,,Silsbee,TX,77656,United States,(409) 386-0137,30.33965,-94.14865,,,,
Murphy,6528,806 S. Hwy. 287,,Decatur,TX,76234,United States,(940) 626-4377,33.22838211,-97.59500122,,,,
Murphy,7153,776 E. Interstate 30,,Rockwall,TX,75087,United States,(972) 722-9471,32.90056,-96.46142,,,,
Murphy,6721,4200 FM 2181,,Hickory Creek,TX,75065,United States,(940) 497-0360,33.12939835,-97.0451355,,,,
Murphy,8745,8020 Woodbridge Parkway,,Sachse,TX,75048,United States,(972) 429-0410,32.9931234,-96.573209,,,,
Murphy,6517,146 W. FM 544,,Murphy,TX,75094,United States,(972) 424-5691,33.01146539,-96.61384543,,,,
Murphy,6756,8595 Memorial Blvd.,,Port Arthur,TX,77640,United States,(409) 722-2344,29.94427,-93.99289,,,,
Murphy,7597,187 W South Town Drive,,Tyler,TX,75703,United States,(903) 939-0902,32.274217,-95.309103,,,,
Murphy,7437,8060 Independence Pkwy,,Plano,TX,75025,United States,(214) 383-3576,33.08786774,-96.74931335,,,,
Murphy,6527,1517 S. Loop 288,,Denton,TX,76205,United States,(940) 891-1504,33.23056,-97.168323,,,,
Murphy,7069,2050 Hwy. 78 N. Suite #100,,Wylie,TX,75098,United States,(972) 575-8872,33.02371,-96.51167,,,,
Murphy,8565,4422 North St.,,Nacogdoches,TX,75965,United States,(936) 559-7834,31.6461,-94.65466,,,,
Murphy,7068,3804 Hwy. 64 West,,Tyler,TX,75704,United States,(903) 596-0033,32.35275,-95.34428,,,,
Murphy,6895,4995 Twin City Hwy.,,Port Arthur,TX,77642,United States,(409) 962-2710,29.93841,-93.93837,,,,
Murphy,7379,5054 Troup Hwy,,Tyler,TX,75707,United States,(903) 581-0312,32.29692,-95.26314,,,,
Murphy,8751,901 S. Erby Campbell Blvd.,,Royse City,TX,75189,United States,(972) 635-2585,32.966815,-96.340783,,,,
Murphy,7249,2305 Belmont St.,,Midland,TX,79701,United States,(432) 684-4546,31.97475243,-102.0731735,,,,
Murphy,8722,601 S. Angel Pkwy,,Lucas,TX,75002,United States,(214) 383-9791,33.0894,-96.6197,,,,
Murphy,7383,8761 Hwy. 34 South,,Quinlan,TX,75474,United States,(903) 356-3083,32.90991,-96.12652,,,,
Murphy,7039,5251 McKinney Ranch Parkway,,McKinney,TX,75070,United States,(972) 369-1505,33.15813,-96.68356,,,,
Murphy,7255,3218 South Main St.,,Lindale,TX,75771,United States,(903) 882-6568,32.47371,-95.39006,,,,
Murphy,5700,4517-B N. Midland Drive,,Midland,TX,79707,United States,(432) 689-4902,32.03020626,-102.1460459,,,,
Murphy,7408,9091 W. University Dr.,,McKinney (NW),TX,75071,United States,(972) 540-2416,33.21851,-96.73273,,,,
Murphy,6593,802 W. Gibson Street,,Jasper,TX,75951,United States,(409) 489-9366,30.907,-94.01505,,,,
Murphy,7101,289 Hwy. 81 N. Access Road,,Bowie,TX,76230,United States,(940) 872-3482,33.53971,-97.83556,,,,
Murphy,5708,3117 Edgar Brown Drive,,West Orange,TX,77630,United States,(409) 882-0102,30.09298,-93.76608,,,,
Murphy,5713,131 N.E. Loop 564,,Mineola,TX,75773,United States,(903) 569-0550,32.69031,-95.48398,,,,
Murphy,6613,2121 1/2 Hwy. 79 S.,,Henderson,TX,75654,United States,(903) 655-2441,32.13298,-94.80308,,,,
Murphy,7574,7701 Wesley Street,,Greenville,TX,75402,United States,(903) 450-1157,33.093,-96.108,,,,
Murphy,8541,5001 Wesley St.,,Greenville,TX,75402,United States,(903) 454-8032,33.12003,-96.10907,,,,
Murphy,6911,1209 Southport Road,,Kilgore,TX,75662,United States,(903) 983-1119,32.39354,-94.86339,,,,
Murphy,6693,1525 N. Grand Avenue,,Gainesville,TX,76240,United States,(940) 668-2880,33.64285,-97.1342,,,,
Murphy,7108,250 Rough Rider Drive,,Center,TX,75935,United States,(936) 598-2818,31.80083,-94.19251,,,,
Murphy,7391,4004 Estes Pkwy,,Longview,TX,75603,United States,(903) 234-1691,32.43781662,-94.71585083,,,,
Murphy,7461,1530 Archer City Hwy.,,Wichita Falls,TX,76302,United States,(940) 761-3801,33.85077,-98.49948,,,,
Murphy,5749,1760 S. Broadway Street,,Sulphur Springs,TX,75482,United States,(903) 438-1293,33.10611,-95.59669,,,,
Murphy,7086,2430 Gilmer Road,,Longview,TX,75604,United States,(903) 295-5822,32.53236,-94.78741,,,,
Murphy,8631,3117 Lawrence Rd.,,Wichita Falls,TX,76308,United States,(940) 691-0496,33.879004,-98.539892,,,,
Murphy,7504,1501 Walton Spur,,Carthage,TX,75633,United States,(903) 693-3152,32.157384,-94.33742,,,,
Murphy,5802,2311 Airport Drive,,Wichita Falls,TX,76306,United States,(940) 855-5903,33.95231712,-98.52707021,,,,
Murphy,5658,333 U. S. Hwy. 82 E.,,Sherman,TX,75092,United States,(903) 891-8712,33.67193,-96.61238,,,,
Murphy,5597,527 N. City Service Hwy.,,Sulphur,LA,70663,United States,(337) 625-1004,30.23318,-93.326206,,,,
Murphy,6764,2101 N. Hwy. 121,,Bonham,TX,75418,United States,(903) 640-0724,33.59703,-96.19252,,,,
Murphy,6689,3441 Nelson Road,,Lake Charles,LA,70605,United States,(337) 474-8417,30.193,-93.2495,,,,
Murphy,5676,3514 FM Road 120 W.,,Denison,TX,75020,United States,(903) 465-5007,33.76028,-96.5887,,,,
Murphy,5668,3425 Gerstner Memorial,,Lake Charles,LA,70601,United States,(337) 474-7654,30.194929,-93.179163,,,,
Murphy,6897,2510 Hwy. 171,,Lake Charles,LA,70611,United States,(337) 433-3022,30.27050018,-93.18076324,,,,
Murphy,5778,1123 N. Pine Street,,DeRidder,LA,70634,United States,(337) 463-3037,30.86527652,-93.28550791,,,,
Murphy,5665,2313 South Jefferson Avenue,,Mt. Pleasant,TX,75455,United States,(903) 572-2025,33.13566897,-94.96809086,,,,
Murphy,6638,3802 Hwy. 287 W.,,Vernon,TX,76384,United States,(940) 553-4083,34.16326,-99.31146,,,,
Murphy,7534,2208 South 5th Street,,Leesville,LA,71446,United States,(337) 239-6829,31.1213,-93.2687,,,,
Murphy,6835,3204 West Main Street,,Durant,OK,74701,United States,(580) 931-9201,33.9991,-96.413,,,,
Murphy,8716,1721 N. Commerce St.,,Ardmore,OK,73401,United States,(580) 224-2757,34.193312,-97.143094,,,,
Murphy,6583,3805 Lamar Avenue,,Paris,TX,75462,United States,(903) 783-1790,33.66243362,-95.50643158,,,,
Murphy,6626,9570 Mansfield Road,,Shreveport,LA,71118,United States,(318) 688-2752,32.3871178,-93.81653463,,,,
Murphy,7648,6241 Westport Avenue,,Shreveport,LA,71129,United States,(318) 603-7991,32.4485013,-93.8664843,,,,
Murphy,5717,4221 South Loop 289,,Lubbock,TX,79423,United States,(806) 780-2800,33.52927228,-101.90432,,,,
Murphy,7427,6313 82nd St.,,Lubbock,TX,79424,United States,(806) 698-8190,33.51939774,-101.9557953,,,,
Murphy,5673,8020 Youree Drive,,Shreveport,LA,71115,United States,(318) 797-7803,32.43160282,-93.71190979,,,,
Murphy,8689,5519 4th Street,,Lubbock,TX,79416,United States,(806) 788-1376,33.592084,-101.931258,,,,
Murphy,7482,1121 Shreveport  Barksdale Hwy (LA 3302),,Shreveport,LA,71105,United States,(318) 869-2111,32.483567,-93.705483,,,,
Murphy,6570,323 West Interstate Drive,,Jennings,LA,70546,United States,(337) 616-1873,30.24537538,-92.66150866,,,,
Murphy,5674,2552 Airline Drive,,Bossier City,LA,71111,United States,(318) 549-1985,32.54811219,-93.70923919,,,,
Murphy,8735,1825 W Joe Harvey Blvd,,Hobbs,NM,88240,United States,(575) 738-0043,32.740542,-103.161101,,,,
Murphy,6883,2401 NW 67th Street,,Lawton,OK,73505,United States,(580) 510-0622,34.6322,-98.4747,,,,
Murphy,6572,205 Loop 59 N.,,Atlanta,TX,75551,United States,(903) 799-5657,33.11560822,-94.18304443,,,,
Murphy,7324,1898 Hwy. 165 S.,,Oakdale,LA,71463,United States,(318) 335-3887,30.79258347,-92.67624664,,,,
Murphy,5662,925 E. Keyser Avenue,,Natchitoches,LA,71457,United States,(318) 354-6710,31.75261372,-93.06497476,,,,
Murphy,7382,2709 Ave. F NW,,Childress,TX,79201,United States,(940) 937-2926,34.43786,-100.23537,,,,
Murphy,6651,1909 E. Jackson,,Hugo,OK,74743,United States,(580) 317-6827,34.00637436,-95.48950958,,,,
Murphy,6532,2504 N. Main Street,,Altus,OK,73521,United States,(580) 477-0705,34.66316223,-99.33398876,,,,
Murphy,7142,401 East Hwy. 114,,Levelland,TX,79336,United States,(806) 897-2526,33.59476089,-102.3615799,,,,
Murphy,7212,860 James Bowie Dr.,,New Boston,TX,75570,United States,(903) 628-8725,33.47297287,-94.40302277,,,,
Murphy,7343,1530 Hwy 190 West,,Eunice,LA,70535,United States,(337) 550-0223,30.4953,-92.44669,,,,
Murphy,5532,725 Odd Fellow Road,,Crowley,LA,70526,United States,(337) 788-3175,30.23071438,-92.36496916,,,,
Murphy,7440,2010 West Grant St.,,Pauls Valley,OK,73075,United States,(405) 238-2868,34.738524,-97.24935,,,,
Murphy,7034,1905 SE Washington,,Idabel,OK,74745,United States,(580) 208-3796,33.89653015,-94.80413818,,,,
Murphy,7469,6201 Coliseum Blvd.,,Alexandria,LA,71303,United States,(318) 445-5494,31.29478,-92.51311,,,,
Murphy,5655,401 Walton Drive,,Texarkana,TX,75501,United States,(903) 223-9916,33.44423676,-94.10037231,,,,
Murphy,7081,4001 W. 15th,,Plainview,TX,79072,United States,(806) 291-6801,34.19449997,-101.7510605,,,,
Murphy,5730,1383 Homer Road,,Minden,LA,71055,United States,(318) 371-2031,32.62685,-93.25042,,,,
Murphy,7552,2052 North Mall Drive,,Alexandria,LA,71301,United States,(318) 483-7669,31.27742,-92.4552,,,,
Murphy,7191,893 E. LaSalle,,Ville Platte,LA,70586,United States,(337) 363-3287,30.68494987,-92.26146698,,,,
Murphy,6781,411 Arkansas Blvd.,,Texarkana,AR,71854,United States,(870) 773-9888,33.46095657,-94.03820038,,,,
Murphy,6677,"3007 Veterans Memorial Dr., Hwy. 14",,Abbeville,LA,70510,United States,(337) 898-8340,29.97067,-92.09534,,,,
Murphy,7402,1924 South Arkansas St.,,Springhill,LA,71075,United States,(318) 539-3050,32.98456573,-93.4600296,,,,
Murphy,6578,1621 Lonnie Abbott Blvd.,,Ada,OK,74820,United States,(580) 436-4843,34.79000225,-96.65426649,,,,
Murphy,5689,3634 Monroe Hwy.,,Pineville,LA,71360,United States,(318) 640-4380,31.36627773,-92.41019868,,,,
Murphy,5820,5934 Hwy. 167 N.,,Winnfield,LA,71483,United States,(318) 648-8500,31.95012,-92.6544,,,,
Murphy,6685,3148 Ambassador Caffery Parkway,,Lafayette,LA,70506,United States,(337) 406-9784,30.18762613,-92.07500714,,,,
Murphy,7265,2027 South 1st St.,,Chickasha,OK,73018,United States,(405) 224-6988,35.031,-97.93335,,,,
Murphy,8786,900 Ambassador Caffery Pkwy,,Lafayette,LA,70506,United States,(337) 234-0889,30.2318,-92.063,,,,
Murphy,7349,2035 South Green,,Purcell,OK,73080,United States,(405) 527-1419,34.986396,-97.368745,,,,
Murphy,6755,1615 Creswell Lane Ext.,,Opelousas,LA,70570,United States,(337) 407-8077,30.518693,-92.066042,,,,
Murphy,5622,1227 N.W. Evangeline Thruway,,Lafayette,LA,70501,United States,(337) 237-4155,30.23851104,-92.01321442,,,,
Murphy,6592,2420 W. Pinhook Road,,Lafayette,LA,70508,United States,(337) 289-1137,30.18156092,-92.00553729,,,,
Murphy,5821,182 Old Winnfield Road,,Jonesboro,LA,71251,United States,(318) 259-7341,32.22863009,-92.70840474,,,,
Murphy,7463,107 St. Nazaire Rd.,,Broussard,LA,70518,United States,(337) 837-1436,30.140795,-91.944595,,,,
Murphy,7509,505 Latiolais Rd.,,Breaux Bridge,LA,70517,United States,(337) 507-2306,30.2910139,-91.91226111,,,,
Murphy,7045,7167 Hwy. 1,,Mansura,LA,71350,United States,(318) 240-8052,31.0958,-92.0594,,,,
Murphy,6644,1209 E. Admiral Doyle Drive,,New Iberia,LA,70560,United States,(337) 367-2941,29.98352983,-91.81679184,,,,
Murphy,7203,928 E. Collin Raye Drive,,De Queen,AR,71832,United States,(870) 642-2907,34.04470825,-94.31856537,,,,
Murphy,6579,363 N. Interstate Drive,,Norman,OK,73069,United States,(405) 447-2078,35.22199249,-97.48453522,,,,
Murphy,6580,609 12th Avenue NE,,Norman,OK,73071,United States,(405) 447-2363,35.22601318,-97.42269897,,,,
Murphy,5687,1207 N. Service Road East,,Ruston,LA,71270,United States,(318) 255-2440,32.54075949,-92.6231913,,,,
Murphy,6925,58 Hwy. 79 Bypass N.,,Magnolia,AR,71753,United States,(870) 901-6010,33.27642,-93.21405,,,,
Murphy,6673,2402 N. Hervey,,Hope,AR,71801,United States,(870) 777-9020,33.68215942,-93.61349487,,,,
Murphy,6530,506 SW 19th Street,,Moore,OK,73160,United States,(405) 799-4245,35.32092285,-97.49282074,,,,
Murphy,6568,450 S. George Nigh Expy.,,McAlester,OK,74501,United States,(918) 429-0810,34.919051,-95.743856,,,,
Murphy,6955,1700 South 4th Street,,Nashville,AR,71852,United States,(870) 845-4784,33.92483521,-93.85620117,,,,
Murphy,6581,10307 S. Western Avenue,,Oklahoma City,OK,73139,United States,(405) 692-6267,35.36518478,-97.53061676,,,,
Murphy,6899,949 E. State Hwy. 152,,Mustang,OK,73064,United States,(405) 376-0454,35.3917,-97.7057,,,,
Murphy,6773,24 E. I-240 Service Road,,Oklahoma City,OK,73149,United States,(405) 632-2772,35.391187,-97.51102,,,,
Murphy,6966,1520 E. Wrangler,,Seminole,OK,74868,United States,(405) 382-5559,35.246871,-96.653936,,,,
Murphy,6582,1308 Garth Brooks Blvd.,,Yukon,OK,73099,United States,(405) 354-6707,35.48911651,-97.76022438,,,,
Murphy,6631,2512 S. Country Club Road,,El Reno,OK,73036,United States,(405) 422-4341,35.509409,-97.97261595,,,,
Murphy,7089,198 E. Shawnee Mall Drive,,Shawnee,OK,74804,United States,(405) 273-8577,35.384256,-96.92245,,,,
Murphy,7321,9051 NE 23rd,,Midwest City,OK,73110,United States,(405) 769-7960,35.49356,-97.36945,,,,
Murphy,7537,839 Sterlington Highway,,Farmerville,LA,71241,United States,(318) 368-4130,32.7719986,-92.398056,,,,
Murphy,8739,455 Hospital Road,,New Roads,LA,70760,United States,(225) 638-4656,30.6922,-91.4704,,,,
Murphy,5677,1027 Glenwood Drive,,West Monroe,LA,71291,United States,(318) 322-9151,32.50891495,-92.15654755,,,,
Murphy,6637,1103 NW 164th,,Oklahoma City,OK,73013,United States,(405) 216-0170,35.63914108,-97.53281403,,,,
Murphy,7520,2720 N. West Ave,,El Dorado,AR,71730,United States,(870) 863-4427,33.240666,-92.666105,,,,
Murphy,7188,1707 North 23rd Street,,Canyon,TX,79015,United States,(806) 655-0789,34.99908066,-101.9207687,,,,
Murphy,5621,959 Hwy. 90 East,,Morgan City,LA,70380,United States,(985) 399-8617,29.68178368,-91.26820374,,,,
Murphy,6606,1100 N. Sante Fe,,Edmond,OK,73003,United States,(405) 844-5267,35.66474152,-97.51364899,,,,
Murphy,7124,1171 Lamy Lane,,Monroe,LA,71201,United States,(318) 699-8549,32.52575,-92.0956,,,,
Murphy,6503,602 Hwy. 71 N.,,Mena,AR,71953,United States,(479) 243-9178,34.586906,-94.225737,,,,
Murphy,7319,59630 Belleview,,Plaquemine,LA,70764,United States,(225) 687-8878,30.262756,-91.252737,,,,
Murphy,7175,625 N. 25 Mile Avenue,,Hereford,TX,79045,United States,(806) 363-2799,34.83882904,-102.4058914,,,,
Murphy,7473,940 California Ave. SW,,Camden,AR,71701,United States,(870) 837-2798,33.56557,-92.84378,,,,
Murphy,5780,2109 S. Grand Street,,Amarillo,TX,79103,United States,(806) 373-4993,35.19075012,-101.7945328,,,,
Murphy,7251,4209 Canyon Dr.,,Amarillo,TX,79110,United States,(806) 352-2862,35.17192459,-101.8623581,,,,
Murphy,8776,10634 Scenic Hwy,,Baton Rouge,LA,70807,United States,(225) 778-1074,30.541,-91.1906,,,,
Murphy,5715,4800 South Coulter Road,,Amarillo,TX,79119,United States,(806) 457-1305,35.15829849,-101.9215851,,,,
Murphy,7405,4007 Carter St.,,Vidalia,LA,71373,United States,(318) 336-9131,31.575485,-91.463852,,,,
Murphy,7139,3370 Front Street,,Winnsboro,LA,71295,United States,(318) 412-0952,32.1801,-91.7264,,,,
Murphy,8685,2109 South Western St.,,Amarillo,TX,79109,United States,(806) 358-8530,35.190262,-101.883981,,,,
Murphy,6984,5732 West Amarillo Blvd.,,Amarillo,TX,79106,United States,(806) 359-7007,35.21253967,-101.9079742,,,,
Murphy,8582,5523 Main St. (Hwy. 64),,Zachary,LA,70791,United States,(225) 654-7793,30.647982,-91.146366,,,,
Murphy,7056,14503 Plank Road,,Baker,LA,70714,United States,(225) 774-7664,30.5786,-91.1274,,,,
Murphy,7121,201 W. 28,,Pampa,TX,79065,United States,(806) 665-0165,35.56871,-100.96703,,,,
Murphy,5530,304 Sergeant S. Prentiss Dr,,Natchez,MS,39120,United States,(601) 304-0705,31.551869,-91.370913,,,,
Murphy,6988,9340 Cortana Place,,Baton Rouge,LA,70815,United States,(225) 927-4308,30.4588,-91.0892,,,,
Murphy,7503,1616 South Division Street,,Guthrie,OK,73044,United States,(405) 260-1682,35.8789,-97.425,,,,
Murphy,6564,1750 S. Wood Drive,,Okmulgee,OK,74447,United States,(918) 756-7646,35.60486603,-95.96269989,,,,
Murphy,6531,3112 N. Broadway Street,,Poteau,OK,74953,United States,(918) 649-3849,35.094281,-94.630464,,,,
Murphy,6985,14251 Coursey Blvd.,,Baton Rouge,LA,70817,United States,(225) 751-1315,30.4083,-91.0222,,,,
Murphy,7222,36500 Hwy. 3089,,Donaldsonville,LA,70346,United States,(225) 474-6899,30.093696,-90.979892,,,,
Murphy,8760,14744 Greenwell Springs Rd,,Central,LA,70739,United States,(225) 261-4258,30.514613,-91.025552,,,,
Murphy,6778,10250 Sullivan Road,,Baton Rouge,LA,70818,United States,(225) 261-4379,30.5416,-91.0285,,,,
Murphy,7535,2211 O'Neal Lane,,Baton Rouge,LA,70816,United States,(225) 753-2135,30.437253,-91.007513,,,,
Murphy,7403,6101 Mer Rouge Rd.,,Bastrop,LA,71220,United States,(318) 281-2644,32.77402,-91.86928,,,,
Murphy,8510,32336 LA Hwy 16,,Denham Springs,LA,70726,United States,(225) 667-8739,30.53772,-90.95591,,,,
Murphy,8696,209 W. Hwy 30,,Gonzales,LA,70737,United States,(225) 644-7022,30.2105,-90.9129,,,,
Murphy,7508,34057 LA Hwy 16,,Denham Springs (Watson),LA,70706,United States,(225) 791-6515,30.5642,-90.957,,,,
Murphy,8501,130 South Airline Hwy.,,Gonzales,LA,70737,United States,(225) 644-8074,30.23196,-90.90664,,,,
Murphy,5817,412 N. Canal Blvd.,,Thibodaux,LA,70301,United States,(985) 446-6355,29.80901718,-90.81604767,,,,
Murphy,8500,28777 Walker Rd. South,,Walker,LA,70785,United States,(225) 665-9789,30.47967,-90.86404,,,,
Murphy,7117,908 Unity Road,,Crossett,AR,71635,United States,(870) 364-2238,33.1378,-91.94168,,,,
Murphy,8535,1841 Martin Luther King Jr. Blvd.,,Houma,LA,70360,United States,(985) 851-0660,29.62702,-90.76208,,,,
Murphy,6650,1006 W. Ruth Avenue,,Sallisaw,OK,74955,United States,(918) 774-0980,35.44884491,-94.80236053,,,,
Murphy,6832,953 Grand Caillou Road,,Houma,LA,70363,United States,(985) 223-2408,29.5825,-90.6948,,,,
Murphy,6896,441 Liberty Drive,,Greenwood,AR,72936,United States,(479) 996-5443,35.219604,-94.297475,,,,
Murphy,6608,115 N. Perkins,,Stillwater,OK,74075,United States,(405) 707-9736,36.12336446,-97.05152395,,,,
Murphy,6709,108 Buena Vista,,Hot Springs,AR,71913,United States,(501) 520-4899,34.456179,-93.061481,,,,
Murphy,7134,1605 Albert Pike Road,,Hot Springs,AR,71913,United States,(501) 623-8325,34.4931,-93.0901,,,,
Murphy,5814,5501 S. 24th Street,,Ft. Smith,AR,72901,United States,(479) 649-8856,35.3291,-94.409141,,,,
Murphy,6567,1004 W. Taft Street,,Sapulpa,OK,74066,United States,(918) 224-2646,35.98791504,-96.13573456,,,,
Murphy,7080,1010 W. Shawnee Street,,Muskogee,OK,74401,United States,(918) 684-1793,35.7697,-95.3748,,,,
Murphy,7133,8303 Rogers Avenue,,Fort Smith,AR,72903,United States,(479) 452-1161,35.348766,-94.341668,,,,
Murphy,7447,2200 N. 62nd St.,,Ft. Smith,AR,72904,United States,(479) 784-3377,35.38324,-94.36412,,,,
Murphy,7185,1410 Rivercreek Drive,,Malvern,AR,72104,United States,(501) 337-4632,34.39079,-92.83012,,,,
Murphy,7415,4858-A Hwy 1,,Raceland,LA,70394,United States,(985) 532-1154,29.69296646,-90.55228424,,,,
Murphy,7398,11028 South Memorial,,Tulsa,OK,74133,United States,(918) 369-7063,36.00537,-95.88569,,,,
Murphy,6874,6312 S. Elm Place,,Broken Arrow,OK,74012,United States,(918) 455-3724,35.99118805,-95.79772186,,,,
Murphy,7116,3608 North Hwy. 7,,Hot Springs Village,AR,71909,United States,(501) 623-7171,34.632086,-93.058702,,,,
Murphy,6533,7932 S. Lewis Avenue,,Tulsa,OK,74136,United States,(918) 496-3277,36.04740143,-95.95823669,,,,
Murphy,6618,6602 E. 81st. Street S.,,Tulsa,OK,74133,United States,(918) 496-4858,36.04630968,-95.90328719,,,,
Murphy,7369,703 S. Constitution Ave.,,Oak Grove,LA,71263,United States,(318) 428-7514,32.85457,-91.393276,,,,
Murphy,5804,2210 Fayetteville Road,,Van Buren,AR,72956,United States,(479) 471-9322,35.468425,-94.35531,,,,
Murphy,6954,612 South Garland Road,,Enid,OK,73703,United States,(580) 234-2233,36.3906,-97.9437,,,,
Murphy,6860,800 W. Washington,,Broken Arrow,OK,74012,United States,(918) 259-1269,36.03224945,-95.79905701,,,,
Murphy,6587,2321 W. Kenosha Street,,Broken Arrow,OK,74012,United States,(918) 251-3889,36.06068802,-95.81771851,,,,
Murphy,5361,2805 West Thomas Street,,Hammond,LA,70401,United States,(985) 429-9906,30.503423,-90.49357,,,,
Murphy,7342,1210 W. Oak St.,,Amite,LA,70422,United States,(985) 747-0534,30.726979,-90.528533,,,,
Murphy,6588,3307 1st Street,,Woodward,OK,73801,United States,(580) 254-0113,36.412159,-99.381178,,,,
Murphy,7561,3800 Hillside Drive,,Broken Arrow,OK,74014,United States,(918) 355-3655,36.064914,-95.742735,,,,
Murphy,6569,416 S. Dewey Avenue,,Wagoner,OK,74467,United States,(918) 485-0469,35.957376,-95.39604,,,,
Murphy,7330,414 W. Cherry,,Alma,AR,72921,United States,(479) 632-0558,35.480949,-94.230446,,,,
Murphy,7036,2001 South Dumas Avenue,,Dumas,TX,79029,United States,(806) 934-0326,35.84112,-101.97195,,,,
Murphy,6705,11130 E. 31st Street,,Tulsa,OK,74146,United States,(918) 622-6691,36.119,-95.8532,,,,
Murphy,6625,12953 Hwy. 90,,Boutte,LA,70039,United States,(985) 331-9365,29.9070966,-90.36884638,,,,
Murphy,6589,8118 E. Admiral Place,,Tulsa,OK,74112,United States,(918) 832-0067,36.15908,-95.88547,,,,
Murphy,5735,425 US Hwy 425 N.,,Monticello,AR,71655,United States,(870) 367-0739,33.636,-91.80193,,,,
Murphy,7363,1312 South Rock St.,,Sheridan,AR,72150,United States,(870) 942-1036,34.290097,-92.39818,,,,
Murphy,7517,600 S. Broadway Ave.,,Cleveland,OK,74020,United States,(918) 358-5356,36.32,-96.465,,,,
Murphy,7558,310 Hwy 3162,,Galliano,LA,70345,United States,(985) 325-3690,29.469455,-90.323523,,,,
Murphy,8544,4103 Pemberton Square Blvd.,,Vicksburg,MS,39180,United States,(601) 634-8211,32.303068,-90.889509,,,,
Murphy,7250,Route 6 Box 1897,,Stilwell,OK,74960,United States,(918) 696-3058,35.79900742,-94.62542725,,,,
Murphy,7539,"1608 Veterans Boulevard,",,McComb,MS,39648,United States,(601) 684-5651,31.262549,-90.471849,,,,
Murphy,6801,17305 I-30,,Benton,AR,72015,United States,(501) 860-7838,34.57544,-92.582436,,,,
Murphy,6612,12107 E. 96th Street N.,,Owasso,OK,74055,United States,(918) 376-9984,36.29305368,-95.80766454,,,,
Murphy,6716,5108 Jefferson Hwy.,,Harahan,LA,70123,United States,(504) 737-3731,29.951789,-90.179616,,,,
Murphy,6906,4822 La Palco,,Marrero,LA,70072,United States,(504) 347-4054,29.8752,-90.094,,,,
Murphy,5531,956 Brookway Blvd.,,Brookhaven,MS,39601,United States,(601) 823-4090,31.579836,-90.468959,,,,
Murphy,8758,820 N. Hwy 190,,Covington,LA,70433,United States,(985) 871-0537,30.4434,-90.0818,,,,
Murphy,7138,3921 Behrman Hwy.,,New Orleans,LA,70114,United States,(504) 368-8353,29.912638,-90.018398,,,,
Murphy,7217,8001 A West Judge Perez Drive,,Chalmette,LA,70043,United States,(504) 281-2380,29.957838,-89.985979,,,,
Murphy,8548,115 Market Place,,Hazlehurst,MS,39083,United States,(601) 894-8143,31.873492,-90.408699,,,,
Murphy,6990,39100 Natchez Drive,,Slidell,LA,70461,United States,(985) 649-3884,30.280617,-89.749781,,,,
Murphy,5529,233 Frontage Road,,Picayune,MS,39466,United States,(601) 799-5322,30.515648,-89.660815,,,,
Murphy,6919,955 Hwy. 98 Bypass,,Columbia,MS,39429,United States,(601) 444-5047,31.24167,-89.81343,,,,
Murphy,6857,948 Hwy. 80 E.,,Clinton,MS,39056,United States,(601) 925-9661,32.32726669,-90.30363464,,,,
Murphy,5707,5528 Hwy. 80 East,,Pearl,MS,39208,United States,(601) 939-9150,32.29009,-90.267381,,,,
Murphy,5736,2709 Greenway Drive,,Jackson,MS,39209,United States,(601) 922-6112,32.17417,-90.16047,,,,
Murphy,8503,11 Tyner Rd.,,Petal,MS,39465,United States,(601) 545-7889,31.134354,-89.697906,,,,
Murphy,6642,151 Market Place Drive,,Richland,MS,39218,United States,(601) 420-2181,32.220553,-90.153389,,,,
Murphy,6683,1827 S. Dr. Martin Luther King Blvd.,,Greenville,MS,38701,United States,(662) 334-1172,33.36823,-91.04075,,,,
Murphy,8543,6394 Ridgewood Rd.,,Jackson,MS,39211,United States,(601) 957-7931,32.398932,-90.14023,,,,
Murphy,6892,458 Hwy. 90,,Waveland,MS,39576,United States,(228) 467-2156,30.3045,-89.3833,,,,
Murphy,6980,5601 South Olive Street,,Pine Bluff,AR,71603,United States,(870) 575-0102,34.172553,-92.005875,,,,
Murphy,7565,5339 Hwy 25,,Flowood,MS,39232,United States,(601) 992-2041,32.352801,-90.024804,,,,
Murphy,6551,1623 Simpson Hwy. 49,,Magee,MS,39111,United States,(601) 849-2226,31.86795,-89.74492,,,,
Murphy,6917,1609 E. Beach Blvd.,,Pass Christian,MS,39571,United States,(228) 452-7301,30.33234,-89.190127,,,,
Murphy,6672,403 Bryant Avenue,,Bryant,AR,72022,United States,(501) 653-2129,34.62237575,-92.49552823,,,,
Murphy,7291,624 US Hwy 82 West,,Indianola,MS,38751,United States,(662) 887-7499,33.45823288,-90.66363525,,,,
Murphy,5508,9348 Hwy. 49 North,,Gulfport,MS,39503,United States,(228) 871-5662,30.422465,-89.091163,,,,
Murphy,6794,1047 Frontage Drive E.,,Wiggins,MS,39577,United States,(601) 928-3108,30.844875,-89.146568,,,,
Murphy,8726,190 Eisenhower Dr.,,Biloxi,MS,39531,United States,(228) 594-2255,30.3947,-88.9922,,,,
Murphy,8765,12600 Chenal Parkway,,Little Rock,AR,72211,United States,(501) 225-6599,34.7539,-92.4123,,,,
Murphy,7102,23800 Chenal Parkway,,Little Rock,AR,72223,United States,(501) 868-7424,34.80879,-92.488712,,,,
Murphy,8754,14701 Cantrell Road,,Little Rock,AR,72223,United States,(501) 868-6618,34.801834,-92.434912,,,,
Murphy,7388,"710 North Davis Ave., Suite W",,Cleveland,MS,38732,United States,(662) 846-7852,33.7565155,-90.71458435,,,,
Murphy,7568,3599 Sangani Blvd,,D'lverville,MS,39540,United States,(228) 354-9147,30.458682,-88.895508,,,,
Murphy,7466,13201 Crystal Hill Rd.,,North Little Rock,AR,72113,United States,(501) 851-1724,34.8297348,-92.39251709,,,,
Murphy,7384,1305 Highway 35 S.,,Forest,MS,39074,United States,(601) 469-5691,32.339259,-89.484288,,,,
Murphy,8797,111 W Pershing Blvd,,North Little Rock,AR,72114,United States,(501) 812-6206,34.779838,-92.26794,,,,
Murphy,8547,1598 Hwy 15 North,,Laurel,MS,39440,United States,(601) 399-0983,31.70907,-89.14957,,,,
Murphy,7031,4448 East McCain,,North Little Rock,AR,72117,United States,(501) 945-2266,34.787921,-92.216133,,,,
Murphy,6739,2164 Harkrider,,Conway,AR,72032,United States,(501) 336-8587,35.108542,-93.061481,,,,
Murphy,7465,400 West Maryland,,Sherwood,AR,72120,United States,(501) 835-4287,34.84006882,-92.23514557,,,,
Murphy,8579,4021 Bienville Blvd.,,Ocean Springs,MS,39564,United States,(228) 875-5136,30.40963,-88.757735,,,,
Murphy,7540,1126 N State Hwy 7,,Dardanelle,AR,72834,United States,(479) 229-1495,35.218816,-93.164662,,,,
Murphy,5813,905 Hwy. 16 W.,,Carthage,MS,39051,United States,(601) 298-1033,32.727315,-89.546938,,,,
Murphy,7290,505 Viola Sanders Brown Dr.,,Greenwood,MS,38930,United States,(662) 455-1727,33.54442,-90.16589,,,,
Murphy,6799,3950 Dave Ward Drive,,Conway,AR,72032,United States,(501) 328-5535,35.071271,-92.495869,,,,
Murphy,8532,3110 Hwy 90,,Gautier,MS,39553,United States,(228) 497-4489,30.393778,-88.660282,,,,
Murphy,6535,101 Wal-Mart Drive,,Morrilton,AR,72110,United States,(501) 354-0423,35.16916656,-92.72496033,,,,
Murphy,6792,1228 Market Street,,Clarksville,AR,72830,United States,(479) 754-8023,35.44957352,-93.46157074,,,,
Murphy,6802,208 S. Rockwood,,Cabot,AR,72023,United States,(501) 843-1533,34.978204,-92.037519,,,,
Murphy,8627,3303 Denny Avenue,,Pascagoula,MS,39581,United States,(228) 938-0575,30.378763,-88.528523,,,,
Murphy,6791,11216 Hwy. 63 S.,,Lucedale,MS,39452,United States,(601) 947-7353,30.901,-88.5979,,,,
Murphy,7174,1002 S. State Street,,Clarksdale,MS,38614,United States,(662) 624-5874,34.1829,-90.5926,,,,
Murphy,6780,1350-A Azalea Drive,,Waynesboro,MS,39367,United States,(601) 735-5078,31.687971,-88.631778,,,,
Murphy,5711,1008 W. Beacon Street,,Philadelphia,MS,39350,United States,(601) 389-2886,32.76924896,-89.12866974,,,,
Murphy,6591,604 Shelia Drive,,West Helena,AR,72390,United States,(870) 572-1574,34.55588,-90.65245,,,,
Murphy,7452,2336 Highway 19 North,,Meridian,MS,39307,United States,(601) 483-9396,32.38510132,-88.75008392,,,,
Murphy,6987,7855-A Moffett Road,,Semmes,AL,36575,United States,(251) 645-4144,30.76298332,-88.22734833,,,,
Murphy,6722,1313 Second Street S.,,Meridian,MS,39301,United States,(601) 485-2724,32.35631561,-88.68223572,,,,
Murphy,6880,1970-B S. University Blvd.,,Mobile,AL,36609,United States,(251) 665-2380,30.65078354,-88.16178131,,,,
Murphy,6678,1964 Highway 65 S.,,Clinton,AR,72031,United States,(501) 745-3944,35.56728363,-92.45200348,,,,
Murphy,5754,3509 E. Race,,Searcy,AR,72143,United States,(501) 305-2165,35.24940872,-91.68802643,,,,
Murphy,7099,14330 Hwy 15S,,Louisville,MS,39339,United States,(662) 773-3477,33.11277,-89.07908,,,,
Murphy,8764,150 Springdale Blvd,,Mobile,AL,36606,United States,(251) 479-9695,30.680157,-88.123329,,,,
Murphy,6723,1091 Industrial Parkway,,Saraland,AL,36571,United States,(251) 679-7067,30.80107,-88.096465,,,,
Murphy,6541,2985 W. 6th Street,,Fayetteville,AR,72704,United States,(479) 582-9044,36.05178408,-94.20250862,,,,
Murphy,8559,3189 W. Wedington Dr.,,Fayetteville,AR,72704,United States,(479) 251-1081,36.07798386,-94.2046814,,,,
Murphy,7123,3951 N. Mall Avenue,,Fayetteville,AR,72703,United States,(479) 444-8237,36.12317,-94.150177,,,,
Murphy,6647,2895 Hwy. 412 E.,,Siloam Springs,AR,72761,United States,(479) 549-3910,36.18188477,-94.51266479,,,,
Murphy,6789,201 House Carlson,,Batesville,MS,38606,United States,(662) 578-0397,34.30933,-89.91452,,,,
Murphy,8513,"7250 W. Sunset Lane, Suite A",,Springdale,AR,72762,United States,(479) 361-9121,36.176345,-94.210944,,,,
Murphy,6619,27521 Wal-Mart Drive,,Daphne,AL,36526,United States,(251) 625-0940,30.625478,-87.907085,,,,
Murphy,6523,207 Deadrick Road,,Forrest City,AR,72335,United States,(870) 633-7393,35.029747,-90.793263,,,,
Murphy,7187,5301 S. Mill,,Pryor,OK,74361,United States,(918) 825-6082,36.2929,-95.3244,,,,
Murphy,6605,1550 S. Lynn Riggs Blvd.,,Claremore,OK,74017,United States,(918) 283-2536,36.29472366,-95.62956053,,,,
Murphy,7506,20390 AL State Hwy. 181,,Fairhope,AL,36532,United States,(251) 929-0695,30.522042,-87.852362,,,,
Murphy,7229,706 W. Rogers Blvd.,,Skiatook,OK,74070,United States,(918) 396-2256,36.3686,-96.0097,,,,
Murphy,6748,1817 S. 8th Street,,Rogers,AR,72756,United States,(479) 631-1474,36.31393051,-94.12576294,,,,
Murphy,6735,1000 W. 7th,,Bay Minette,AL,36507,United States,(251) 580-5189,30.88465,-87.788928,,,,
Murphy,8555,1211 SE Walton Blvd.,,Bentonville,AR,72712,United States,(479) 273-5360,36.33578491,-94.19494629,,,,
Murphy,6529,2112 W. Walnut Streeet,,Rogers,AR,72756,United States,(479) 631-8049,36.333066,-94.149146,,,,
Murphy,6674,1012 Hwy. 12 W.,,Starkville,MS,39759,United States,(662) 338-5324,33.44335175,-88.85076904,,,,
Murphy,7079,140 E. Fort Morgan Road,,Gulf Shores,AL,36542,United States,(251) 540-7602,30.26551628,-87.68696594,,,,
Murphy,5669,203 Wilson Drive,,Senatobia,MS,38668,United States,(662) 560-6469,34.628097,-89.970178,,,,
Murphy,6519,704 Southwest I Street,,Bentonville,AR,72712,United States,(479) 273-3818,36.366406,-94.22227,,,,
Murphy,5720,2180 S. McKenzie Street,,Foley,AL,36535,United States,(251) 971-2411,30.382895,-87.683736,,,,
Murphy,5815,115 Walker Springs Road,,Jackson,AL,36545,United States,(251) 246-1354,31.557708,-87.875208,,,,
Murphy,7566,2528 Jackson Ave,,Oxford,MS,38655,United States,(662) 234-2015,34.361645,-89.565062,,,,
Murphy,8686,25241 Perdido Beach Blvd. #M,,Orange Beach,AL,36561,United States,(251) 981-2780,30.271521,-87.580624,,,,
Murphy,7159,2580 McIngvale Road,,Hernando,MS,38632,United States,(662) 449-3533,34.8227,-89.9721,,,,
Murphy,7455,1311 Hwy. 45S.,,West Point,MS,39773,United States,(662) 494-8440,33.58595,-88.66022,,,,
Murphy,6878,264 W. 7th,,Vinita,OK,74301,United States,(918) 323-0019,36.631432,-95.142832,,,,
Murphy,5702,34321 Hwy. 43,,Thomasville,AL,36784,United States,(334) 636-1161,31.8789244,-87.74528876,,,,
Murphy,6751,2941 South Blue Angel Parkway,,Pensacola,FL,32506,United States,(850) 453-8104,30.361977,-87.359974,,,,
Murphy,7274,1057 Hwy 80 West,,Demopolis,AL,36732,United States,(334) 287-2199,32.49398422,-87.85223389,,,,
Murphy,6977,3880 SE Green County Road,,Bartlesville,OK,74006,United States,(918) 335-2541,36.7392,-95.9308,,,,
Murphy,6509,1913-A Hwy. 45 North,,Columbus,MS,39705,United States,(662) 329-1780,33.51858521,-88.43608093,,,,
Murphy,8736,6701 Pine Forest Rd.,,Pensacola,FL,32505,United States,(850) 944-7502,30.47549,-87.306831,,,,
Murphy,7345,86 McCord Road,,Pontotoc,MS,38863,United States,(662) 489-2249,34.285053,-89.023801,,,,
Murphy,8557,690 N. Navy Blvd.,,Pensacola,FL,32507,United States,(850) 457-2161,30.398525,-87.276819,,,,
Murphy,8666,4544 Mobile Hwy,,Pensacola,FL,32506,United States,(850) 455-8162,30.436315,-87.277489,,,,
Murphy,6746,8980 Pensacola Blvd.,,Pensacola,FL,32534,United States,(850) 476-0185,30.5279,-87.2751,,,,
Murphy,7573,280 Alexander Dr.,,Holly Springs,MS,38635,United States,(662) 551-2002,34.745534,-89.458326,,,,
Murphy,6750,2690 Creighton Road,,Pensacola,FL,32504,United States,(850) 474-9897,30.4951,-87.1915,,,,
Murphy,6607,1115 E. Prospect,,Ponca City,OK,74601,United States,(580) 763-5997,36.738983,-97.071478,,,,
Murphy,5747,3022 Lusk Drive,,Neosho,MO,64850,United States,(417) 451-6412,36.840564,-94.394634,,,,
Murphy,8593,3303 South Alabama Ave,,Monroeville,AL,36460,United States,(251) 575-3573,31.483065,-87.329772,,,,
Murphy,7314,103 Chrystal Plaza Dr.,,New Albany,MS,38652,United States,(662) 539-6096,34.49574,-89.03124,,,,
Murphy,6867,2407 N. Main Street,,Miami,OK,74354,United States,(918) 542-4450,36.9036,-94.8775,,,,
Murphy,8645,4988 US Hwy. 90,,Pace,FL,32571,United States,(850) 995-9610,30.603269,-87.115623,,,,
Murphy,8606,2255 W. Main St.,,Tupelo,MS,38801,United States,(662) 844-2502,34.2556,-88.7408,,,,
Murphy,6741,3789 Gulf Breeze Parkway,,Gulf Breeze,FL,32563,United States,(850) 916-7333,30.3898,-87.0659,,,,
Murphy,5683,1517 US Highway 278 E.,,Amory,MS,38821,United States,(662) 256-3212,33.96735,-88.45753,,,,
Murphy,8770,18501 West Kellogg Blvd,,Goddard,KS,80112,United States,(316) 794-1149,37.662683,-97.553717,,,,
Murphy,7484,1903 E. 17th Ave.,,Hutchinson,KS,67501,United States,(620) 664-9479,38.0709,-97.8643,,,,
Murphy,7483,1907 North 14th Ave.,,Dodge City,KS,67801,United States,(620) 227-5607,37.768881,-100.032911,,,,
Murphy,7523,1910 S. Colorado Street,,Lockhart,TX,78644,United States,(512) 398-3651,39.85588,-97.668309,,,,
Murphy,6877,102 Interchange Drive,,Fulton,MS,38843,United States,(662) 862-6390,34.24217,-88.39864,,,,
Murphy,6610,2336 US Hwy. 19,,Murphy,NC,28906,United States,(828) 835-7255,35.110111,-84.006271,,,,
Murphy,7019,885 Shugart Road,,Dalton,GA,30720,United States,(706) 278-0261,34.790938,-84.997174,,,,
Murphy,6563,2637 N. Hwy. 27,,La Fayette,GA,30728,United States,(706) 639-4961,34.7463,-85.2697,,,,
Murphy,7524,445 Progress Circle,,Blue Ridge,GA,30513,United States,(706) 258-3227,34.877015,-84.322488,,,,
Murphy,7262,386 Sutton Road,,Owens Cross Roads,AL,35763,United States,(256) 533-1313,34.659473,-86.485722,,,,
Murphy,5667,11610-A Memorial Parkway South,,Huntsville,AL,35803,United States,(256) 880-5180,34.616783,-86.568823,,,,
Murphy,7660,2257B GA Hwy 515,,Blairsville,GA,30512,United States,(706) 745-0817,34.8972,-83.9311,,,,
Murphy,6500,2800 B Spring Avenue SW,,Decatur,AL,35603,United States,(256) 301-1734,34.557349,-86.998277,,,,
Murphy,6887,132 Highland Crossing,,East Ellijay,GA,30540,United States,(706) 515-4506,34.65775,-84.48981,,,,
Murphy,7049,13425 Hwy. 27,,Trion,GA,30753,United States,(706) 734-3590,34.5241,-85.3107,,,,
Murphy,5811,1915 Glenn Blvd. SW,,Fort Payne,AL,35968,United States,(256) 845-7728,34.438898,-85.759802,,,,
Murphy,7571,15441 Alabama Highway 24,,Moulton,AL,35650,United States,(256) 974-6031,34.493404,-87.275262,,,,
Murphy,6599,1213 US Hwy. 31 NW,,Hartselle,AL,35640,United States,(256) 773-0420,34.45431137,-86.9478302,,,,
Murphy,5360,440 W. Belmont Dr.,,Calhoun,GA,30701,United States,(706) 629-6790,34.48087814,-84.94467897,,,,
Murphy,7171,13669 Hwy. 43,,Russellville,AL,35653,United States,(256) 332-9948,34.49358368,-87.7279129,,,,
Murphy,6890,1468 Brindlee Mountain Parkway,,Arab,AL,35016,United States,(256) 586-6070,34.342785,-86.502597,,,,
Murphy,8809,1011 Noah Drive,,Jasper,GA,30143,United States,(706) 692-0170,34.4735,-84.4624,,,,
Murphy,5786,11705 US Hwy. 431,,Guntersville,AL,35976,United States,(256) 891-1099,34.301232,-86.279411,,,,
Murphy,7642,302 Donald E Thurmond Pky,,Cleveland,GA,30528,United States,(706) 219-0275,34.5782,-83.7594,,,,
Murphy,6884,2040 US Hwy. 431,,Boaz,AL,35957,United States,(256) 593-0975,34.2151,-86.1567,,,,
Murphy,7041,741 Cartersville Hwy. SE,,Rome,GA,30161,United States,(706) 378-7282,34.2186,-85.1287,,,,
Murphy,6924,1960 W. Main Street,,Centre,AL,35960,United States,(256) 927-5670,34.1611,-85.7142,,,,
Murphy,6770,624 Olive Street,,Cullman,AL,35055,United States,(256) 739-7143,34.15099335,-86.84306335,,,,
Murphy,7273,14 Benton Road,,Travelers Rest,SC,29690,United States,(864) 834-0994,34.96166611,-82.43280029,,,,
Murphy,8695,111 VFW Post Rd.,,Cornelia,GA,30531,United States,(706) 776-1238,34.511488,-83.527117,,,,
Murphy,6774,1634 Sandifer,,Seneca,SC,29678,United States,(864) 885-1161,34.68873215,-82.99732971,,,,
Murphy,5503,125 Market Place Blvd.,,Cartersville,GA,30121,United States,(770) 606-8248,34.20196,-84.7896,,,,
Murphy,7285,4040 GA Hwy. 17,,Eastanollee,GA,30538,United States,(706) 282-0942,34.54852,-83.280794,,,,
Murphy,7131,6136 Whitehorse Road,,Greenville,SC,29611,United States,(864) 269-0057,34.854,-82.4543,,,,
Murphy,7059,25 Tappan Drive,,Taylors,SC,29687,United States,(864) 292-5553,34.9085,-82.3303,,,,
Murphy,6940,1290 Eighteen Mile Road,,Central,SC,29630,United States,(864) 639-6905,34.707508,-82.7603,,,,
Murphy,7132,14065 E. Wade Hampton Blvd.,,Greer,SC,29651,United States,(864) 848-4059,34.949251,-82.197331,,,,
Murphy,8622,215 E. Meighan Blvd.,,Gadsden,AL,35903,United States,(256) 547-5002,34.010486,-85.990449,,,,
Murphy,7130,155 Rainbow Lake Road,,Boiling Springs,SC,29316,United States,(864) 578-2099,35.050713,-81.985143,,,,
Murphy,7323,1553 Rome Hwy.,,Cedartown,GA,30125,United States,(678) 246-1722,34.04607,-85.23714,,,,
Murphy,8556,930 Gilbert Ferry Rd. SE,,Attalla,AL,35954,United States,(256) 538-6501,33.997547,-86.091253,,,,
Murphy,8802,377 Shallowford Rd,,Gainesville,GA,30504,United States,(770) 532-0465,34.293442,-83.847979,,,,
Murphy,8662,5415 Atlanta Hwy.,,Alpharetta,GA,30004,United States,(770) 442-1096,34.152525,-84.251668,,,,
Murphy,6762,3111 Cobb Parkway NW,,Acworth,GA,30101,United States,(678) 574-6852,34.030526,-84.659623,,,,
Murphy,6947,100 Dawn Redwood Drive,,Spartanburg,SC,29307,United States,(864) 579-8895,34.97533,-81.87677,,,,
Murphy,7220,2691 Chastain Meadows Pkwy.,,Marietta,GA,30066,United States,(678) 355-0533,34.0193,-84.5537,,,,
Murphy,6544,30985 US Hwy. 441 S.,,Commerce,GA,30529,United States,(706) 336-0006,34.245769,-83.457914,,,,
Murphy,5670,3948 Grandview Drive,,Simpsonville,SC,29681,United States,(864) 962-0927,34.712794,-82.249708,,,,
Murphy,7553,3853 Buford Drive,,Buford,GA,30519,United States,(770) 945-3673,34.086672,-83.992645,,,,
Murphy,7284,55 Hillside Way,,Dallas,GA,30157,United States,(770) 505-7571,33.93349457,-84.7332077,,,,
Murphy,7407,3255 Sardis Church Rd.,,Buford,GA,30519,United States,(770) 271-3068,34.07933,-83.91836,,,,
Murphy,8706,628 Hwy 28 Bypass,,Anderson,SC,29624,United States,(864) 226-1067,34.485751,-82.668363,,,,
Murphy,6783,17 Satellite Blvd.,,Suwanee,GA,30024,United States,(678) 714-0133,34.0387,-84.0543,,,,
Murphy,8529,2001 Hwy 78 E,,Jasper,AL,35501,United States,(205) 384-3380,33.84501,-87.25185,,,,
Murphy,7170,1625-A Pelham Road S.,,Jacksonville,AL,36265,United States,(256) 435-4036,33.7876,-85.761927,,,,
Murphy,7507,138 Springville Station Blvd,,Springville,AL,35146,United States,(205) 467-3913,33.779153,-86.432723,,,,
Murphy,6903,1570 Anderson Hwy.,,Hartwell,GA,30643,United States,(706) 376-5137,34.351483,-82.905534,,,,
Murphy,7554,1787 Cobb Parkway South,,Marietta,GA,30060,United States,(770) 956-9886,33.91,-84.4886,,,,
Murphy,7073,2625 Pleasant Hill Road,,Duluth,GA,30096,United States,(678) 475-9676,33.9698,-84.1462,,,,
Murphy,5624,5564 McClellan Blvd.,,Anniston,AL,36206,United States,(256) 847-4040,33.7197,-85.8178,,,,
Murphy,6839,"P.O. Box 1091, 670 Hwy. 78",,Sumiton,AL,35148,United States,(205) 648-1689,33.743851,-87.04214,,,,
Murphy,7221,1410 Lawrenceville Hwy.,,Lawrenceville,GA,30044,United States,(678) 225-4112,33.9385,-84.0285,,,,
Murphy,6766,438 Atlanta Hwy. NW,,Winder,GA,30680,United States,(770) 307-2832,33.991941,-83.756231,,,,
Murphy,7020,3950 Hwy. 29 NW,,Lilburn,GA,30047,United States,(770) 381-9952,33.9054,-84.1119,,,,
Murphy,6942,6425 Hwy. 78 W.,,Bremen,GA,30110,United States,(770) 537-0536,33.70913,-85.16328,,,,
Murphy,7548,1098 Thornton Rd,,Lithia Springs,GA,30122,United States,(770) 745-3407,33.7755,-84.60405,,,,
Murphy,6891,916 Odum Road,,Gardendale,AL,35071,United States,(205) 608-3699,33.64841,-86.824516,,,,
Murphy,6952,145 Vaughan Lane,,Pell City,AL,35125,United States,(205) 338-1106,33.60992,-86.27972,,,,
Murphy,7052,1759 Rockbridge Road,,Stone Mountain,GA,30087,United States,(770) 498-2016,33.8271,-84.1252,,,,
Murphy,5746,3184 Hwy. 171 N.,,Fayette,AL,35555,United States,(205) 932-2130,33.74317673,-87.80306533,,,,
Murphy,6758,45 Plaza Lane,,Oxford,AL,36203,United States,(256) 831-2654,33.60061646,-85.83456421,,,,
Murphy,8626,1341 Walker Chapel Rd.,,Fultondale,AL,35068,United States,(205) 849-0513,33.60939,-86.804181,,,,
Murphy,7470,309 Buffalo-West Spring Hwy,,Union,SC,29379,United States,(864) 427-3567,34.73101,-81.63899,,,,
Murphy,7044,4231 Atlanta Hwy.,,Loganville,GA,30052,United States,(678) 639-0055,33.8419,-83.9079,,,,
Murphy,7022,121 Roebuck Plaza Drive,,Birmingham,AL,35206,United States,(205) 838-2277,33.588151,-86.701375,,,,
Murphy,7252,3437 Centerville Hwy.,,Snellville,GA,30039,United States,(678) 344-2799,33.80598831,-84.04447174,,,,
Murphy,7555,8559 Whitfield Ave,,Leeds,AL,35094,United States,(305) 699-7005,33.56088,-86.5209,,,,
Murphy,7477,924 East Main,,Laurens,SC,29360,United States,(864) 682-3206,34.49200058,-81.9809494,,,,
Murphy,6788,1031 Jordan Drive,,Athens,GA,30606,United States,(706) 548-2670,33.919482,-83.443345,,,,
Murphy,8759,864 Cleveland Avenue,,East Point,GA,30344,United States,(404) 767-6821,33.681107,-84.416931,,,,
Murphy,8577,4400 Lexington Rd.,,Athens,GA,30605,United States,(706) 316-2740,33.931642,-83.309959,,,,
Murphy,7067,5425 Fairington Road,,Lithonia,GA,30038,United States,(678) 518-1306,33.7028,-84.1679,,,,
Murphy,7032,2040 Spring Street West,,Monroe,GA,30655,United States,(770) 267-4011,33.7962,-83.7435,,,,
Murphy,7283,1725 S. Hwy. 27,,Carrollton,GA,30117,United States,(770) 838-4440,33.54398,-85.07475,,,,
Murphy,8761,2920 Anvil Block Blvd,,Ellenwood,GA,30294,United States,(404) 363-3222,33.634366,-84.294303,,,,
Murphy,7413,6135 Old National Hwy,,College Park,GA,30349,United States,(770) 996-0471,33.5885,-84.46885,,,,
Murphy,7071,210 Haynes Street,,Talladega,AL,35160,United States,(256) 315-0064,33.439832,-86.08168,,,,
Murphy,7380,7203 Aaron Aronov Dr.,,Fairfield,AL,35064,United States,(205) 925-0365,33.465657,-86.913577,,,,
Murphy,6960,6025 Jonesboro Road,,Morrow,GA,30260,United States,(770) 961-4912,33.5903,-84.3375,,,,
Murphy,5502,5620 N. Henry Blvd.,,Stockbridge,GA,30281,United States,(770) 506-4311,33.55372435,-84.25916021,,,,
Murphy,5369,508A Bypass 72 NW,,Greenwood,SC,29649,United States,(864) 227-0590,34.2061,-82.19123,,,,
Murphy,7545,16073 Highway 280,,Chelsea,AL,35043,United States,(205) 678-0590,33.349613,-86.619659,,,,
Murphy,7572,4230 Salem Rd.,,Covington,GA,30016,United States,(770) 784-0804,33.576496,-83.962293,,,,
Murphy,7542,756 Academy Drive,,Bessemer,AL,35022,United States,(205) 428-2447,33.361648,-86.99882,,,,
Murphy,7051,2191 Pelham Parkway,,Pelham,AL,35124,United States,(205) 739-0051,33.339388,-86.792221,,,,
Murphy,7389,1440 Hudson Bridge Rd.,,Stockbridge,GA,30281,United States,(678) 289-2077,33.50595,-84.23449,,,,
Murphy,7156,11461 Tara Blvd.,,Hampton,GA,30228,United States,(770) 603-1267,33.44418,-84.32383,,,,
Murphy,6679,175 Willow Lane,,McDonough,GA,30253,United States,(770) 898-3390,33.430732,-84.182815,,,,
Murphy,6552,2802 Main Street,,Newberry,SC,29108,United States,(803) 321-6693,34.28256,-81.595687,,,,
Murphy,7495,4969 Bill Garner Pkwy.,,Locust Grove,GA,30248,United States,(678) 432-9917,33.353435,-84.115,,,,
Murphy,7030,4214 Hwy. 431,,Roanoke,AL,36274,United States,(334) 863-6218,33.164,-85.3672,,,,
Murphy,5593,5700 McFarland Blvd.,,Northport,AL,35476,United States,(205) 339-3876,33.23588,-87.613144,,,,
Murphy,6694,169 Super Center Drive,,Calera,AL,35040,United States,(205) 668-2778,33.14555,-86.74982,,,,
Murphy,6893,1469 North Expressway,,Griffin,GA,30223,United States,(770) 412-7004,33.27302,-84.29382,,,,
Murphy,5684,2507 Hwy. 280,,Alexander City,AL,35010,United States,(256) 234-0415,32.940243,-85.978213,,,,
Murphy,7201,110 Wal-Mart Dr.,,Eatonton,GA,31024,United States,(706) 484-1157,33.29583,-83.386343,,,,
Murphy,7474,1120 Dutch Folk Rd.,,Irmo,SC,29063,United States,(803) 407-0344,34.125455,-81.222382,,,,
Murphy,6733,2211 Harrison Road NE,,Thomson,GA,30824,United States,(706) 595-0587,33.48255,-82.50291,,,,
Murphy,5686,1411 7th Street South,,Clanton,AL,35045,United States,(205) 280-4542,32.81879941,-86.60859502,,,,
Murphy,5732,3507 20th Avenue,,Valley,AL,36854,United States,(334) 768-0172,32.83618164,-85.17726898,,,,
Murphy,8538,210 Rickey Lane,,Columbia,SC,29229,United States,(803) 788-0061,34.141543,-80.940801,,,,
Murphy,8684,4448 Sunset Blvd,,Lexington,SC,29072,United States,(803) 356-0950,34.013301,-81.167873,,,,
Murphy,6767,4433 Washington Road,,Evans,GA,30809,United States,(706) 863-5285,33.5444,-82.142,,,,
Murphy,6862,851 N. Church Street,,Thomaston,GA,30286,United States,(706) 647-0158,32.912793,-84.331707,,,,
Murphy,7460,1330 Bush River Road,,Columbia,SC,29210,United States,(803) 772-0310,34.03282,-81.10725,,,,
Murphy,8611,4873 Augusta Rd.,,Lexington,SC,29073,United States,(803) 358-0190,33.97749,-81.191691,,,,
Murphy,8578,4009 Gateway Blvd.,,Grovetown,GA,30813,United States,(706) 869-8874,33.481183,-82.196105,,,,
Murphy,6615,10058 Two Notch Road,,Columbia,SC,29223,United States,(803) 419-5695,34.11397062,-80.89046993,,,,
Murphy,7048,2586 North Columbia Street,,Milledgeville,GA,31061,United States,(478) 451-5246,33.11662,-83.262387,,,,
Murphy,5793,2365 Augusta Road,,West Columbia,SC,29169,United States,(803) 926-1778,33.981941,-81.100769,,,,
Murphy,8566,224 Bobby Jones Expressway,,Augusta,GA,30907,United States,(706) 869-8613,33.507088,-82.091829,,,,
Murphy,8524,108 Knoll Station Dr.,,Lexington,SC,29073,United States,(803) 996-0714,33.912656,-81.225829,,,,
Murphy,7639,3334 Wrightsboro Rd,,Augusta,GA,30909,United States,(706) 736-8384,33.4664,-82.0712,,,,
Murphy,6900,1211 Knox Avenue,,North Augusta,SC,29841,United States,(803) 202-0038,33.502977,-81.958716,,,,
Murphy,8665,3575 Richland Ave. W.,,Aiken,SC,29801,United States,(803) 648-5187,33.563758,-81.767413,,,,
Murphy,7057,7530 Garners Ferry Road,,Columbia,SC,29209,United States,(803) 647-1414,33.9622,-80.9412,,,,
Murphy,7038,5935 Zebulon Road,,Macon,GA,31210,United States,(478) 471-0220,32.8798,-83.7566,,,,
Murphy,8519,1402 Gray Hwy.,,Macon,GA,31211,United States,(478) 746-7318,32.86545,-83.61297,,,,
Murphy,6562,1717-A S. College Street,,Auburn,AL,36832,United States,(334) 502-7196,32.571236,-85.499405,,,,
Murphy,6715,6040 Harrison Road,,Macon,GA,31206,United States,(478) 785-2358,32.8095,-83.7216,,,,
Murphy,7336,4100 Phillips Hwy.,,Jacksonville,FL,32207,United States,(904) 367-4287,30.281961,-81.630093,,,,
Murphy,7129,8802 Beach Blvd.,,Jacksonville,FL,32216,United States,(904) 565-1752,30.286305,-81.563047,,,,
Murphy,7144,6830-1 Normandy Blvd.,,Jacksonville,FL,32205,United States,(904) 781-7998,30.30187,-81.76072,,,,
Murphy,8701,6706 103rd St.,,Jacksonville,FL,32210,United States,(904) 573-0326,30.247833,-81.753901,,,,
Murphy,8659,11930 Beach Blvd.,,Jacksonville,FL,32246,United States,(904) 997-8866,30.287163,-81.503718,,,,
Murphy,6941,11900 Atlantic Blvd. #100,,Jacksonville,FL,32225,United States,(904) 620-0163,30.319084,-81.490675,,,,
Murphy,7564,"909 Blanding Blvd,",,Orange Park,FL,32065,United States,(904) 272-5808,30.139783,-81.771648,,,,
Murphy,6686,1495 County Road 220,,Orange Park,FL,32003,United States,(904) 541-0221,30.101566,-81.707269,,,,
Murphy,7406,1570 Branan Field Rd.,,Middleburg,FL,32068,United States,(904) 291-4592,30.11481,-81.83144,,,,
Murphy,6953,464026 S. R. 200,,Yulee,FL,32097,United States,(904) 277-8688,30.62135,-81.53333,,,,
Murphy,7411,9292 S. State Rd. 228,,MacClenny,FL,32063,United States,(904) 259-8521,30.264873,-82.108652,,,,
Murphy,6634,6438 Hwy. 40 East,,St. Marys,GA,31558,United States,(912) 882-3570,30.775704,-81.620138,,,,
Murphy,7245,14550 US Hwy.  301 S.,,Starke,FL,32091,United States,(904) 368-1172,29.92168,-82.128,,,,
Murphy,6818,1006 State Road 19 S.,,Palatka,FL,32177,United States,(386) 328-3127,29.6361,-81.6799,,,,
Murphy,8728,6323 NW 23rd St,,Gainesville,FL,32653,United States,(352) 373-0802,29.7125,-82.3556,,,,
Murphy,5671,2659 W. US Hwy. 90,,Lake City,FL,32055,United States,(386) 719-9277,30.180125,-82.675927,,,,
Murphy,5779,136 Altama Connector,,Brunswick,GA,31525,United States,(912) 554-2232,31.21526566,-81.48376065,,,,
Murphy,6736,2405 Memorial Drive,,Waycross,GA,31503,United States,(912) 338-0766,31.19748,-82.323024,,,,
Murphy,6657,7000 US Hwy. 129 N.,,Live Oak,FL,32060,United States,(386) 330-5212,30.31828082,-82.97048792,,,,
Murphy,7091,4986 East Silver Springs Blvd.,,Ocala,FL,34470,United States,(352) 236-2854,29.2104651,-82.0660723,,,,
Murphy,7361,1903 N. Nova Rd.,,Holly Hill,FL,32117,United States,(386) 672-2680,29.24742,-81.06689,,,,
Murphy,8576,17 Cedar Radial Pass,,Ocala,FL,34472,United States,(352) 680-0439,29.115558,-82.025037,,,,
Murphy,5619,1120 N. First Street,,Jesup,GA,31545,United States,(912) 530-7753,31.617417,-81.873104,,,,
Murphy,8581,1691 N. Woodland Blvd.,,Deland,FL,32720,United States,(386) 734-9610,29.059414,-81.303881,,,,
Murphy,7544,1596 Dunlawton Ave,,Port Orange,FL,32127,United States,(386) 761-7010,29.114966,-81.024394,,,,
Murphy,8652,2126 N. Young Blvd.,,Chiefland,FL,32626,United States,(352) 493-0902,29.499109,-82.871232,,,,
Murphy,7128,9558 SW Hwy. 200,,Ocala,FL,34481,United States,(352) 237-8952,29.059,-82.2781,,,,
Murphy,5819,17840 SE 112th Court Road,,Summerfield,FL,34491,United States,(352) 347-2816,28.96336365,-81.96633911,,,,
Murphy,8630,4279 E. CR 466,,Oxford,FL,34484,United States,(352) 748-4789,28.927394,-82.031563,,,,
Murphy,6820,11004 N. Williams Street,,Dunnellon,FL,34432,United States,(352) 489-9277,29.0602,-82.4546,,,,
Murphy,6609,1801 Martin Luther King,,Leesburg,FL,34748,United States,(352) 365-1347,28.84095,-81.898765,,,,
Murphy,8623,3300 Inner Perimeter Rd.,,Valdosta,GA,31602,United States,(229) 247-0590,30.882725,-83.290084,,,,
Murphy,8518,277 Norman Dr.,,Valdosta,GA,31601,United States,(229) 241-1117,30.82568,-83.31567,,,,
Murphy,5526,17040 US Hwy 441,,Mt. Dora,FL,32757,United States,(352) 735-5113,28.81946564,-81.67166138,,,,
Murphy,5752,1448 SE Bowens Mill Road,,Douglas,GA,31533,United States,(912) 393-0041,31.48713,-82.84908,,,,
Murphy,6981,1661 Rinehart Road,,Sanford,FL,32771,United States,(407) 302-4211,28.803954,-81.330494,,,,
Murphy,7172,978 W. Parker Street,,Baxley,GA,31513,United States,(912) 367-6283,31.784582,-82.365113,,,,
Murphy,6958,2419 E. Gulf to Lake Hwy. W.,,Inverness,FL,34453,United States,(352) 726-4050,28.855693,-82.394164,,,,
Murphy,7028,1980 South Jefferson Street,,Perry,FL,32348,United States,(850) 223-2533,30.101328,-83.582539,,,,
Murphy,6684,6004 Ogeechee Road,,Savannah,GA,31419,United States,(912) 920-4423,31.998286,-81.257355,,,,
Murphy,6830,2161 W. C-48,,Bushnell,FL,33513,United States,(352) 568-7539,28.66835785,-82.13932037,,,,
Murphy,7173,138 E. Jarman Street,,Hazlehurst,GA,31539,United States,(912) 379-9442,31.8645,-82.5866,,,,
Murphy,6914,4279 Alafaya Trail,,Oviedo,FL,32765,United States,(407) 365-1918,28.6125,-81.2075,,,,
Murphy,8633,8600 W Colonial Dr.,,Orlando,FL,32818,United States,(407) 294-1077,28.55195,-81.50221,,,,
Murphy,8603,1555 Pooler Pkwy.,,Pooler,GA,31322,United States,(912) 748-9449,32.092369,-81.274843,,,,
Murphy,7281,1390 Johns Lake Road,,Clermont,FL,34711,United States,(352) 242-9010,28.528129,-81.731378,,,,
Murphy,8597,6150 S. Goldenrod Rd.,,Orlando,FL,32822,United States,(407) 826-4060,28.545423,-81.285889,,,,
Murphy,7155,213 S. Chickasaw Trail,,Orlando,FL,32825,United States,(407) 658-6329,28.54093552,-81.27671814,,,,
Murphy,6707,5901 Metro West,,Orlando,FL,32811,United States,(407) 822-9393,28.51424789,-81.46138763,,,,
Murphy,6515,120 Pooler Parkway,,Pooler,GA,31322,United States,(912) 748-7088,32.141664,-81.243648,,,,
Murphy,8567,100 Magellan Blvd.,,Port Wentworth,GA,31407,United States,(912) 964-7743,32.196684,-81.197941,,,,
Murphy,5733,3350 Columbia Blvd.,,Titusville,FL,32780,United States,(321) 268-0027,28.554377,-80.844504,,,,
Murphy,6845,19365 Wiscon Road,,Brooksville,FL,34601,United States,(352) 544-1250,28.53474,-82.407992,,,,
Murphy,7047,124 Benjamin H. Hill Drive SW,,Fitzgerald,GA,31750,United States,(229) 424-9233,31.691763,-83.247698,,,,
Murphy,6720,1852 US Hwy. 82 W.,,Tifton,GA,31794,United States,(229) 386-4248,31.445091,-83.542629,,,,
Murphy,6557,3103 E. 1st Street,,Vidalia,GA,30474,United States,(912) 538-1115,32.204,-82.36338,,,,
Murphy,8792,102 Lisa Street,,Rincon,GA,31326,United States,(912) 826-6889,32.2749815,-81.2271067,,,,
Murphy,7190,3256 Vineland Road,,Kissimmee,FL,34746,United States,(407) 396-8534,28.344167,-81.486048,,,,
Murphy,8512,505 Veterans Pkwy S.,,Moultrie,GA,31788,United States,(229) 891-2295,31.17426,-83.76046,,,,
Murphy,6725,1461 East Osceola,,Kissimmee,FL,34744,United States,(407) 847-9791,28.3405,-81.3859,,,,
Murphy,8746,11471 Highway 319 N,,Thomasville,GA,31757,United States,(229) 226-3680,30.861213,-83.946662,,,,
Murphy,6863,4480 13th Street,,St. Cloud,FL,34769,United States,(407) 891-9961,28.2547,-81.3182,,,,
Murphy,6759,689 Brannen Street,,Statesboro,GA,30458,United States,(912) 489-2161,32.433334,-81.761608,,,,
Murphy,6836,7623 Gall Blvd.,,Zephyrhills,FL,33541,United States,(813) 715-9797,28.268476,-82.188979,,,,
Murphy,7475,12700 US Hwy 19,,Port Richey,FL,34667,United States,(727) 863-6950,28.341511,-82.698594,,,,
Murphy,7103,902 Cypress Parkway,,Kissimmee,FL,34759,United States,(407) 932-3182,28.14452,-81.44749,,,,
Murphy,5659,36115 US Hwy. 27 N.,,Haines City,FL,33844,United States,(863) 421-2770,28.1252079,-81.6389389,,,,
Murphy,6697,3501 Apalachee Parkway,,Tallahassee,FL,32311,United States,(850) 878-2365,30.428,-84.2162,,,,
Murphy,6913,2888 Kerry Forest Parkway,,Tallahassee,FL,32312,United States,(850) 893-6600,30.5425,-84.228,,,,
Murphy,6547,5720 US Hwy. 98 N.,,Lakeland,FL,33809,United States,(863) 815-4324,28.117757,-81.974415,,,,
Murphy,6660,8653 US Hwy. 19,,Port Richey,FL,34668,United States,(727) 859-0380,28.283782,-82.716177,,,,
Murphy,6837,8520 N. Wickham Road,,Melbourne,FL,32940,United States,(321) 254-9479,28.230534,-80.724315,,,,
Murphy,7200,1545 Indian Drive,,Eastman,GA,31023,United States,(478) 374-2229,32.17968,-83.18027,,,,
Murphy,7199,337 8th Avenue NE,,Cairo,GA,39827,United States,(229) 378-3128,30.8856,-84.2042,,,,
Murphy,7072,2118 Hwy. 92 West,,Auburndale,FL,33823,United States,(863) 551-9843,28.0577,-81.8136,,,,
Murphy,8680,801 3rd. Street,,Winter Haven,FL,33880,United States,(863) 293-1768,28.012671,-81.730857,,,,
Murphy,7154,3940 N. Wickham Road,,Melbourne,FL,32935,United States,(321) 757-3061,28.171504,-80.672342,,,,
Murphy,7205,408 S. Main Street,,Swainsboro,GA,30401,United States,(478) 237-2747,32.5894,-82.3274,,,,
Murphy,8670,3891 W. Tennessee St.,,Tallahassee,FL,32304,United States,(850) 219-0048,30.458607,-84.354316,,,,
Murphy,7338,29 Mike Stewart Dr.,,Crawfordville,FL,32327,United States,(850) 926-2031,30.216082,-84.362386,,,,
Murphy,7282,7460 Cypress Garden Blvd.,,Winter Haven,FL,33884,United States,(863) 324-4750,27.97790146,-81.64644623,,,,
Murphy,5787,3006 Sarno Road,,Melbourne,FL,32934,United States,(321) 254-6221,28.122045,-80.672676,,,,
Murphy,5595,2512 James L. Redman Parkway,,Plant City,FL,33566,United States,(813) 659-1377,27.986411,-82.121014,,,,
Murphy,8687,1040 East Eau Gallie Blvd,,Melbourne,FL,,United States,(321) 777-1977,28.138529,-80.581825,,,,
Murphy,6969,6228 Gunn Hwy.,,Tampa,FL,33625,United States,(813) 969-4200,28.0643,-82.5524,,,,
Murphy,8694,6801 N. Church St.,,Mulberry,FL,,United States,(863) 647-1717,27.924739,-81.973862,,,,
Murphy,8601,252 Cordele Rd.,,Albany,GA,31705,United States,(229) 888-0147,31.57951,-84.08831,,,,
Murphy,5729,2048 Sam Walton Way,,Lake Wales,FL,33898,United States,(863) 678-1684,27.89313,-81.55427,,,,
Murphy,6838,1110 E. Brandon Blvd.,,Brandon,FL,33511,United States,(813) 654-8354,27.93722153,-82.26541901,,,,
Murphy,6573,825 Palm Bay Road,,West Melbourne,FL,32904,United States,(321) 729-4376,28.035802,-80.648844,,,,
Murphy,7468,2419 Hwy 80 West,,Dublin,GA,31021,United States,(478) 272-3505,32.55071,-82.97348,,,,
Murphy,6861,1880 Pat Thomas Parkway,,Quincy,FL,32351,United States,(850) 627-8366,30.5564,-84.5929,,,,
Murphy,6633,2829 Ledo Road,,Albany,GA,31707,United States,(229) 639-0331,31.6225874,-84.21866401,,,,
Murphy,7329,9023 Gibsonton Dr.,,Gibsonton,FL,33534,United States,(813) 741-1428,27.84893608,-82.35530853,,,,
Murphy,7505,502 E. Alice St.,,Bainbridge,GA,39819,United States,(229) 246-7883,30.891494,-84.572063,,,,
Murphy,6714,8003 US Hwy. 19,,Pinellas Park,FL,33781,United States,(727) 568-0006,27.8452,-82.6879,,,,
Murphy,7444,"4920 State Rd, 674",,Wimauma,FL,33598,United States,(813) 634-4532,27.71281,-82.33257,,,,
Murphy,5788,1999 US Hwy. 1,,Sebastian,FL,32958,United States,(772) 581-0701,27.829571,-80.479522,,,,
Murphy,7260,2100 Bells Hwy,,Walterboro,SC,29488,United States,(843) 539-1585,32.932732,-80.690785,,,,
Murphy,8594,993 US 27 North,,Avon Park,FL,33825,United States,(863) 452-0533,27.60612,-81.51522,,,,
Murphy,6698,1484 US Hwy. 17 N.,,Wauchula,FL,33873,United States,(863) 773-4033,27.5676,-81.8153,,,,
Murphy,8742,1429 Sam Nunn Blvd.,,Perry,GA,31069,United States,(478) 218-5270,32.470153,-83.743201,,,,
Murphy,8602,1698 E. Lamar St.,,Americus,GA,31709,United States,(229) 928-5925,32.06444,-84.20253,,,,
Murphy,5816,1500 A North Liberty Street,,Waynesboro,GA,30830,United States,(706) 437-8488,33.10723,-82.0258,,,,
Murphy,7120,224 Wal-Mart Circle,,Sandersville,GA,31082,United States,(478) 553-1833,32.951627,-82.809657,,,,
Murphy,7317,501 Booth Road,,Warner Robins,GA,31088,United States,(478) 929-5414,32.5929,-83.61319,,,,
Murphy,8673,3293 US Hwy 27 N.,,Sebring,FL,33870,United States,(863) 314-0979,27.511977,-81.494596,,,,
Murphy,7257,3969 West Ashley Circle,,Charleston,SC,29407,United States,(843) 571-2866,32.822846,-80.079448,,,,
Murphy,8568,2718 Watson Blvd.,,Warner Robins,GA,31093,United States,(478) 953-6647,32.61895,-83.67184,,,,
Murphy,8748,10655 Dorchester Rd,,Summerville,SC,29485,United States,(843) 832-9008,32.944383,-80.152473,,,,
Murphy,7322,512 10th St. East,,Palmetto,FL,34221,United States,(941) 729-2717,27.52135,-82.55856,,,,
Murphy,8552,8599 Rivers Ave.,,North Charleston,SC,29406,United States,(843) 553-1178,32.96473312,-80.04419708,,,,
Murphy,6622,603 St. James Avenue,,Goose Creek,SC,29445,United States,(843) 818-2348,33.034025,-80.061725,,,,
Murphy,6742,2253 Hwy. 71 S.,,Marianna,FL,32448,United States,(850) 482-6149,30.72858,-85.18563,,,,
Murphy,5709,5110 Okeechobee Road,,Ft. Pierce,FL,34947,United States,(772) 468-3744,27.420037,-80.377045,,,,
Murphy,6902,2769 S.E. Hwy. 70,,Arcadia,FL,34266,United States,(863) 491-5065,27.20829964,-81.82756805,,,,
Murphy,5741,2109 S. Parrott Avenue,,Okeechobee,FL,34974,United States,(863) 357-0401,27.22299,-80.8294,,,,
Murphy,7259,415 Drive In Lane,,Moncks Corner,SC,29461,United States,(843) 761-1217,33.20795,-79.98389,,,,
Murphy,7001,160 NW California Blvd.,,Port Saint Lucie,FL,34986,United States,(772) 344-2944,27.3143,-80.4006,,,,
Murphy,7497,3901 Holy Spirit Lane,,Osprey,FL,34229,United States,(941) 966-4595,27.194144,-82.488947,,,,
Murphy,6939,2737 North Road,,Orangeburg,SC,29115,United States,(803) 531-8285,33.525155,-80.888919,,,,
Murphy,7360,355 Kings Hwy.,,Pt. Charlotte,FL,33983,United States,(941) 627-0138,27.023847,-82.046027,,,,
Murphy,6740,3370 S. Oates Street,,Dothan,AL,36301,United States,(334) 673-9393,31.1788,-85.402,,,,
Murphy,7328,15500 Tamiami Trail,,North Port,FL,34287,United States,(941) 423-7097,27.038816,-82.220264,,,,
Murphy,7224,4140 Tamiami Trail South,,Venice,FL,34293,United States,(941) 492-5346,27.0497,-82.3961,,,,
Murphy,8598,19020 Murdock Circle,,Port Charlotte,FL,33948,United States,(941) 624-0260,27.01131,-82.14001,,,,
Murphy,7478,3182 South Eufaula Ave.,,Eufaula,AL,36027,United States,(334) 687-0190,31.84477,-85.167616,,,,
Murphy,6520,1623 Main Street,,Chipley,FL,32428,United States,(850) 415-4023,30.752968,-85.549661,,,,
Murphy,6810,4454 Montgomery Hwy.,,Dothan,AL,36303,United States,(334) 677-7030,31.2656,-85.4423,,,,
Murphy,5364,731 N. Tyndall Parkway,,Callaway,FL,32404,United States,(850) 763-5732,30.15968383,-85.59120419,,,,
Murphy,5797,2981 S. McCall Road,,Englewood,FL,34224,United States,(941) 473-9139,26.934043,-82.310481,,,,
Murphy,7479,2107 South Hwy 77,,Lynn Haven,FL,32444,United States,(850) 271-8472,30.225817,-85.648744,,,,
Murphy,7456,26359 Jones Loop Rd.,,Punta Gorda,FL,33950,United States,(941) 639-1875,26.89493,-82.01197,,,,
Murphy,7448,6469 Gateway Rd.,,Columbus,GA,31909,United States,(706) 565-1921,32.536366,-84.877038,,,,
Murphy,7422,2020 Paxville Hwy.,,Manning,SC,29102,United States,(803) 433-0033,33.69940186,-80.22738647,,,,
Murphy,8688,9950 Hutchinson Blvd.,,Panama City Beach,FL,32407,United States,(850) 233-8333,30.179899,-85.80094,,,,
Murphy,6885,1579 S. US Hwy. 231,,Ozark,AL,36360,United States,(334) 774-2558,31.443698,-85.6508,,,,
Murphy,8595,520 Pine Island Dr.,,N. Fort Myers,FL,33903,United States,(239) 997-0947,26.682066,-81.902777,,,,
Murphy,5716,600 Bollweevil Circle #9,,Enterprise,AL,36330,United States,(334) 347-0615,31.315524,-85.828692,,,,
Murphy,5706,2517 Lee Blvd.,,Lehigh Acres,FL,33971,United States,(239) 303-9076,26.61470032,-81.6647644,,,,
Murphy,6852,1617 Del Prado Blvd. S,,Cape Coral,FL,33990,United States,(239) 458-5397,26.622,-81.941,,,,
Murphy,6920,4712 Colonial Blvd.,,Fort Myers,FL,33912,United States,(239) 275-4379,26.61198425,-81.81510162,,,,
Murphy,6937,2350 Wal-Mart Blvd.,,Sumter,SC,29150,United States,(803) 905-5566,33.95778,-80.38973,,,,
Murphy,7362,103 N. Congress Ave.,,Lake Park,FL,33403,United States,(561) 845-7830,26.79428291,-80.08653259,,,,
Murphy,6841,9950 Belvedere Road,,Royal Palm Beach,FL,33411,United States,(561) 204-2865,26.691065,-80.199465,,,,
Murphy,5781,1224 US Hwy. 331 S.,,DeFuniak Springs,FL,32435,United States,(850) 892-2162,30.70462227,-86.12326813,,,,
Murphy,7095,1050 North Military Trail,,West Palm Beach,FL,33409,United States,(561) 686-3251,26.6928,-80.1115,,,,
Murphy,5743,1418 Hwy. 231 S.,,Troy,AL,36081,United States,(334) 566-3161,31.778716,-85.938703,,,,
Murphy,7528,2745 10th Avenue North,,Palm Springs,FL,33461,United States,(561) 642-2657,26.628393,-80.084002,,,,
Murphy,6712,16211 S. Military Trail,,Delray Beach,FL,33484,United States,(561) 495-0619,26.43569946,-80.12246704,,,,
Murphy,5501,15051 Emerald Coast Parkway,,Destin,FL,32541,United States,(850) 650-5844,30.38806534,-86.44900513,,,,
Murphy,8707,1202 E. John Sims Parkway,,Niceville,FL,32578,United States,(850) 678-0122,30.14887,-86.461204,,,,
Murphy,7394,1997 Dr. MLK Jr Expressway,,Andalusia,AL,36420,United States,(334) 222-3846,31.318346,-86.453461,,,,
Murphy,7445,6630 Collier Blvd,,Naples,FL,34114,United States,(239) 732-7353,26.058229,-81.698756,,,,
Murphy,6825,2320 W. Atlantic Blvd.,,Pompano Beach,FL,33069,United States,(954) 971-1324,26.2312,-80.154,,,,
Murphy,7501,10620 Chantilly Parkway,,Montgomery,AL,36117,United States,(334) 277-5017,32.335945,-86.173557,,,,
Murphy,6728,6401 Atlanta Hwy.,,Montgomery,AL,36117,United States,(334) 396-8749,32.38315964,-86.18618011,,,,
Murphy,7556,3809 Eastern Blvd.,,Montgomery,AL,36116,United States,(334) 244-9168,32.3303,-86.2326,,,,
Murphy,7339,805 Ann St.,,Montgomery,AL,36107,United States,(334) 834-9674,32.371523,-86.270207,,,,
Murphy,6782,2950 Pepperell Parkway,,Opelika,AL,36801,United States,(334) 745-2266,32.506842,-86.214088,,,,
Murphy,6907,4536 US Hwy. 231,,Wetumpka,AL,36092,United States,(334) 514-0714,32.50718689,-86.21417999,,,,
Murphy,7409,9358 Navarre Pkwy,,Navarre,FL,32566,United States,(850) 936-5327,30.4102993,-86.83080292,,,,
Murphy,7087,701 Willow Lane,,Greenville,AL,36037,United States,(334) 382-0036,31.850217,-86.643799,,,,
Murphy,7502,35 Kelley Blvd.,,Millbrook,AL,36054,United States,(334) 285-5437,32.479858,-86.361916,,,,
Murphy,7084,5851 Northwest 177 Street,,Hialeah,FL,33015,United States,(305) 826-8219,25.9348,-80.295,,,,
Murphy,7596,17650 NW 2nd Ave,,Miami Gardens,FL,33056,United States,(305) 654-7288,25.93566099,-80.20716,,,,
Murphy,8542,2189 Cobbs Ford Rd.,,Prattville,AL,36066,United States,(334) 285-1405,32.460162,-86.415341,,,,
Murphy,6507,9203 NW 77th Avenue,,Hialeah Gardens,FL,33016,United States,(305) 818-1023,25.85739,-80.32337,,,,
Murphy,8646,2355 State Rd. 44,,New Smyrna Beach,FL,32168,United States,(386) 428-1609,31.147202,-87.067032,,,,
Murphy,8546,2576 Douglas Ave.,,Brewton,AL,36426,United States,(251) 809-2456,31.147202,-87.067032,,,,
Murphy,5738,33517 S. Dixie Hwy.,,Florida City,FL,33034,United States,(305) 245-4531,25.456174,-80.473983,,,,
Murphy,5692,1501 1/2 Hwy. 14 E.,,Selma,AL,36701,United States,(334) 877-4910,32.432724,-87.014,,,,
Murphy,8697,5601 W. 44th Ave.,,Denver,CO,80212,United States,(303) 433-1428,39.776596,-105.057876,,,,
Murphy,8587,3470 N. Tower Rd. (Hwy. 32),,Aurora,CO,80011,United States,(303) 373-0213,39.765018,-104.77233,,,,
Murphy,8769,11005 E Briarwood Ave,,Centennial,CO,80112,United States,(303) 708-1139,39.5931,-104.8609,,,,
Murphy,7491,4620 W. 121st Ave.,,Broomfield,CO,80020,United States,(720) 887-5746,39.916485,-105.010736,,,,
Murphy,7492,12820 Oneida St.,,Thornton,CO,80602,United States,(303) 452-5447,39.929169,-104.907295,,,,
Murphy,8732,14375 Lincoln St.,,Thornton,CO,80023,United States,(303) 254-6319,39.9567,-104.985,,,,
Murphy,8723,2346 South Highway 287,,Lafayette,CO,80026,United States,(303) 665-9449,39.972569,-105.087547,,,,
Murphy,8747,405 State Hwy 7,,Broomfield,CO,80023,United States,(303) 665-9143,40.001983,-104.983068,,,,
Murphy,8762,79 E. Bromley Lane,,Brighton,CO,80601,United States,(303) 659-2350,39.9723,-104.8213,,,,
Murphy,8771,2375 Main Street,,Longmont,CO,80501,United States,(303) 651-9313,40.2024,-105.1032,,,,
Murphy,8789,15931 Jackson Creek Parkway,,Monument,CO,80132,United States,(719) 488-2127,39.0655142,-104.8514501,,,,
Murphy,8586,120 W. 64th St.,,Loveland,CO,80538,United States,(970) 667-1454,40.454717,-105.077672,,,,
Murphy,7494,4551 Weitzel Rd.,,Timnath,CO,80547,United States,(970) 493-9346,40.5237,-104.9888,,,,
Murphy,7485,2477 E 6th Ave,,Columbus,NE,68601,United States,(402) 564-3193,41.44091,-97.319129,,,,
Murphy,6752,2211 Paul Bunyan Drive NW,,Bemidji,MN,56601,United States,(218) 444-6546,47.4964,-94.9132,,,,
Murphy,6656,1557 Hwy. 10 West,,Detroit Lakes,MN,56501,United States,(218) 846-1177,46.8281,-95.87704,,,,
