store_name,store_number,address,address2,city,state,zip_code,country,phone_number,latitude,longitude,store_hours,store_type,other_fields,coming_soon
NON FACTORY,US100119331,110 South San Pedro St.,,Los Angeles,CA,90012,US,,34.050568,-118.240181,,store,,
FORESTA BOUTIQUE,US202767916,2301 E 7TH ST. B100,,LOS ANGELES,CA,90023,US,,34.03516,-118.222443,,store,,
"HK FOOTWEAR, INC",US100119487,11521 East Washington Blv,,Whittier,CA,90606,US,,34.002102,-118.165077,,store,,
Tillys,US990281313,"100 Citadel Dr,",Citadel Outlets ,Commerce,CA,90040,US,,34.006573,-118.152672,,store,,
Quiksilver Outlet Citadel,F0823,100 Citadel Dr,434,Los Angeles,CA,90040,US,,34.007455,-118.149918,,store,,
Tillys,US990280303,2180 Glendale Galleria,Glendale Galleria ,Glendale,CA,91210,US,,34.14482,-118.259646,,store,,
BOARDERS SPORTS INC,US200015775,100 Galleria Way,,Glendale,CA,91210,US,,34.145538,-118.259697,,store,,
L&M FOOTWEAR DISTROBUTION CENTER,US202498258,2640 YATES AVE,,COMMERCE,CA,90040,US,,33.991533,-118.136251,,store,,
PRICE BUSTERS SHOE WHSE,US100020220,5100 E. WHITTIER BLVD,,LOS ANGELES,CA,90022,US,,34.008389,-118.100304,,store,,
L&M FOOTWEAR,US100052257,8605 Washington Blvd,,Pico Rivera,CA,90660,US,,33.986351,-118.101891,,store,,
SHOE CITY,US201089029,4949 WALNUT GROVE AVE,,SAN GABRIEL,CA,91776,US,,34.099739,-118.083748,,store,,
SHOE CITY,US202875230,4949 WALNUT GROVE AVE,,SAN GABRIEL,CA,91776,US,,34.099739,-118.083748,,store,,
GACHEE CORP.,US200284140,6000 SEPULVEDA BLVD,,CULVER CITY,CA,90230,US,,33.985365,-118.395663,,store,,
"EUROSTAR, INC.",US100060525,13425 South Figueroa St.,,Los Angeles,CA,90061,US,,33.909718,-118.283348,,store,,
Tillys,US990289999,140 Stonewood St.,Stonewood Center ,Downey,CA,90241,US,,33.937175,-118.122951,,store,,
Shoe Fantasy,US201105634,3701 Ocean View Blvd Ste #E,,Montrose,CA,91020,US,,34.205091,-118.228099,,store,,
MEGA SHOE FACTORY,US100021826,13942 Orange Ave.,,Paramount,CA,90723,US,,33.908744,-118.175697,,store,,
Tillys,US990270303,1751 N. Victory Place,Burbank Empire Center ,Burbank,CA,91504,US,,34.191643,-118.328814,,store,,
S & S FOOTWEAR,US100028427,8116 Rosecrans Ave,,Paramount,CA,90723,US,,33.90324,-118.157204,,store,,
Tillys,US990288484,3365 E Foothill Blvd,Hastings Village ,Pasadena,CA,91107,US,,34.150149,-118.080502,,store,,
SWISS SPORTS CORP,US201229178,16403 ISHIDA AVE,,GARDENA,CA,90746,US,,33.883632,-118.263732,,store,,
WESTERN CAROLINE TRADING,US200685244,1860 Tyler Ave,,South El Monte,CA,91733,US,,34.049808,-118.038101,,store,,
VAL SURF,US100091964,4810 Whitsett Ave,,Valley Village,CA,91607,US,,34.158168,-118.404891,,store,,
JS FOOTWEAR,US100058301,15944 DOWNEY AVENUE,,PARAMOUNT,CA,90723,US,,33.888134,-118.151276,,store,,
SHOE CITY,US100019227,12550 Whittier Blvd,,Whittier,CA,90602,US,,33.968354,-118.04284,,store,,
HOMAGE,US200834703,64 BERGEN ST.,,BROOKLYN,NY,11201,US,,40.686771,-73.991119,,store,,
ORVA STORE #33,US202528496,1282 BROADWAY,,NEW YORK,NY,10001,US,,40.749244,-73.987541,,store,,
DD DISCOUNTS,US200276540,1372 BROADWAY,,NEW YORK,NY,10018,US,,40.752285,-73.986915,,store,,
SQUARE STORES,US103730008,426 5TH AVE.,,BROOKLYN,NY,11215,US,,40.669781,-73.986092,,store,,
J AND M SNEAKER INC.,US100665766,4720 5TH AVE,,BROOKLYN,NY,11220,US,,40.646496,-74.009224,,store,,
J AND M SNEAKER INC.,US201982867,5539 MYRTLE AVE,,RIDGEWOOD,NY,11385,US,,40.70023,-73.907196,,store,,
CLASSIC SKATE SHOP,US100127642,776 Broadway,,Bayonne,NJ,07002,US,,40.673524,-74.110065,,store,,
Quiksilver Outlet Jersey Gardens,F0828,651 Kapkowski Rd.,,Elizabeth ,NJ,07201,US,,40.660944,-74.173266,,store,,
TRAVEL SKATESHOP,US103813161,19a EAST WESTFIELD AVE,,ROSELLE PARK,NJ,07204,US,,40.662056,-74.263206,,store,,
Tillys,US990279595,One Garden State Plaza,Garden State Plaza ,Paramus,NJ,07652,US,,40.914873,-74.07892,,store,,
WOODBRIDGE SKI AND BOARD,US100103077,994 Us Rt 1,,Avenel,NJ,07001,US,,40.579552,-74.284912,,store,,
HIGH COUNTRY SPORTS,US100306481,465 W Mt Pleasant Ave,,Livingston,NJ,07039,US,,40.795883,-74.345322,,store,,
"SKI BARN, INC.",US100161497,846 Route 17 North,,Paramus,NJ,07652,US,,40.977729,-74.08197,,store,,
Tillys,US990280101,400 Woodbridge Center Drive,Woodbridge Center ,Woodbridge,NJ,07095,US,,40.555132,-74.302276,,store,,
MT. EVEREST SKI SHOP,US100163689,318 3RD AVENUE,,WESTWOOD,NJ,07675,US,,40.99131,-74.034431,,store,,
Tillys,US990281818,630 Old Country Rd.,Roosevelt Field Mall ,Garden City,NY,11530,US,,40.743112,-73.614983,,store,,
SUNDOWN SKI & SNOWBOARD,US200108166,47 Northern Blvd.,,Greenvale,NY,11548,US,,40.810898,-73.625374,,store,,
SKI BARN,US200005194,4 North Street,,Waldwick,NJ,07463,US,,41.017532,-74.123238,,store,,
SUNDOWN SKI & SPORT SHOP,US200655467,2726 HEMPSTEAD TURNPIKE,,LEVITTOWN,NY,11756,US,,40.724183,-73.534707,,store,,
Lifestyle,US103652431,17 Edgeboro Rd.,,East Brunswick,NJ,08816,US,,40.464832,-74.398997,,store,,
PELICAN OUTDOOR PRODUCTS,US100162161,393 Rt 18,,East Brunswick,NJ,08816,US,,40.44915,-74.398407,,store,,
PELICAN SPORT,US100154362,2980 Route 10,,Morris Plains,NJ,07950,US,,40.862076,-74.49424,,store,,
NJ SKATE SHOP II,US200084225,160 EASTON AVE.,,NEW BRUNSWICK,NJ,08901,US,,40.499611,-74.454079,,store,,
Sun & Ski Sports,US990324545,197 South Service Road,,Plainview,NY,11803,US,,40.785294,-73.448563,,store,,
SUNDOWN SKI & SNOWBOARD,US200108364,1296 Broad Hallow Rd,,Farmingdale,NY,11735,US,,40.735497,-73.423965,,store,,
KINETIC SKATEBOARDING,US201933929,533 SOUTH ST.,,PHILADELPHIA,PA,19147,US,,39.942161,-75.151954,,store,,
Tillys,US990278787,2000 Route 38,Cherry Hill Mall ,Cherry Hill,NJ,08002,US,,39.938933,-75.02506,,store,,
BUCKMAN'S INC,US200086445,26 W Lancaster Ave,,Ardmore,PA,19003,US,,40.008118,-75.292076,,store,,
Tillys,US990279393,1750 Deptford Center Rd,Deptford Mall ,Deptford,NJ,08096,US,,39.828812,-75.094688,,store,,
Amnesia Montreal Premium Outlets,CA990069898,19001 Chemin Notre-Dame,,Mirabel,QC,J7J 0T1,CA,,40.131382,-75.137025,,store,,
BUCKMAN'S INC,US200086247,"740 W. Dekalb Pike, Route",,King Of Prussia,PA,19406,US,,40.086013,-75.387506,,store,,
MIKES BETTER SHOES,US200122845,41 Clementon Rd,,Berlin,NJ,08009,US,,39.799931,-74.940514,,store,,
BUCKMAN'S INC.,US200086549,925 Bethlehem Pike,,Montgomeryville,PA,18936,US,,40.233498,-75.238495,,store,,
Tillys,US990284949,20 Town Center Drive,Providence Town Center ,Collegeville,PA,19426,US,,40.164474,-75.476845,,store,,
KINETIC SKATEBOARDING,US201973628,3906 CONCORD PIKE,,WILMINGTON,DE,19803,US,,39.807148,-75.550194,,store,,
BUCKMAN'S INC,US200086346,635 N. Main Street,,Doylestown,PA,18901,US,,40.325832,-75.129044,,store,,
SCHUYLKILL VALLEY SPORTS,US100064963,118 Industrial Drive,,Pottstown,PA,19464,US,,40.233482,-75.551506,,store,,
Tillys,US990280000,520 Christiana Mall,Christiana Mall ,Newark,DE,19702,US,,39.67986,-75.648631,,store,,
MERKEL'S SHOES INC,US100039329,1070 E Philadelphia Ave,,Gilbertsville,PA,19525,US,,40.322731,-75.619156,,store,,
Pelican Leisure Sports P.A. Inc,US103383060,"Rt 309, 1230 N. West End Blvd",,Quakertown,PA,18951,US,,40.455185,-75.332825,,store,,
ADRENALINE,US100043244,440 Peoples Plaza,,Newark,DE,19702,US,,39.602376,-75.745399,,store,,
"SOUNDWAVES, INC",US100435552,3509 Montrose,,Houston,TX,77006,US,,29.741022,-95.390823,,store,,
Sun & Ski Sports,US990322222,6100 Westheimer,# 126,Houston,TX,77057,US,,29.738683,-95.490447,,store,,
M2 SPORTS,US103719266,6375 WESTHEIMER,,HOUSTON,TX,77057,US,,29.73762,-95.496619,,store,,
BC SURF & SPORT,US200015087,2424 Hwy 6 & 50 #0322,,Grand Junction,CO,81505,US,,29.596654,-95.618091,,store,,
Sun & Ski Sports,US990322626,1355 West Bay Area Blvd.,,Webster,TX,77598,US,,29.539092,-95.144232,,store,,
Quiksilver Outlet Houston Premium,F0860,29300 Hempstead Road Houston Premium Outlet ,Suite 610,Cypress ,TX,77433,US,,29.971545,-95.701026,,store,,
Sun & Ski Sports,US990324444,5000 Katy Mills Circle ,# 505,Katy,TX,77494,US,,29.776662,-95.812211,,store,,
NO COMPLY,US100138226,812 W 12th St,,Austin,TX,78701,US,,30.276479,-97.749,,store,,
Sun & Ski Sports,US990322828,2438 W. Anderson Lane #B1A,,Austin,TX,78757,US,,30.357658,-97.732009,,store,,
BIG SHOES,US100058639,2324-C SOUTH LAMAR BLVD,,AUSTIN,TX,78704,US,,30.247625,-97.775772,,store,,
FAST FORWARD,US100040640,9901 N CAPITAL OF TX HWY,,Austin,TX,78759,US,,30.38964,-97.740676,,store,,
STAGE STORES DISTRIBUTION CENTER,US200312212,506 BEALLS BLVD,,JACKSONVILLE,TX,75766,US,,31.98779,-95.269674,,store,,
POLK NEW MAIN STORE,US201966311,7742 Colorado Ave,,Ft Polk,LA,71459-6710,US,,31.047527,-93.216281,,store,,
Tillys,US990289090,4015 IH 35 South,Tanger Outlets San Marcos ,San Marcos,TX,78666,US,,29.822538,-97.988472,,store,,
The Buckle,US990265353,5488 S Padre Island Dr,Ste 1618,Corpus Christi,TX,78411,US,,27.71233,-97.374924,,store,,
Tillys,US990291818,5488 S. Padre Island Drive,La Palmera ,Corpus Christi,TX,78411,US,,27.71233,-97.374924,,store,,
Sun & Ski Sports,US990322929,13411 San Pedro Avenue,,San Antonio,TX,78216,US,,29.561471,-98.483845,,store,,
UPRISE SKATE,US100113943,1820 N Milwaukee,,Chicago,IL,60647,US,,41.914398,-87.684143,,store,,
VIKING SKI SHOP,US200117677,3422 W Fullerton Ave,,Chicago,IL,60647,US,,41.924961,-87.713066,,store,,
Tillys,US990287676,7235 Lake St.,River Forest Town Center ,River Forest,IL,60305,US,,41.888485,-87.806635,,store,,
SHRED SHOP INC,US100093051,3801 W Oakton St,,Skokie,IL,60076,US,,42.02602,-87.723709,,store,,
Tillys,US990287272,5411 Touhy Ave,Village Crossing ,Skokie,IL,60077,US,,42.01186,-87.763436,,store,,
WINDWARD BOARDSHOP,US202847469,1883 2nd STREET,,HIGHLAND PARK,IL,60035,US,,42.186787,-87.801453,,store,,
THE ASYLUM SKATE PARK,US100138712,29850 Skokie Hwy,,Lake Bluff,IL,60044,US,,42.296162,-87.877281,,store,,
BOARDSPORTS UNLIMITED,US103746985,204 W. STATE ST.,,GENEVA,IL,60134,US,,41.887447,-88.306831,,store,,
Tillys,US990284646,602 Commons Drive,Geneva Commons ,Geneva,IL,60134,US,,41.894695,-88.343533,,store,,
Tillys,US990288080,6170 W. Grand Ave,Gurnee Mills ,Gurnee,IL,60031,US,,42.38282,-87.9533,,store,,
Tillys,US990283434,1832 S. Randall Road,Algonquin Commons ,Algonquin,IL,60102,US,,42.148958,-88.335754,,store,,
SOUTHPORT RIGGING,US100177062,2926 75th St,,Kenosha,WI,53143,US,,42.566261,-87.844536,,store,,
ROGAN'S SHOES,US100018901,1750 Ohio Street,,Racine,WI,53405,US,,42.708317,-87.837433,,store,,
FRESE DISCOUNT CENTER,US100140324,32915 M-62 West,,Dowagiac,MI,49047,US,,41.98347,-86.202726,,store,,
Tillys,US990278989,4403 Black Horse Pike,Hamilton Mall ,Mays Landing,NJ,08330,US,,39.449701,-74.639159,,store,,
HOMEBASE SKATESHOP,US100138004,14 West 4th St,,Bethlehem,PA,18015,US,,40.610408,-75.378735,,store,,
QUALITY ACESSORIES,US103354538,6 HARTFORD DRIVE,,EGG HARBOR TOWNSHIP,NJ,08234,US,,39.363655,-74.621956,,store,,
BUCKMAN'S SKI SHOP,US202867250,301 E. BELLVUE AVE,,READING,PA,19605,US,,40.389164,-75.920141,,store,,
ALMO'S ALPINE SKI SHOP,US100155871,3206 Fire Road,,Egg Harbor Township,NJ,08234,US,,39.382431,-74.573288,,store,,
BUCKMAN'S INC,US200086744,2510 Macarthur Road,,Whitehall,PA,18052,US,,40.643288,-75.491997,,store,,
Tillys,US990278383,3710 Route 9,Freehold Raceway Mall ,Freehold,NJ,07728,US,,40.256963,-74.291077,,store,,
X-STYLES,US201929692,1200 HIGHWAY 22 E. RM.218,,PHILLIPSBURG,NJ,08865,US,,40.687828,-75.153701,,store,,
Tillys,US990286868,1201 Hooper Ave.,Ocean County Mall ,Toms River,NJ,08753,US,,39.980177,-74.182134,,store,,
Tillys,US990291717,7400 San Pedro,North Star Mall ,San Antonio,TX,78216,US,,29.518379,-98.497894,,store,,
Sun & Ski Sports,US990323030,5811 Worth Parkway Ste. 103,Suite # 103,San Antonio,TX,78257,US,,29.613053,-98.599197,,store,,
BARKSDALE MAIN EXCHANGE,US201982769,455 Curtiss Road,,Barksdale AFB,LA,71110-0000,US,,32.492244,-93.681062,,store,,
Tillys,US990288282,2063 N Town East Blvd,Town East Mall ,Mesquite,TX,75150,US,,32.811561,-96.632943,,store,,
Sun & Ski Sports,US990325050,1100 West Arbrook Blvd. Ste. A,,Arlington,TX,76015,US,,32.681859,-97.126027,,store,,
ACTION PARK ALLIANCE,US200281031,1002 LONESTA PKWY,,GRAND PRARIE,TX,75050,US,,32.773979,-97.003799,,store,,
Sun & Ski Sports,US990325252,11170 N Central Expressway,Suite # 100,Dallas,TX,75243,US,,32.900005,-96.767288,,store,,
Sun & Ski Sports,US990324848,4941 Overton Ridge Blvd,,Fort Worth,TX,76132,US,,32.676393,-97.401494,,store,,
Tillys,US990286767,6501 N. Grape Road,University Park Mall ,Mishawaka,IN,46545,US,,41.71865,-86.188903,,store,,
Tillys,US990285555,5300 South 76th Street,Southridge Mall ,Greendale,WI,53129,US,,42.94838,-88.006531,,store,,
PHASE II,US100112286,2224 North Farwell,,Milwaukee,WI,53202,US,,43.05953,-87.885957,,store,,
Tillys,US990285454,95 N. Moorland Road,Brookfield Square Mall ,Brookfield,WI,53005,US,,43.032459,-88.108795,,store,,
LAACKE AND JOYS CO,US100051263,19233 W. BLUEMOUND ROAD,,BROOKFIELD,WI,53045,US,,43.035294,-88.152077,,store,,
Swiss Valley Ski Area,US103330479,13421 Mann Street,,Jones,MI,49061,US,,41.954709,-85.824852,,store,,
"EXPEDITION SUPPLY, INC",US100103230,20 West Sumner Street,,Hartford,WI,53027,US,,43.317905,-88.379417,,store,,
Tillys,US990284545,2415 Sagamore Parkway South,Tippecanoe Mall ,Lafayette,IN,47905,US,,40.392418,-86.853878,,store,,
MOUNTAIN OUTFITTERS,US103716077,109 S. MAIN ST.,,WEST BEND,WI,53095,US,,43.423239,-88.182268,,store,,
Tillys,US990291010,3700 River Town Parkway,RiverTown Crossings ,Grandville,MI,49418,US,,42.88213,-85.757935,,store,,
DWELLERS FOCUS LLC,US100018485,2358 East Springs Dr #800,,Madison,WI,53704,US,,43.129537,-89.294787,,store,,
Tillys,US990272828,5000 Arizona Mills Circle,Arizona Mills ,Tempe,AZ,85282,US,,33.384707,-111.966953,,store,,
COWTOWN SKATEBOARDS,US100113602,215 W University Dr,,Tempe,AZ,85281,US,,33.421387,-111.94297,,store,,
SCOTTSDALE SIDEWALK SURFER,US100113466,2602 N. Scottsdale Rd.,,Scottsdale,AZ,85257,US,,33.456808,-111.926424,,store,,
SWAGGZ,US103740661,7611 W THOMAS RD. #C022,,PHOENIX,AZ,85033,US,,33.480099,-112.222987,,store,,
Tillys,US990275454,2000 E Rio Salado Pkwy,Tempe Marketplace ,Tempe,AZ,85281,US,,33.429863,-111.908363,,store,,
Tillys,US990272424,4550 E. Cactus Road,Paradise Valley Mall ,Phoenix,AZ,85032,US,,33.599853,-111.983807,,store,,
SKI PRO INC.,US200080007,1924 W. RIO SALADO PKWY,,MESA,AZ,85201,US,,33.429477,-111.872393,,store,,
Tillys,US990290303,6800 N. 95th Ave.,Tanger Outlets at Westgate ,Glendale,AZ,85305,US,,33.534566,-112.265044,,store,,
Quiksilver Outlet Phoenix Premium,F0870,4976 Premium Outlets Way,Suite #618,Chandler,AZ,85226,US,,33.28189,-111.973614,,store,,
Tillys,US990274040,3111 W Chandler Blvd,Chandler Fashion Center ,Chandler,AZ,85226,US,,33.305668,-111.896512,,store,,
Tillys,US990271919,16455 N. Scottsdale Rd.,Promenade at Frank Lloyd Wrigh,Scottsdale,AZ,85254,US,,33.636347,-111.925266,,store,,
Tillys,US990272626,7700 W. Arrowhead Town Center,Arrowhead Towne Center ,Glendale,AZ,85308,US,,33.639675,-112.225905,,store,,
Tillys,US990282323,21001 N Tatum Blvd,Desert Ridge Marketplace ,Phoenix,AZ,85050,US,,33.668934,-111.973991,,store,,
LUKE AFB MAIN STORE,US201990058,7071 North 138th Ave,,Glendale,AZ,85307-0000,US,,33.538218,-112.356682,,store,,
Quiksilver Gaslamp,R0056,402 5th Ave,,San Diego,CA,92101,US,,32.709408,-117.160101,,store,,
Tillys,US990272929,1640 Camino Del Rio North,Mission Valley ,San Diego,CA,92108,US,,32.768547,-117.148399,,store,,
SOLO SHOES,US100076549,51 N Highland Ave,,National City,CA,91950,US,,32.685982,-117.101349,,store,,
SHOE SHACK,US100102139,1240 E Plaza Blvd,,National City,CA,91950,US,,32.676086,-117.092781,,store,,
Tillys,US990291414,3030 Plaza Bonita Road,Plaza Bonita ,National City,CA,91950,US,,32.655682,-117.067814,,store,,
BUNDOGI SPORTS,US100016753,5949 BALBOA AVE,,SAN DIEGO,CA,92111,US,,32.820186,-117.177435,,store,,
PACIFIC DRIVE,US100169632,756 Thomas Ave,,San Diego,CA,92109,US,,32.793797,-117.255196,,store,,
Billion Creation,US103580750,687 Palomar Street,,Chula Vista,CA,91911,US,,32.604809,-117.084351,,store,,
HANGER 94,US100018131,5270 Jackson Drive,,La Mesa,CA,91942,US,,32.775242,-117.012993,,store,,
Tillys,US990274848,8657 Villa La Jolla Drive,La Jolla ,La Jolla,CA,92037,US,,32.866527,-117.231651,,store,,
Roxy/Quiksilver La Jolla,R0082,1111 Prospect St.,,La Jolla,CA,92037,US,,32.848159,-117.273739,,store,,
SHOE METRO,US100037836,8960 Carroll Way Ste 100,,San Diego,CA,92121,US,,32.886909,-117.159751,,store,,
STREET WEAR SHOP,US103831634,2310 VIA TERCERO,,SAN YSIDRO,CA,92173,US,,32.554006,-117.055277,,store,,
Tillys,US990273030,363 Parkway Plaza,Parkway Plaza ,El Cajon,CA,92020,US,,32.807211,-116.967454,,store,,
MOTOWORLD OF EL CAJON,US100140969,315N. Magnolia Ave.,,El Cajon,CA,92020,US,,32.797832,-116.960578,,store,,
CLOTHING INTERNATIONAL,US202167057,9710 MISSION GORGE RD. SUITE A,,SANTEE,CA,92071,US,,32.839722,-116.985764,,store,,
CLEY'S URBAN SHOP,US103809455,709 N CONWAY AVE STE #B,,MISSION,TX,78572,US,,26.212951,-98.326553,,store,,
SOUTH PADRE ISLAND SHIRT,US100430159,910 Padre Blvd,,South Padre Island,TX,78597,US,,26.091461,-97.164367,,store,,
Tillys,US990285858,1101 Melbourne Road,North East Mall ,Hurst,TX,76053,US,,32.828781,-97.197339,,store,,
Sun & Ski Sports,US990324949,2329 Porter Creek Drive,,Fort Worth,TX,76177,US,,32.899688,-97.324728,,store,,
Tillys,US990273838,2501 West Happy Valley Rd,Happy Valley Towne Center ,Phoenix,AZ,85085-3747,US,,33.710407,-112.114151,,store,,
Tillys,US990272323,3885 S. Gilbert Road,Crossroads Towne Center ,Gilbert,AZ,85297,US,,33.279753,-111.789545,,store,,
Tillys,US990276262,24640 N. Lake Pleasant Pkwy,Lake Pleasant Pavilion ,Peoria,AZ,85383,US,,33.706757,-112.274788,,store,,
Tillys,US990272525,6555 E. Southern Avenue,Superstition Springs Center ,Mesa,AZ,85206,US,,33.393838,-111.689811,,store,,
Tillys,US990272222,5034 S. Power Road,Gilbert Gateway Towne Center ,Mesa,AZ,85212,US,,33.325592,-111.687173,,store,,
Tillys,US990276161,21536 S. Ellsworth Loop Rd,Queen Creek Marketplace ,Queen Creek,AZ,85142,US,,33.252975,-111.639717,,store,,
Tillys,US990276767,1004 N Promenade Pkwy,Promenade at Casa Grande ,Casa Grande,AZ,85194,US,,32.88385,-111.681747,,store,,
Tillys,US990276969,5145 S Calle Santa Cruz,Tucson Spectrum ,Tucson,AZ,85706,US,,34.292965,-111.664696,,store,,
DAVIS M MAIN STORE,US201989938,5405 E Granite St,,Davis Monthan AFB,AZ,85707-0000,US,,34.292965,-111.664696,,store,,
ORTEGA'S SHOES,US200087394,150 N Broad,,Globe,AZ,85501,US,,33.396267,-110.787682,,store,,
Tillys,US990291212,6401 West Marana Center Blvd.,Tucson Premium Outlets ,Marana,AZ,85653,US,,32.458488,-111.275459,,store,,
Tillys,US990270808,9880 Mission Gorge Road,Santee Trolley Square ,Santee,CA,92071,US,,32.838778,-116.980856,,store,,
CALIFORNIA CLOTHING SPORTSWEAR INC,US103885969,2504 JAMACHA RD,,EL CAJON,CA,92019,US,,32.744797,-116.929501,,store,,
Tillys,US990270404,4051 Camino De La Plaza,Las Americas Premium Outlets ,San Ysidro,CA,92173,US,,32.544056,-117.040588,,store,,
Tillys,US990280505,10661 Westview Parkway,Mira Mesa Marketplace ,San Diego,CA,92126,US,,32.914851,-117.120445,,store,,
Tillys,US990280707,12875 El Camino Real,Del Mar Highlands Town Center ,San Diego,CA,92130,US,,32.951204,-117.234316,,store,,
Tillys,US990271212,1911 Calle Barcelona,Forum at Carlsbad ,Carlsbad,CA,92009,US,,33.071645,-117.267537,,store,,
Tillys,US990269999,1266 F. Auto Park Way,Escondido Promenade ,Escondido,CA,92029,US,,33.112014,-117.098083,,store,,
SPORTS PLUS,US202157899,655 N. BROADWAY,,ESCONDIDO,CA,92025,US,,33.128265,-117.08448,,store,,
CALIFORNIAN DREAMS,US103899073,1924 HACIENDA DR.,,VISTA,CA,92081,US,,33.186133,-117.282288,,store,,
Sun & Ski Sports,US990325353,3000 Grapevine Mills Pkwy ,Suite # 119,Grapevine,TX,76051,US,,32.968624,-97.036555,,store,,
Sun & Ski Sports,US990325151,2943 Preston Road ,Suite # 1400,Frisco,TX,75034,US,,33.102871,-96.807411,,store,,
CD SPORTS LTD,US100217501,227 E. LOUISIANA,,McKINNEY,TX,75069,US,,33.197456,-96.613762,,store,,
DENTON SKATE SUPPLY,US202779450,301 N LOCUST ST,,DENTON,TX,76201,US,,33.216801,-97.132607,,store,,
SILL MAIN STORE,US201984362,Macomb Road,,Ft Sill,OK,73503-0000,US,,34.66642,-98.390228,,store,,
Sun & Ski Sports,US990323232,3447 West Main Street,,Norman ,OK,73072,US,,35.218515,-97.492849,,store,,
Tillys,US990288989,1901 NW Expressway,Penn Square Mall ,Oklahoma City,OK,73118,US,,35.523069,-97.546121,,store,,
TINKER MAIN STORE,US201984446,3360 N Ave,,Tinker AFB,OK,73145-9083,US,,35.582695,-97.508614,,store,,
Sun & Ski Sports,US990323131,10109 North May,,Oklahoma City,OK,73120,US,,35.573181,-97.567657,,store,,
Tillys,US990285050,2240 W. Memorial Road,Quail Springs Marketplace ,Oklahoma City,OK,73134,US,,35.608505,-97.552628,,store,,
Tillys,US990273636,2200 Eastridge Loop,Eastridge Mall ,San Jose,CA,95122,US,,37.324182,-121.811753,,store,,
Tillys,US990274141,447 Great Mall Drive,Great Mall of the Bay Area ,Milpitas,CA,95035,US,,37.418438,-121.897476,,store,,
CALIFORNIA'S GREAT AMERICA,US100387074,2401 AGNEW ROAD,,SANTA CLARA,CA,95054,US,,37.390495,-121.968972,,store,,
Tillys,US990272121,5353 Almaden Expressway,Almaden Plaza Shopping Center ,San Jose,CA,95118,US,,37.252041,-121.877281,,store,,
Tillys,US990281616,650 El Paseo de Saratoga,El Paseo de Saratoga ,San Jose,CA,95130,US,,37.28965,-121.993781,,store,,
KONABEAR INC,US100592451,379 STATE ST,,LOS ALTOS,CA,94022,US,,37.378601,-122.117935,,store,,
CALI STYLE,US103819166,415 WEST DR.,,FELTON,CA,95018,US,,37.105164,-122.054558,,store,,
SHOE PALACE CORPORATION,US100098337,755 JARVIS DR,,MORGAN HILL,CA,95037-2810,US,,37.145405,-121.648186,,store,,
CALI STYLE,US202859565,222 G MT HERMON,,SCOTTS VALLEY,CA,95066,US,,37.045524,-122.0274,,store,,
Quiksilver Outlet Livermore Premium,F0868,3212 Livermore Outlets Dr.,Unit 682,Livermore,CA,94551,US,,37.696411,-121.84259,,store,,
Tillys,US990272727,4980 Dublin Blvd.,Hacienda Crossings ,Dublin,CA,94568,US,,37.70533,-121.885536,,store,,
"WORLD OF SHOES, INC",US100098882,7871 Amador Valley Blvd,,Dublin,CA,94568,US,,37.706077,-121.935251,,store,,
BILLS WHEELS/SK8BRDS (SC),US100110451,1240 Soquel Ave,,Santa Cruz,CA,95062,US,,36.98016,-122.008835,,store,,
PACIFIC WAVE,US200009341,115 Cooper St,,Santa Cruz,CA,95060,US,,36.975097,-122.026195,,store,,
PACIFIC WAVE,US100147940,1101 PACIFIC AVE STE 200,,SANTA CRUZ,CA,95060-7507,US,,36.971908,-122.025894,,store,,
Quiksilver Outlet Gilroy Premium,F0833,681 Leavesley Rd,Space C110,Gilroy,CA,95020,US,,37.025243,-121.564417,,store,,
H SKATE,US103829421,25 E. BEACH ST.,,WATSONVILLE,CA,95076,US,,36.910832,-121.756219,,store,,
ANY MOUNTAIN #994,US200127023,1961 Davis Street,,San Leandro,CA,94577,US,,37.717604,-122.181759,,store,,
BRC HEAVENLY - SSV,US200470714,1961 Davis Street,,San Leandro,CA,94577,US,,37.717604,-122.181759,,store,,
MCCAULOU'S,US200116516,589 San Ramon Vy Blvd,,Danville,CA,94526,US,,37.814316,-121.988762,,store,,
Tillys,US990273232,1150 El Camino Real,Shops at Tanforan ,San Bruno,CA,94066,US,,37.636355,-122.420875,,store,,
MCCAULOU'S,US200116617,6211 Medau Place,,Oakland,CA,94611,US,,37.827751,-122.209763,,store,,
Tillys,US990281111,1179 Locust St,Plaza Escuela ,Walnut Creek,CA,94596,US,,37.895808,-122.061447,,store,,
MCCAULOU'S,US200115813,3512 Mt Diablo Blvd,,Lafayette,CA,94549,US,,37.892299,-122.117341,,store,,
MCCAULOU'S,US200275406,120 VILLAGE SQUARE,,ORINDA,CA,94563,US,,37.883377,-122.190338,,store,,
HATWORLD,US202807349,5304 WEST 74TH ST.,,INDIANAPOLIS,IN,46268,US,,39.888573,-86.252701,,store,,
Tillys,US990284848,6020 East 82nd Street,Castleton Square Mall ,Indianapolis,IN,46250,US,,39.905983,-86.064217,,store,,
MOTO XTREMES,US100139968,28081 Peartree Lane,,West Harrison,IN,47060,US,,39.277542,-84.828522,,store,,
PERFECT NORTH SLOPES,US100156165,19074 Perfect Lane,,Lawrenceburg,IN,47025,US,,39.148548,-84.885422,,store,,
Sun & Ski Sports,US990323333,7565 Kenwood Rd. ,# 17,Cincinnati,OH,45236,US,,39.199749,-84.381935,,store,,
KINGS ISLAND,US200121332,6300 Kings Island Dr,,Kings Mills,OH,45034,US,,39.338918,-84.27883,,store,,
ADAMS SKI & SNOWBOARD,US202739243,9549 FIELDS ERTEL RD,,LOVELAND,OH,45140,US,,39.290131,-84.2973,,store,,
VERTICAL DROP SKI SHOP,US100050075,9549 Fields Ertel Rd,,Loveland,OH,45140,US,,39.290131,-84.2973,,store,,
The Block,US103658914,537 Park St.,,Jacksonville,FL,32204,US,,30.320177,-81.677833,,store,,
Tillys,US990276464,1910 Wells Rd,Orange Park Mall ,Orange Park,FL,32073,US,,30.186028,-81.733421,,store,,
SKATEBOARD CITY,US103730587,2207 FLORIDA BLVD.,,NEPTUNE BEACH,FL,32266,US,,30.323488,-81.418854,,store,,
FREE RIDE SURF SHOP,US100016820,420 Nw 13th Street,,Gainesville,FL,32601,US,,29.655375,-82.339539,,store,,
MAUI NIX,US100149798,717 N. Atlantic,,Daytona Beach,FL,32118,US,,29.237549,-81.013786,,store,,
ENERGY SKATE SHOP,US202903212,522 SEABREEZE BLVD.,,DAYTONA BEACH,FL,32118,US,,29.234802,-81.013878,,store,,
STEWART MAIN STORE,US201985628,345 Lindquist Rd,,Ft Stewart,GA,31314-3700,US,,31.867838,-81.604984,,store,,
ACTON ENTERPRISES,US200004441,253 America Place,,Jeffersonville,IN,47130,US,,38.287533,-85.738395,,store,,
Tillys,US990288383,4201 Coldwater Rd,Glenbrook Square ,Fort Wayne,IN,46805,US,,41.115978,-85.136635,,store,,
Tillys,US990283333,5000 Shelbyville Rd,Mall at St. Matthews ,Louisville,KY,40207,US,,38.250109,-85.623353,,store,,
Tillys,US990287070,4453 Glengarry Drive,The Greene ,Beavercreek,OH,45440,US,,39.693626,-84.103055,,store,,
WRIGHT-PAT MAIN STORE,US201990689,Birch St. Kittyhawk Area,,WPAFB,OH,45433-0000,US,,39.81324,-84.028798,,store,,
KNOX MAIN STORE,US201990742,Gold Vault Rd,,Ft Knox,KY,40121-5720,US,,37.886841,-85.947792,,store,,
HAWKS,US200047957,1500 N. Clinton,,Defiance,OH,43512,US,,41.302895,-84.362801,,store,,
Tillys,US990286666,800 N. Green River Road,Eastland Mall ,Evansville,IN,47715,US,,37.984229,-87.492735,,store,,
COSMIC,US100125493,250 GOLD RUSH RD. SUITE 6,,LEXINGTON,KY,40503,US,,38.000663,-84.529228,,store,,
DANS COMPETITION,US100139330,One Competition Way,,Mount Vernon,IN,47620,US,,37.942322,-87.861015,,store,,
ASPEN SKI & BOARD,US200112438,1175 Old Henderson Rd,,Columbus,OH,43220,US,,40.051538,-83.05158,,store,,
EMBASSY BOARDSHOP,US100072503,3347 N High St,,Columbus,OH,43202,US,,40.030288,-83.015583,,store,,
Tillys,US990276868,239 Towne Center Circle,Seminole Towne Center ,Sanford,FL,32771,US,,28.804298,-81.340552,,store,,
GROUNDED,US201232513,1235 OVIEDO MALL BLVD,,OVIEDO,FL,32765,US,,28.664535,-81.235806,,store,,
USS CATALYST,US200115356,11551 UNIVERSITY BLVD UNIT 10,,ORLANDO,FL,32817,US,,28.598667,-81.21978,,store,,
GALACTIC G,US100113241,2020 N. ORANGE AVE,,ORLANDO,FL,32804,US,,28.570307,-81.373138,,store,,
PLUS SKATE SHOP-ORLANDO,US202872608,1646 EAST COLONIAL DRIVE,,ORLANDO,FL,32803,US,,28.552858,-81.358444,,store,,
Tillys,US990275757,343 North Alafaya Trail,Waterford Lakes Town Center ,Orlando,FL,32828,US,,28.551937,-81.204432,,store,,
Tillys,US990279797,4967 International Drive,Orlando Premium Outlets Intnl ,Orlando,FL,32819,US,,28.475977,-81.450188,,store,,
Quiksilver Outlet Orlando,F0878,4963 International Dr.,#2B03,Orlando,FL,32819,US,,28.463049,-81.460856,,store,,
Tillys,US990277474,8001 South Orange Blossom Trail,Florida Mall ,Orlando,FL,32809,US,,28.449696,-81.400841,,store,,
A&M FOOTWEAR OUTLET,US201972321,12376 STATE RD. 5335,,ORLANDO,FL,32836,US,,28.418087,-81.51667,,store,,
Tillys,US990277373,2613 West Osceola Pkwy,Loop West ,Kissimmee,FL,34741,US,,28.342137,-81.428587,,store,,
A&M FOOTWEAR OUTLET,US100666922,7648 W. IRLO BRONSON HWY,,KISSIMMEE,FL,34747,US,,28.311897,-81.59391,,store,,
Tillys,US990277676,28163 Paseo Drive,Shops At Wiregrass ,Wesley Chapel,FL,33543,US,,28.187967,-82.350624,,store,,
Tillys,US990281010,3800 US Highway 98 North,Lakeland Square Mall ,Lakeland,FL,33809,US,,28.091812,-81.974066,,store,,
Tillys,US990291515,2312 Grand Cypress Drive,Tampa Premium Outlets ,Lutz,FL,33559,US,,28.156015,-82.41011,,store,,
PATRICK AFB MAIN STORE,US201986356,1221 S Patrick Dr,,Patrick AFB,FL,32925-0000,US,,28.219333,-80.603768,,store,,
WEST SIDE SKATE SHOP,US100114943,39332 Us Hwy 19 North,,Tarpon Springs,FL,34689,US,,28.12906,-82.740312,,store,,
Tillys,US990275151,1700 W New Haven Blvd,Melbourne Square ,Melbourne,FL,32904,US,,28.078986,-80.649275,,store,,
DELUXE PRODUCTIONS SF,US100096048,1831 MARKET STREET,,San Francisco,CA,94103,US,,37.771195,-122.424238,,store,,
FTC ,US100109829,1632 Haight St.,,San Francisco,CA,94117,US,,37.76976,-122.44916,,store,,
BASD INC,US100063771,1942 Fourth St.,,San Rafael,CA,94901,US,,37.974964,-122.54261,,store,,
Tillys,US990279494,5800 Northgate Drive,Mall at Northgate ,San Rafael,CA,94903,US,,38.003289,-122.543538,,store,,
Tillys,US990273535,132 Vintage Way,Vintage Oaks at Novato ,Novato,CA,94945,US,,38.091505,-122.556427,,store,,
MCCAULOU'S #10,US200549718,718 BANCROFT RD SUITE C,,WALNUT CREEK,CA,94598,US,,37.928882,-122.040229,,store,,
Tillys,US990273737,224 Sun Valley Mall,Sunvalley ,Concord,CA,94520,US,,37.967197,-122.062202,,store,,
MCCAULOU'S,US200116015,5100 Clayton Rd,,Concord,CA,94521,US,,37.95483,-121.967888,,store,,
RTX RAGE TEES & XTRAS INC,US200125722,6801 Northlake Mall Dr,,Charlotte,NC,28216,US,,35.353355,-80.8508,,store,,
CAROWINDS,US200137489,14523 Carowinds Blvd,,Charlotte,NC,28273,US,,35.100921,-80.949897,,store,,
Tillys,US990289393,5512 New Fashion Way,Charlotte Premium Outlets ,Charlotte,NC,28278,US,,35.130009,-81.007698,,store,,
Sun & Ski Sports,US990324646,5341 Ballantyne Commons Pkwy #150,,Charlotte,NC,28277,US,,35.064256,-80.773917,,store,,
Sun & Ski Sports,US990324747,8381 Concord Mills Blvd,,Concord,NC,28027,US,,35.371934,-80.720414,,store,,
NU STYLE,US202770550,347 WEST MAIN DR.,,FOREST CITY,NC,28043,US,,35.343358,-81.883278,,store,,
EXODUS,US100109129,2051 Silas Creek Parkway,,Winston Salem,NC,27103,US,,36.070618,-80.269646,,store,,
SKI & TENNIS STATION,US100159292,119 S. Stratford Rd.,,Winston Salem,NC,27104,US,,36.095857,-80.277034,,store,,
ABOVE BOARD SKATESHOP OF GREENSBORO,US103115825,2616 Greengate Dr,,Greensboro,NC,27406,US,,36.024166,-79.799332,,store,,
JAC MAIN STORE,US201985071,Moseby Street,,Ft Jackson,SC,29207-6055,US,,34.021286,-80.941928,,store,,
BULL CITY RIDE SHOP,US103394452,1204 E. WENDOVER AVE,,GREENSBORO,NC,27405,US,,36.087421,-79.769959,,store,,
Country Casuals,US103077199,1263 Brevard RD,,Asheville,NC,28806,US,,35.517185,-82.60553,,store,,
BRAGG S MIL SHOP PLZ,US201986908,1017 Canopy Lane,,Ft Bragg,NC,28307-5000,US,,35.12253,-79.014766,,store,,
IMPERIAL SKATE SHOP LLC,US202891528,1314 MEMORIAL BLVD. S.,,MARTINSVILLE,VA,24112,US,,36.671144,-79.880452,,store,,
Tillys,US990287171,3730 Easton Market,Easton Market ,Columbus,OH,43219,US,,40.051393,-82.921256,,store,,
ASPEN SKI & BOARD,US100160837,1170 E Powell Rd,,Lewis Center,OH,43035,US,,40.15443,-82.99958,,store,,
Careless Heart,US103326582,35 Hill RD S,,Pickerington,OH,43147,US,,39.883999,-82.759108,,store,,
"SCIOTO SHOE MART, INC.",US200123564,206 Jamesway Rd,,Marion,OH,43302,US,,40.580002,-83.078712,,store,,
CEDAR POINT,US100011404,One Cedar Point Dr,,Sandusky,OH,44870,US,,41.453114,-82.674202,,store,,
Tillys,US990291616,428 SouthPark Center,SouthPark Mall ,Strongsville,OH,44136,US,,41.31199,-81.819957,,store,,
VILLAGE BOARDS,US100095678,25545 LORAIN ROAD,,North Olmsted,OH,44070,US,,41.422816,-81.903751,,store,,
Tri-Star Skateboards,US103330307,5360 BROOK PARK ROAD,,CLEVELAND,OH,44134,US,,41.418861,-81.713654,,store,,
"MARTINI SPORTS, LLC.",US100178386,8266 Golden Lind Blvd,,Northfield,OH,44067,US,,41.312928,-81.524286,,store,,
WEST SIDE SKATE (OHIO),US100089142,14047 Madison Ave,,Lakewood,OH,44107,US,,41.477048,-81.791356,,store,,
RED SKY SURF & SNOW,US100123263,3135 W. Central Ave,,Toledo,OH,43606,US,,41.677353,-83.62011,,store,,
Tillys,US990284242,7401 Market St.,Southern Park Mall ,Youngstown,OH,44512,US,,41.022635,-80.662671,,store,,
Ski Chalet,US103062300,1041 Youngstown Warren Rd,,Niles,OH,44446,US,,41.201439,-80.734177,,store,,
MCCAULOU'S,US200116808,201 West Napa St,,Sonoma,CA,95476,US,,38.291256,-122.46273,,store,,
Tillys,US990277878,2505 Sand Creek Road,Streets of Brentwood ,Brentwood,CA,94513,US,,37.94374,-121.739175,,store,,
Apex Outfitter & Board Co.,US103178724,225 N Salem St,,APEX,NC,27502,US,,35.732632,-78.850876,,store,,
SURF AND DIRT INC,US100174825,500 Gate City Hwy,,Bristol,VA,24201,US,,36.600007,-82.217067,,store,,
Tillys,US990284747,301 Crossroads Blvd,Crossroads Plaza ,Cary,NC,27518,US,,35.760643,-78.738716,,store,,
SURF & DIRT,US200630422,2101 Fort Henry Dr Suite 265,,Kingsport,TN,37664,US,,36.528327,-82.523094,,store,,
SURF AND DIRT INC,US200152324,2101 Ft Henry Dr Ste 265,,Kingsport,TN,37664,US,,36.528327,-82.523094,,store,,
GORDON MAIN STORE,US201985379,Building 38200 3rd Ave,,Ft Gordon,GA,30905-5666,US,,33.410634,-82.135611,,store,,
CHERRY LAKE II,US100056917,1421 Dividend Loop,,Myrtle Beach,SC,29577,US,,33.69141,-78.921478,,store,,
TSUNAMI,US200144314,1209 Celebrity Circle Js4,,Myrtle Beach,SC,29577,US,,33.714044,-78.882893,,store,,
PIPELINE SURF SHOP,US103404997,1000 SOUTH KINGS HIGHWAY,,MYRTLE BEACH,SC,29577,US,,33.679275,-78.899091,,store,,
TSUNAMI,US202545711,1005 SOUTH KINGS HWY,,MYRTLE BEACH,SC,29577,US,,33.678734,-78.899216,,store,,
TSUNAMI 10,US202803416,1600 N KINGS HIGHWAY,,MYRTLE BEACH,SC,29577,US,,33.698753,-78.875702,,store,,
Stance Devonshire,CA990066767,3100 Howard Avenue Unit C1B,,Windsor,ON,N8X 3Y8,CA,,42.274812,-83.005545,,store,,
Boathouse Devonshire,CA990008181,3100 Howard Avenue Units N10,Units N10,Windsor,ON,N8X 3Y8,CA,,42.273307,-83.004722,,store,,
West 49 Devonshire Mall,CA990010202,3100 Howard Avenue,B16,Windsor,ON,N8X 3Y8,CA,,42.273307,-83.004722,,store,,
Boathouse Tecumseh Mall,CA990071010,"7654 Tecumseh Road E, Unit C40",,Windsor,ON,N8T 1E9,CA,,42.314972,-82.935537,,store,,
CORKY'S SURF SHOP,US100090288,26441 GRATIOT AVE.,,ROSEVILLE,MI,48066,US,,42.490749,-82.941887,,store,,
ANIME TO SKATEBOARDS,US100130316,7795 Church,,Grosse Ile,MI,48138,US,,42.15073,-83.142189,,store,,
The Buckle,US990263838,14600 Lakeside Cir #2040,,Sterling Heights,MI,48313,US,,42.599689,-83.001183,,store,,
TGM SKATEBOARDS,US100135008,183 South Main,,Mount Clemens,MI,48043,US,,42.590588,-82.880287,,store,,
Tillys,US990287878,14600 Lakeside Circle,Lakeside Mall ,Sterling Heights,MI,48313,US,,42.625177,-82.982838,,store,,
Tillys,US990284040,4812 South Baldwin Road,Baldwin Commons ,Orion Township,MI,48359,US,,42.710284,-83.30731,,store,,
ALPINE CYCLES INC,US100591377,726 HURON AVE,,PORT HURON,MI,48060,US,,42.981624,-82.424362,,store,,
Boarder Town ,CA990055555,1249 London Road,Unit W-4,Sarnia,ON,N7M 2J7,CA,,42.97953,-82.361651,,store,,
Boathouse Lambton Mall,CA990008989,1380 London Road Unit 126,Unit 126,Sarnia,ON,N7S 1P8,CA,,42.980043,-82.358961,,store,,
"SHUMAKER, INC",US100155552,2342 South Ballenger Hwy,,Flint,MI,48503,US,,42.992979,-83.732976,,store,,
Fresh Clothing,CA990056464,81 Front Street West,,Strathroy,ON,N7G 1X6,CA,,42.957241,-81.626708,,store,,
West 49 White Oaks Mall,CA990014848,1105 Wellington Road,Unit 101,London,ON,N6E 1V4,CA,,42.934157,-81.223471,,store,,
West 49 Masonville Mall,CA990010606,1680 Richmond Street N,Unit# L118C,London,ON,N6G 3Y9,CA,,43.025098,-81.281739,,store,,
Boathouse Masonville ,CA990007373,1680 Richmond Street N Unit L002A,Unit L002A,London,ON,N6G 3Y9,CA,,43.025099,-81.281739,,store,,
Tillys,US990290000,2760 N. Germantown Parkway,Wolfchase Galleria ,Memphis,TN,38133,US,,35.200895,-89.792017,,store,,
LRK NEW MAIN STORE,US201982657,787 Sixth Street,,Little Rock AFB,AR,72099-0000,US,,34.899929,-92.438873,,store,,
KEESLER NEW MAIN STORE,US201986715,506 Larcher Blvd,,Keesler AFB,MS,39534-0000,US,,32.723976,-89.657173,,store,,
CAMPBELL MAIN STORE,US201990878,2840 Bastogne Ave,,Ft Campbell,KY,42223-5644,US,,36.651611,-87.456993,,store,,
ROCKIN HATS & MORE,US100073796,4501 Central Ave,,Hot Springs National Park,AR,71913,US,,34.45045,-93.079464,,store,,
Sun & Ski Sports,US990323636,545 Cool Springs Blvd ,# 190,Franklin ,TN,37067,US,,35.946985,-86.822173,,store,,
Tillys,US990290606,1800 Galleria Blvd.,CoolSprings Galleria ,Franklin,TN,37067,US,,35.956734,-86.814339,,store,,
REDSTONE MAIN STORE,US201986169,Acton Drive,,Redstone Arsenal,AL,35898-7280,US,,34.683899,-86.647598,,store,,
Tillys,US990283131,477 Opry Mills Drive,Opry Mills ,Nashville,TN,37214,US,,36.206512,-86.696944,,store,,
Sun & Ski Sports,US990323535,Opry Mills 501 Opry Mills Dr.,,Nashville,TN,37214,US,,36.165665,-86.661385,,store,,
PURPOSE SKATE CO.,US103829133,1420 CHANDLER RD.,,MT. JULIET,TN,37122,US,,36.189159,-86.558151,,store,,
LEONARDW MAIN STORE,US201991210,143 Replacement Ave,,Ft Leonard Wood,MO,65473-8943,US,,37.761122,-92.107271,,store,,
Tillys,US990290101,2825 S. Glenstone Ave.,Battlefield Mall ,Springfield,MO,65804,US,,37.162327,-93.264786,,store,,
SCOTT MAIN STORE,US201991165,207 W Winters St,,Scott AFB,IL,62225-1607,US,,38.53611,-89.867867,,store,,
MAXWELL MAIN STORE,US201985901,355 Kelly St,,Maxwell AFB,AL,36112-0000,US,,32.766544,-86.840286,,store,,
FELTS SHOES STILWELL #25,US200809947,306 W LOCUST,,STILWELL,OK,74960,US,,35.808495,-94.63061,,store,,
SKATEBILLY'S INC.,US103740786,1725 PARKER PLACE,,COOKEVILLE,TN,38506,US,,36.08963,-85.492363,,store,,
MR HATS CORPORATION,US100661684,300 S EL PASO ST,,EL PASO,TX,79901,US,,31.756765,-106.488327,,store,,
Tillys,US990285656,8401 Gateway Blvd. W,Cielo Vista Mall ,El Paso,TX,79925,US,,31.774654,-106.380722,,store,,
ACTION SKI & SNOWBOARD,US100122133,360 Sudderth Drive,,Ruidoso,NM,88345,US,,33.322868,-105.635689,,store,,
ORTEGA'S STORES INC.,US200087295,1944 Thatcher Blvd,,Safford,AZ,85546,US,,32.835886,-109.73231,,store,,
Tony's Board Shop,US103331052,207 2nd STREET,,HUACHUCA CITY,AZ,85616,US,,31.62685,-110.333595,,store,,
Tillys,US990286565,6600 Menaul Blvd. NE,Coronado Center ,Albuquerque,NM,87110,US,,35.108246,-106.571312,,store,,
Sport System inc.,US103384875,6915 Montgomery Blvd.,,Albuquerque,NM,87109,US,,35.131336,-106.570801,,store,,
FACTORY EDGE CLOTHING,US100632734,10000 COORS BYPASS NW #C03A,,ALBUQUERQUE,NM,87114-4040,US,,35.196163,-106.658872,,store,,
H MARKET,US200125920,506 N Chief Ave,,White River,AZ,85941,US,,33.838449,-109.964421,,store,,
Tillys,US990280202,5870 East Broadway,Park Place ,Tucson,AZ,85711,US,,32.219864,-110.865997,,store,,
DRESS CODE,US100077269,2636 E Broadway Blvd,,Tucson,AZ,85716,US,,32.221012,-110.932449,,store,,
Tillys,US990277575,11865 N Oracle Rd,Oro Valley Marketplace ,Oro Valley,AZ,85737-7834,US,,32.422405,-110.938446,,store,,
Tillys,US990275252,4500 N. Oracle Rd.,Tucson Mall ,Tucson,AZ,85705,US,,32.288788,-110.978091,,store,,
THE DOME,US100134427,540 E Deuce Of Clubs,,Show Low,AZ,85901,US,,34.253033,-110.036751,,store,,
BEYOND WAVES,US103384531,228 ORTIZ STREET,,SANTA FE,NM,87501,US,,35.685963,-105.940918,,store,,
Tillys,US990283030,6002 Slide Road,South Plains Mall ,Lubbock,TX,79414,US,,33.539838,-101.922463,,store,,
EXTREME TRENDZ,US100170032,3600 COUNTRY CLUB DRIVE STE 2070,,JEFFERSON CITY,MO,65109,US,,38.585456,-92.250427,,store,,
Tillys,US990286969,2220 Hamilton Place #130,The Terrace ,Chattanooga,TN,37421,US,,35.03849,-85.154816,,store,,
FELTS SHOES TAHLEQUAH #10,US200809648,107 N MUSKOGEE AVE,,TAHLEQUAH,OK,74464,US,,35.913597,-94.970891,,store,,
SIPAPU RECREATION DEVELOPMENT,US201981566,5524 HWY 518,,VADITO,NM,87579,US,,36.159882,-105.588712,,store,,
COTTAM'S SKI & OUTDOOR,US200087097,207 A Paseo Del Pueblo Su,,Taos,NM,87571,US,,36.404891,-105.574157,,store,,
MOUNTAIN SPORTS OF ANGEL FIRE,US201999180,3375 HWY 434,,ANGEL FIRE,NM,87710,US,,36.392766,-105.286141,,store,,
DOYLE'S SHOES TAHLEQUAH #31,US200810167,909 S MUSKOGEE AVE,,TAHLEQUAH,OK,74464,US,,35.903843,-94.974437,,store,,
FELTS SHOES GROVE #14,US200809746,1110 MAIN ST,,GROVE,OK,74344,US,,36.585034,-94.769261,,store,,
"EVOLUCION INNOVATIONS,INC.",US100107328,122 NW 36TH STREET,,SEATTLE,WA,98107,US,,47.653423,-122.358574,,store,,
MOUNTAIN TO SOUND,US100352182,3602 Sw Alaska St,,Seattle,WA,98126,US,,47.561097,-122.377691,,store,,
"COASTAL GIRL, INC.",US100150967,2532 Alki Ave. Sw,,Seattle,WA,98116,US,,47.580681,-122.406409,,store,,
AML ATTN: SEQUENCE,US200098612,5615 W. Marginal Way Sw,,Seattle,WA,98106,US,,47.550755,-122.34668,,store,,
CRAIG EMPORIUM,US202736304,5615 W. MARGINAL WAY SW,,SEATTLE,WA,98106,US,,47.550755,-122.34668,,store,,
THE CLOTHES CO,US200147121,5615 W. MARGINAL WAY SW,,Seattle,WA,98106,US,,47.550755,-122.34668,,store,,
SITKA WORK & RUGGED GEAR STORE,US202140567,5615 W. MARGINAL WAY SW,,SEATTLE,WA,98106,US,,47.550755,-122.34668,,store,,
KLOTHES RUSH,US200138239,5615 W Marginal Way S.W.,,Seattle,WA,98106,US,,47.550754,-122.346679,,store,,
LEGACY DIST/SAMSON TUG,US202558797,9228 10TH AVE,,SEATTLE,WA,98108,US,,47.519306,-122.319611,,store,,
TONGASS TRADING CO,US200079951,9228 10TH AVE SOUTH,,SEATTLE,WA,98108,US,,47.519306,-122.319611,,store,,
STURTEVANTS,US200109142,13227 Ne 20th St.,,Bellevue,WA,98005,US,,47.627992,-122.162841,,store,,
KITSAP SPORTS,US100064033,622 N. CALLOW AVE,,BREMERTON,WA,98312,US,,47.567864,-122.653217,,store,,
BLUE & GOLD BOARDSHOP,US202875361,"3815 WEST VALLEY HWY, NORTH",,AUBURN,WA,98001,US,,47.342054,-122.249883,,store,,
EVOGEAR,US200107727,2601 WEST VALLEY HIGHWAY N.,,Auburn,WA,98001,US,,47.330618,-122.249906,,store,,
Tillys,US990283535,4502 South Steele Street,Tacoma Mall ,Tacoma,WA,98409,US,,47.218243,-122.468147,,store,,
Quiksilver Outlet Seattle Premium,F0835,10600 Quil CEDA Blvd,Suite #359,Marysville,WA,98271,US,,48.094068,-122.188021,,store,,
303 CLFX,US100138609,1338 E Colfax Ave,,Denver,CO,80218,US,,39.739978,-104.970389,,store,,
WINTERKIDS.COM,US100183073,1935 W 12th Ave,,Denver,CO,80204,US,,39.735493,-105.013359,,store,,
720 BOARDSHOP,US100171814,135 S. BROADWAY,,DENVER,CO,80209,US,,39.7141,-104.987946,,store,,
BBS Inc,US103244279,201 University BLVD #103,,Denver,CO,80203,US,,39.7201,-104.959778,,store,,
SURF ASSOCIATES,US200014028,700 W Mississippi Ave #A7,,Denver,CO,80223,US,,39.695404,-104.99559,,store,,
"CHRISTY SPORTS, LLC.",US100161529,875 Parfet Street,,Denver,CO,80215,US,,39.73056,-105.121109,,store,,
LARSONS SKI & SPORT,US200532186,4715 Kipling St,,Wheatridge,CO,80033,US,,39.782154,-105.110123,,store,,
Quiksilver Outlet Lakewood,F0834,14500 W Colfax Ave,Space #447,Lakewood,CO,80401,US,,39.730838,-105.159245,,store,,
HOIGAARD'S INC,US200150994,"16303 EAST 32ND AVE, SUITE 20",,AURORA,CO,80011,US,,39.762802,-104.797577,,store,,
SPECIALTY SPORTS,US200000069,16303 E.32ND AVE. SUITE 20,,AURORA,CO,80011,US,,39.762802,-104.797576,,store,,
Tillys,US990291313,8501 West Bowles Avenue,Southwest Plaza ,Littleton,CO,80123,US,,39.610687,-105.095505,,store,,
BC SURF & SPORT,US200013789,8501 W. Bowles Ave. #1A12,,Littleton,CO,80123,US,,39.610687,-105.095505,,store,,
FOOT PATHS,US100031212,415 Washington St,,Boston,MA,02108,US,,42.355848,-71.06014,,store,,
Tillys,US990285252,250 Granite St,South Shore Plaza ,Braintree,MA,02184,US,,42.220432,-71.027897,,store,,
Sun & Ski Sports,US990324343,406 Washington Street,,Woburn,MA,01801,US,,42.502649,-71.126506,,store,,
SHOEBUY.COM,US200112541,36 Cabot Rd,,Woburn,MA,01801-4521,US,,42.50901,-71.137779,,store,,
Tillys,US990285757,210 Andover Street,Northshore Mall ,Peabody,MA,01960,US,,42.541012,-70.940613,,store,,
Sun & Ski Sports,US990324141,296 Old Oak Street,,Pembroke,MA,02359,US,,42.107559,-70.764259,,store,,
NOTB SNOWBOARDS,US100154748,317 S Broadway,,Salem,NH,03079,US,,42.756264,-71.210165,,store,,
KEN JONES SKI MART,US100177217,195 DANIEL WEBSTER HWY,,NASHUA,NH,03060,US,,42.717434,-71.442636,,store,,
REDS SHOE BARN,US200079767,22 Plaistow Road,,Plaistow,NH,03865,US,,42.819201,-71.103713,,store,,
ALEC'S SHOE STORE,US100125762,201 Main Street,,Nashua,NH,03060,US,,42.760046,-71.465004,,store,,
CONCRETE WAVE,US100131681,54 W Boylston St,,Worcester,MA,01606,US,,42.290287,-71.806091,,store,,
CIVIL,US202241235,231 WESTMINSTER ST.,,PROVIDENCE,RI,02903,US,,41.823078,-71.412689,,store,,
PIONEERS BOARDSHOP,US100172196,62 Lafayette Rd,,North Hampton,NH,03862,US,,42.9713,-70.835592,,store,,
SNOWBOARD JONES,US100412639,150 Kaye St,,Manchester,NH,03103,US,,42.954601,-71.441109,,store,,
CIVIL,US202035236,88 MAIN ST.,,EAST GREENWICH,RI,02818,US,,41.662595,-71.450001,,store,,
SPORTS PLUS,US100191898,307 E 1St Street #1E & 1D,,Santa Ana,CA,92701,US,,48.117393,-123.429388,,store,,
ATHLETES CHOICE,US100170141,215 West 1St Street,,Port Angeles,WA,98362,US,,48.120419,-123.436089,,store,,
Below The Belt,CA990017070,1241 Government Street,,Victoria,BC,V8W 1Y6,CA,,48.426147,-123.367581,,store,,
Boathouse Hillside Mall,CA990065656,1644 Hillside Ave Unit 5,,Victoria,BC,V8T 2C5,CA,,48.444964,-123.335169,,store,,
Aspen's ,CA990054545,#90-1644 Hillside Avenue,,Vitoria,BC,V8T 2C5,CA,,48.445084,-123.335026,,store,,
Swimco Mayfair Shopping Centre,CA990019898,Unit 156 - 3147 Douglas Street,,Victoria,BC,V8Z 6E3,CA,,48.445822,-123.371121,,store,,
West 49 Mayfair Mall,CA990013030,3147 Douglas Street,225,Victoria,BC,V8Z 6E3,CA,,48.446018,-123.371242,,store,,
Below The Belt,CA990016868,3147 Douglas Street,,Victoria,BC,V8Z 6E3,CA,,48.446018,-123.371242,,store,,
Boathouse Seven Oaks Mall,CA990065151,32900 S Fraser Way Unit 109,,Abbotsford,BC,V2S 5A1,CA,,49.049898,-122.312477,,store,,
SPORTS OUTLET INCORPORATED,US103767997,7976 NEW HAMPSHIRE AVENUE,,HYATTSVILLE,MD,20783,US,,38.990428,-76.987637,,store,,
Sun & Ski Sports,US990323434,6280 Seven Corners Center,,Falls Church,VA,22044,US,,38.870102,-77.152175,,store,,
NEW FT BELVOIR MS,US201982919,8651 JOHN J KINGMAN BLDG 2321,,FT BELVOIR,VA,22060-0000,US,,38.741039,-77.137062,,store,,
Sun & Ski Sports,US990323939,203 Muddy Branch Road,,Gaithersburg,MD,20878,US,,39.129023,-77.207896,,store,,
Sun & Ski Sports,US990323838,14130 Sullyfield Circle,,Chantilly,VA,20151,US,,38.894554,-77.439407,,store,,
Tillys,US990281717,2700 Potomac Mills Circle,Potomac Mills ,Woodbridge,VA,22192,US,,38.645239,-77.299449,,store,,
Tillys,US990281515,7000 Arundel Mills Circle,Arundel Mills ,Hanover,MD,21076,US,,39.157108,-76.728279,,store,,
PURE BOARD SHOP,US100160932,1908 E. Forest Drive,,Annapolis,MD,21401,US,,38.988995,-76.550644,,store,,
Tillys,US990278484,1170 Annapolis Mall,Annapolis Mall ,Annapolis,MD,21401,US,,38.987849,-76.547882,,store,,
PIT CREW,US100109598,880 N. East St.,,Frederick,MD,31701,US,,39.425216,-77.403737,,store,,
VU SKATE SHOP LLC,US100138385,7118 Harford Rd,,Parkville,MD,21234,US,,39.367905,-76.548363,,store,,
PUSH CLOTHING,US202794535,8200 PERRY HALL BLVD STE 2005,,BALTIMORE,MD,21236,US,,39.37551,-76.472378,,store,,
Tillys,US990286464,1270 Carl D. Silver Parkway,Central Park ,Fredericksburg,VA,22401,US,,38.299831,-77.510175,,store,,
Skatology,US103067591,139 Thomas St,,Bel Air,MD,21014,US,,39.534214,-76.350517,,store,,
FISHBONE APPAREL,US200016678,1155 Carlisle Mall,,Hanover,PA,17331,US,,39.790501,-76.98027,,store,,
BIKLES,US103717046,1 N. POTOMAC ST.,,HAGERSTOWN,MD,21740,US,,39.642399,-77.7202,,store,,
BUCKLEY MAIN W/BAYS,US201991742,365 N Telluride St,,Auora,CO,80011-7809,US,,39.765532,-104.781629,,store,,
BC SURF & SPORT,US200014582,1 West Flat Irons Crossing #2106,,Broomfield,CO,80021,US,,39.895031,-105.136246,,store,,
Outabounds Ski and Board,US103377509,16342 E. Ida Ave,,Centennial,CO,80015,US,,39.611481,-104.799011,,store,,
Tillys,US990290808,8505 Park Meadows Center Drive,Park Meadows ,Lone Tree,CO,80124,US,,39.559624,-104.872879,,store,,
BC SURF & SPORT,US200014190,8678 Park Meadows Center,,Littleton,CO,80124,US,,39.557858,-104.874352,,store,,
BC SURF & SPORT,US200014991,8678 Park Meadows Cntr Dr,,Lonetree,CO,80124,US,,39.557858,-104.874352,,store,,
VAIL RESORTS RETAIL,US100094859,390 Interlocken Crescent,,Broomfield,CO,80021,US,,39.925296,-105.115463,,store,,
BRC HEAVENLY - SSV,US100306315,390 Interlocken Crescent Suite 660,,Broomfield,CO,80021,US,,39.925297,-105.115463,,store,,
Tillys,US990276060,l4647 Delaware St,Orchard Town Center ,Westminster,CO,80023,US,,39.957722,-104.991829,,store,,
Tillys,US990281414,1 W. Flatiron Crossing Drive,FlatIron Crossing ,Broomfield,CO,80021,US,,39.929823,-105.131069,,store,,
Tillys,US990274545,6200 S. Main St.,Southlands Shopping Center ,Aurora,CO,80016,US,,39.604383,-104.7088,,store,,
BC SURF & SPORT,US200014885,1600 28th St,,Boulder,CO,80301,US,,40.01601,-105.257187,,store,,
SATELLITE,US100102857,2835 PEARL ST. SUITE D,,BOULDER,CO,80301,US,,40.02272,-105.258003,,store,,
"RED'S SHOE BARN, INC.",US100017768,35 Broadway,,Dover,NH,03820,US,,43.201469,-70.871515,,store,,
COT/BOARDSTIFF,US200086996,193 Main St,,Falmouth,MA,02540,US,,41.552055,-70.616882,,store,,
"ISLAND ELEMENTS, INC.",US100071746,86 Aquidneck Ave,,Middletown,RI,02842,US,,41.492162,-71.284204,,store,,
BOARDING HOUSE,US100092181,354 Main St,,Hyannis,MA,02601,US,,41.653534,-70.282867,,store,,
MILTNER'S SHOES,US100125946,323 GONIC ROAD #6,,ROCHESTER,NH,03839,US,,43.275002,-70.98204,,store,,
"BONEYARD, THE",US200109097,47 Main Street,,Edgartown,MA,02539,US,,41.389866,-70.513596,,store,,
THEORY SKATESHOP,US200019939,50 Holyoke,,Holyoke,MA,01040,US,,42.167072,-72.640053,,store,,
GUNSTOCK MOUNTAIN RESORT,US202293219,719 CHERRY VALLEY RD.,,GILFORD,NH,03249,US,,43.549584,-71.357821,,store,,
HUBERT'S DEPT. STORE,US200097917,18 Roymal Lane,,Newport,NH,03773,US,,43.381741,-72.141586,,store,,
Long's Board Shop,US103646748,209B Western Ave,,South Portland,ME,04106,US,,43.636795,-70.322062,,store,,
ULLERS SKI & BOARD,US100161137,2799 S. Queen St.,,Dallastown,PA,17313,US,,39.907101,-76.671982,,store,,
KINGS DOMINION,US200136831,16000 Theme Park Way,,Doswell,VA,23047,US,,37.837959,-77.442375,,store,,
LIBERTY MOUNTAIN RESORT,US100215029,925 ROUNDTOP RD,,LEWISBERRY,PA,17339,US,,40.109787,-76.925537,,store,,
WHITETAIL RESORT,US100214355,925 ROUNDTOP RD,,LEWISBERRY,PA,17339,US,,40.109787,-76.925537,,store,,
ROUNDTOP MOUNTAIN RESORT,US100214219,925 ROUNDTOP RD,,LEWISBERRY,PA,17339,US,,40.109787,-76.925537,,store,,
VERNON POWEL SHOES,US100026074,2401 E Naylor Mill Rd,,Salisbury,MD,21804,US,,38.401291,-75.561089,,store,,
BOLTS N WHEELS FUN SHOP,US200275095,18 W MAIN ST,,MECHANICSBURG,PA,17055,US,,40.213224,-77.008422,,store,,
Op5,US202768190,2871 McCOLLUM PKWY,,KENNESAW,GA,30144,US,,34.023258,-84.590485,,store,,
"FC Skate Shop, LLC",US201110443,2325 Atlanta HWY Suite 600,,Cumming,GA,30040,US,,34.160145,-84.174522,,store,,
Tillys,US990284141,2164 North Point Circle,North Point Mall ,Alpharetta,GA,30022,US,,34.050809,-84.294917,,store,,
Tillys,US990289898,3333 Buford Drive,Mall of Georgia ,Buford,GA,30519,US,,34.068838,-83.985347,,store,,
Sun & Ski Sports,US990323737,5900 Sugarloaf Pkwy ,Suite # 647,Lawrenceville,GA,30043,US,,33.984973,-84.07861,,store,,
FISHBONE APPAREL,US200016879,4343 Carlisle Pike,,Camp Hill,PA,17011,US,,40.237362,-76.956963,,store,,
FISHBONE APPAREL,US200016780,5400 Jonestown Rd,,Harrisburg,PA,17112,US,,40.317081,-76.795654,,store,,
CHAPMAN SHOE EMPORIUM,US100120112,2601 N. 14th Street,,Ponca City,OK,74601,US,,36.735622,-97.066528,,store,,
MARK IT STORE,US100089783,5310 S. Peoria,,Tulsa,OK,74105,US,,36.086006,-95.976128,,store,,
Sun & Ski Sports,US990322727,6808 Memorial Drive,# 200,Tulsa,OK,74133,US,,36.0653,-95.888634,,store,,
Tillys,US990289494,7021 S Memorial Dr.,Woodland Hills Mall ,Tulsa,OK,74133,US,,36.062233,-95.886251,,store,,
FELTS SHOES CLAREMORE #21,US200810345,999 WILL ROGERS BLVD,,CLAREMORE,OK,74017,US,,36.314646,-95.621236,,store,,
Tillys,US990288181,7700 E Kellogg Drive,Towne East Square ,Wichita,KS,67207,US,,37.679695,-97.245537,,store,,
US OUTDOOR STORE,US100170252,219 Sw Broadway,,Portland,OR,97205,US,,45.522472,-122.678306,,store,,
ODDBALL SHOES,US100021768,1801 Nw Thurman St,,Portland,OR,97209,US,,45.535873,-122.69001,,store,,
Daddies Board Shop,US103592219,5909 NE 80th AVE,,Portland,OR,97218,US,,45.565769,-122.581482,,store,,
Tillys,US990285151,12000 SE 82nd Avenue,Clackamas Town Center ,Happy Valley,OR,97086,US,,45.43677,-122.579004,,store,,
Tillys,US990282929,7039 SW Nyberg St.,Nyberg Woods ,Tualatin,OR,97062,US,,45.382743,-122.748934,,store,,
HARRINGTON'S,US100065544,1817 Columbia Blvd.,,Saint Helens,OR,97051,US,,45.858719,-122.81633,,store,,
Quiksilver Outlet Woodburn Premium,F0839,1001 Arney Rd,Suite #422,Woodburn,OR,97071,US,,45.154007,-122.8788,,store,,
MT. HOOD SKI BOWL,US202121790,87000 E. HWY 26,,GOVERNMENT CAMP,OR,97028,US,,45.302831,-121.773933,,store,,
2nd WIND SPORTS,US100171908,202 STATE STREET,,HOOD RIVER,OR,97031,US,,45.708185,-121.51244,,store,,
TACTICS,US200059383,232 Lincoln St,,Eugene,OR,97401,US,,44.057205,-123.097372,,store,,
TACTICS,US100118784,375 W 4th Ave,,Eugene,OR,97401,US,,44.055737,-123.098221,,store,,
BERGS SKI & SNOWBOARD,US100159016,367 W. 13Th,,Eugene,OR,97401,US,,44.045834,-123.098251,,store,,
SLAM DUNK ATHLETICS,US100021918,2010 Yakima Valley Hwy,,Sunnyside,WA,98944,US,,46.32579,-119.99279,,store,,
Quiksilver Outlet Las Vegas Premium North,F0831,605 S Grand Central Pkwy,#1247,Las Vegas,NV,89106,US,,36.164951,-115.156371,,store,,
Tillys,US990273434,4300 Meadows Lane,Meadows Mall ,Las Vegas,NV,89107,US,,36.170256,-115.197472,,store,,
Quiksilver Miracel Mile,R0069,3663 Las Vegas Blvd. South,H-123,Las Vegas,,89109,US,,36.110775,-115.172186,,store,,
NELLIS MAIN STORE,US201989417,5691 Rickenbacker Rd,,Nellis AFB,NV,89191-0000,US,,36.236376,-115.049322,,store,,
Quiksilver Outlet Las Vegas Premium South,F0837,7400 Las Vegas Blvd S,Space #B32,Las Vegas,NV,89123,US,,36.055083,-115.172205,,store,,
Tillys,US990271717,8800 W. Charleston Blvd.,Boca Park Marketplace ,Las Vegas,NV,89117,US,,36.161209,-115.288506,,store,,
Tillys,US990271616,1300 W. Sunset Rd.,Galleria at Sunset ,Henderson,NV,89014,US,,36.063863,-115.040491,,store,,
MCGHIES SKI BIKE & BOARD,US100212522,4035 S Ft Apache Rd,,Las Vegas,NV,89147,US,,36.116436,-115.297661,,store,,
Tillys,US990275959,7325 Arroyo Crossing Pkwy,Arroyo Commons ,Las Vegas,NV,89113,US,,36.06322,-115.251114,,store,,
Tillys,US990290707,9863 Eastern Ave.,Silverado Ranch Plaza ,Las Vegas,NV,89183,US,,36.010212,-115.117946,,store,,
Quiksilver Laughlin Outlet Center,F0841,1955 S. Casino Dr,Space 202,Laughlin,NV,89029,US,,35.161564,-114.57457,,store,,
RIPLEY'S CLOTHING,US103786890,4705 HWY 95,,FORT MOHAVE,AZ,86426,US,,35.020107,-114.598564,,store,,
CHRISTENSENS - SAINT GEORGE,US200035325,761 South Bluff St,,Saint George,UT,84770,US,,37.094592,-113.586401,,store,,
LIP TRIX,US100093934,105 North 500 East,,Saint George,UT,84770,US,,37.110048,-113.572701,,store,,
CLASSIC SPORTS,US202779843,984 W STATE ST,,HURRICANE,UT,84737,US,,37.177131,-113.30503,,store,,
SHOES PLUS,US100016244,1651 N Mcculloch Blvd,,Lake Havasu City,AZ,86403,US,,34.476036,-114.342217,,store,,
BEACHCOMBERS - REAZ INV,US100046398,181 Swanson Ave,,Lake Havasu City,AZ,86403,US,,34.468655,-114.342468,,store,,
BUCKSKIN BOUTIQUE,US100076451,3931 APACHE MAID DRIVE,,LAKE HAVASU,AZ,86406,US,,34.477252,-114.265335,,store,,
BLUE BEACH BOARD SHOP,US100118462,2596 Mercantile Way Bldg,,Barstow,CA,92311,US,,34.876183,-117.021225,,store,,
Quiksilver Tanger Outlet Center Barstow,F0810,2796 Tanger Way,204,Barstow,CA,92311,US,,34.847269,-117.084732,,store,,
R&R CLOTHIERS INC.,US201225543,135 WEST RIVERSIDE DR.,,PARKER,AZ,85344,US,,34.155717,-114.276516,,store,,
CHRISTENSENS - CEDAR CITY,US200035423,984 S. MAIN,,CEDAR CITY,UT,84720,US,,37.660188,-113.071694,,store,,
E & E RETAIL,US100099786,70 EAST 200 NORTH #3,,CEDAR CITY,UT,84720,US,,37.678698,-113.058274,,store,,
"SAMUEL G. AIKEN CO., INC.",US100013738,39 West Center,,Kanab,UT,84741,US,,37.047813,-112.529479,,store,,
GEORG'S SKI SHOP,US200152050,612 S Hwy 143,,Brian Head,UT,84719,US,,37.686554,-112.853033,,store,,
SECOND REVOLUTION,US100097278,510 N. 8TH ST.,,SHEBOYGAN,WI,53081,US,,43.750134,-87.713333,,store,,
SKIERS OUTLET,US100613916,2550 S Washburn St,,Oshkosh,WI,54904,US,,43.988746,-88.586669,,store,,
MICHIGAN'S ADVENTURE,US100056342,4750 Whitehall Road,,Muskegon,MI,49445,US,,43.341377,-86.281677,,store,,
CASCADE MOUNTAIN,US100159992,W10441 Cascade Mt. Rd.,,Portage,WI,53901,US,,43.506722,-89.520656,,store,,
SCHEELS,US990266767,4301 W. Wisconsin Ave,,Appleton,WI,54913,US,,44.272991,-88.469728,,store,,
CRAZY MOUNTAIN SPORTS,US200150705,416 W Main St,,Red River,NM,87558,US,,36.710156,-105.409598,,store,,
SITZMARK SPORTS,US202145368,416 WEST MAIN STREET,,RED RIVER,NM,87558,US,,36.710156,-105.409598,,store,,
CUIKSA BOOT-TIQUE,US100624409,345 DICHOSO ST.,,PAGOSA SPRINGS,CO,81147,US,,37.23579,-107.097122,,store,,
Inferno Snowboard Co,US103076535,1001 Main Ave,,Durango,CO,81301,US,,37.274677,-107.880608,,store,,
SPORTS ARENA,US100069081,116 N 2Nd St,,Raton,NM,87740,US,,36.902683,-104.439796,,store,,
BUBBA'S BOARDS,US100666840,46825 HWY 550 N.,,DURANGO,CO,81301,US,,37.593116,-107.824836,,store,,
The Hammer LLC,US103345094,905 N. Main St,,Gunnison,CO,81230,US,,38.553997,-106.927368,,store,,
Rocky Mountain Trail.Com,US103116299,105 Isabel Ct,,Buena Vista,CO,81211,US,,38.830025,-106.120506,,store,,
COLORADO KAYAK,US200390276,327 E. Main,,Buena Vista,CO,81211,US,,38.842373,-106.129486,,store,,
CD SPORTS LTD,US200279002,2305 S. GEORGIA,,AMARILLO,TX,79109,US,,35.190366,-101.866212,,store,,
CARSON MAIN STORE,US201992090,6110 Martinez St,,Colorado Springs,CO,80913-2557,US,,38.740232,-104.797384,,store,,
Tillys,US990282020,697 East Shaw Ave,Fashion Fair ,Fresno,CA,93710,US,,36.808435,-119.775221,,store,,
HERB BAUER SPORTING GOODS,US100107767,6264 N. Blackstone Ave.,,Fresno,CA,93710,US,,36.827271,-119.789604,,store,,
PRODIGY SHOES,US100022327,1050 Shaw Ave,,Clovis,CA,93612,US,,36.808418,-119.691917,,store,,
Tillys,US990288787,6581 N. Riverside Drive,Marketplace at El Paseo ,Fresno,CA,93722,US,,36.802082,-119.878487,,store,,
Tillys,US990274949,90 Via del Oro,Shops at Riverpark ,Fresno,CA,93720,US,,36.850168,-119.789234,,store,,
PRODIGY,US202789726,1675 W LACEY BLVD,,HANFORD,CA,93230,US,,36.327942,-119.67214,,store,,
Tillys,US990289595,5701 Outlets at Tejon Parkway,Outlets at Tejon Ranch ,Arvin,CA,93203,US,,37.2551,-119.617523,,store,,
Tillys,US990268989,30616 Santa Margarity Pkwy,Santa Margarita Town Center ,RSM,CA,92688,US,,37.2551,-119.617523,,store,,
Tillys,US990275858,4039 South Mooney Blvd,Packwood West Region Shop Ctr ,Visalia,CA,93277,US,,36.293778,-119.313766,,store,,
TOP SHOPPE'S NORTH SHORE,US200083753,40034 Highway 49 Suite A6,,Oakhurst,CA,93644,US,,37.331801,-119.657447,,store,,
Tillys,US990277777,1497 Retherford St,Preferred Outlets at Tulare ,Tulare,CA,93274,US,,36.230343,-119.335347,,store,,
CHINA PEAK MTN. RESORT,US202151922,59265 HWY 168,,LAKESHORE,CA,93634,US,,37.234252,-119.16843,,store,,
Tillys,US990282121,250 Merced Mall,Merced Mall ,Merced,CA,95348,US,,37.319442,-120.481698,,store,,
AHA SHOES,US202780752,MERCED MALL,,MERCED,CA,95340,US,,37.320301,-120.481781,,store,,
VILLAGE SPORTS,US100124082,941 W Pacheco Blvd,,Los Banos,CA,93635,US,,37.056767,-120.869637,,store,,
KITTRIDGE SPORTS,US200094335,3218 Main Street,,Mammoth Lakes,CA,93546,US,,37.648048,-118.969032,,store,,
MMSA DISTRIBUTION CENTER,US200121852,123 COMMERCE DRIVE UNIT C-1,,MAMMOTH LAKES,CA,93546,US,,37.641998,-118.950538,,store,,
Tillys,US990290202,2737 Countryside Drive,Monte Vista Crossing ,Turlock,CA,95380,US,,37.5177,-120.879712,,store,,
EARTH AND OCEAN BOARDSHOP,US100104589,1013 MONO WAY,,SONORA,CA,95370,US,,37.97587,-120.366014,,store,,
CENTRAL BOARD SPECIALTIES,US100178806,1275 East F Street #8,,Oakdale,CA,95361,US,,37.76952,-120.8367,,store,,
ALLIANCE BOARD COMPANY,US100103669,1233 Park St.,,Paso Robles,CA,93446,US,,35.627431,-120.690221,,store,,
STRIDE RITE/SHOES III INC,US100033836,240 Vintage Faire Mall,,Modesto,CA,95356,US,,37.685849,-121.052115,,store,,
Tillys,US990279696,3401 Dale Road,Vintage Faire Mall ,Modesto,CA,95356,US,,37.689625,-121.051063,,store,,
STRIDE RITE #3,US200138035,3401 Dal Rd #240,,Modesto,CA,95356,US,,37.689625,-121.051063,,store,,
Tillys,US990289191,1689 Arden Way,Arden Fair ,Sacramento,CA,95815,US,,38.600215,-121.428016,,store,,
Tillys,US990273939,3642 North Freeway Blvd,Village at Sacramento Gateway ,Sacramento,CA,95834,US,,38.639261,-121.497304,,store,,
MCCLELLAN MAIN STORE,US201990421,5443 Dudley Blvd,,McClellan AFB,CA,95652-1128,US,,38.666954,-121.388367,,store,,
Tillys,US990271818,9688 Bruceville Rd.,Elk Grove Commons ,Elk Grove,CA,95757,US,,38.405585,-121.417748,,store,,
Tillys,US990278080,6157 Sunrise Mall,Sunrise Mall ,Citrus Heights,CA,95610-6903,US,,38.67821,-121.267174,,store,,
Quiksilver / DC Outlet Folsom Premium,F0848,13000 Folsom Blvd,Suite 302/303,Folsom,CA,95630,US,,38.642626,-121.189507,,store,,
Tillys,US990278888,1151 Galleria Blvd,Galleria at Roseville ,Roseville,CA,95678,US,,38.772257,-121.265936,,store,,
Tillys,US990279898,2761 East Bidwell Street,Broadstone Plaza ,Folsom,CA,95630,US,,38.654409,-121.123185,,store,,
Tillys,US990274444,1641 E. Monte Vista Ave.,Nut Tree Village ,Vacaville,CA,95688,US,,38.368227,-121.96139,,store,,
MCCAULOU'S,US200264814,372 Elm Ave,,Auburn,CA,95603,US,,38.905281,-121.072731,,store,,
TRAVIS AFB MAIN STORE,US201990203,461 Skymaster,,Travis AFB,CA,94535-0505,US,,38.272884,-121.938042,,store,,
HASSAN'S CLOTHING,US100055247,100 N Sacramento St,,Lodi,CA,95240,US,,38.135544,-121.271797,,store,,
Tillys,US990269898,19811 Rinaldi St.,Porter Ranch Town Center ,Northridge,CA,91326,US,,38.739243,-120.80516,,store,,
Tillys,US990279292,4950 Pacific Avenue,Weberstown Mall ,Stockton,CA,95207,US,,37.995781,-121.313927,,store,,
BOARDS N MORE,US100131883,306 OAK STREET,,BRENTWOOD,CA,94513,US,,37.932369,-121.694855,,store,,
"GOOD TIMES BOARD STORE, INC",US100133176,146 MILL STREET,,GRASS VALLEY,CA,95945,US,,39.217834,-121.063286,,store,,
JEAN MACHINE,US100031189,255 E. 4th St.,,Long Beach,CA,90802,US,,33.77178,-118.189972,,store,,
Tillys,US990268787,5286 East 2nd St.,Belmont Shore ,Long Beach,CA,90803,US,,33.75939,-118.133035,,store,,
"URBAN FEET, INC.",US200057446,329 W. 6th St,,San Pedro,CA,90731,US,,33.738487,-118.284088,,store,,
United Boardshop United Boardshop,US103297740,4140 Woodruff Ave,,Lakewood,CA,90713,US,,33.83374,-118.116486,,store,,
Tillys,US990269595,7350 Carson Blvd.,Long Beach Towne Center ,Long Beach,CA,90808,US,,33.831275,-118.088319,,store,,
Tillys,US990270000,2645 Pacific Coast Highway,Rolling Hills Plaza ,Torrance,CA,90505,US,,33.79135,-118.332096,,store,,
CORE SKATE,US100027986,1727 CRENSHAW BLVD,,TORRANCE,CA,90501,US,,33.830421,-118.32898,,store,,
Tillys,US990268484,6836 Katella Ave,Cypress Plaza ,Cypress,CA,90630,US,,33.802783,-118.013954,,store,,
SPYDER PCH,US201097205,4050 SPENCER AVE UNIT L,,TORRANCE,CA,90503,US,,33.844954,-118.356749,,store,,
TURQUOISE,US200838828,4050 Spencer St. #J,,Torrance,CA,90503,US,,33.844954,-118.356749,,store,,
Tillys,US990270707,1815 Hawthorne Blvd,Galleria at South Bay ,Redondo Beach,CA,90278,US,,33.871212,-118.352765,,store,,
IDENTITY BOARD SHOP INC.,US100089527,7886 Beach Blvd.,,Buena Park,CA,90620,US,,33.848377,-117.997253,,store,,
Tillys,US990268585,18545 Main St.,Five Points Plaza ,Huntington Beach,CA,92648,US,,33.693169,-117.990349,,store,,
"E T SURFBOARDS, INC",US200015487,904 Aviation Blvd.,,Hermosa Beach,CA,90254,US,,33.863168,-118.391248,,store,,
KICKS FOOTWEAR,US100047819,12035 SLAUSON AVE SUITE A,,SANTA FE SPRINGS,CA,90670,US,,33.931587,-118.061966,,store,,
KICKS FOOTWEAR,US201225120,12035 SLAUSON AVE. SUITE A,,SANTA FE SPRINGS,CA,90670,US,,33.931587,-118.061966,,store,,
SUPER SPORTS INC,US100034019,2930 Sepulveda Blvd,,Manhattan Beach,CA,90266,US,,33.896642,-118.395912,,store,,
SHOE LOCKER,US100124935,18291 Brookhurst St #1,,Fountain Valley,CA,92708,US,,33.697181,-117.954371,,store,,
AIYA GROUP,US100625957,1871 W Commonwealth Ave,,Fullerton,CA,92833,US,,33.870426,-117.962135,,store,,
ESCAPIST,US100117619,405 Southwest Blvd,,Kansas City,MO,64108,US,,39.087131,-94.589454,,store,,
WORLDS OF FUN,US100056687,4545 Worlds Of Fun Avenue,,Kansas City,MO,64161,US,,39.175802,-94.492343,,store,,
Tillys,US990288888,18813 E 39th Street South,Independence Center ,Independence,MO,64057,US,,39.04786,-94.356751,,store,,
Tillys,US990287777,5215 W. 117th St,Town Center Plaza ,Leawood,KS,66211,US,,38.916429,-94.646389,,store,,
ESCAPIST,US200048620,880 Nw Blue Pkwy,,Lees Summit,MO,64086,US,,38.930161,-94.400905,,store,,
SCHEELS,US990268282,6503 West 135th St,,Overland Park,KS,66223,US,,38.880516,-94.660805,,store,,
LEAVENW MAIN STORE,US201991490,330 Kansas Ave,,Ft Leavenworth,KS,66027-6400,US,,39.338284,-94.922718,,store,,
RILEY NEW MAIN STORE,US201991587,Trooper Dr,,Ft Riley,KS,66442-0000,US,,39.06879,-96.829468,,store,,
SCHEELS,US990266464,2960 Pine Lake Road,STE B,Lincoln,NE,68516-6010,US,,40.740784,-96.678056,,store,,
PRECISION SKATEBOARDS,US100111818,2005 Y ST. SUITE B,,LINCOLN,NE,68503,US,,40.823875,-96.692001,,store,,
Tillys,US990286161,10000 California Street,Westroads Mall ,Omaha,NE,68114,US,,41.264593,-96.066732,,store,,
SCHEELS,US990266969,17202 Davenport Street,,Omaha,NE,68118,US,,41.261883,-96.183594,,store,,
SCHEELS,US990267070,101 Jordan Creek Parkway,Buillding # 4000,W. Des Moines,IA,50266,US,,41.570167,-93.80767,,store,,
The Buckle,US990264141,101 Jordan Creek Parkway,Suite 12130,WEST DES MOINES ,,50266,US,,41.570168,-93.807671,,store,,
BROWN'S SHOE FIT CO.,US202871536,108 S. IOWA St.,,WASHINGTON,IA,52353,US,,41.299,-91.691299,,store,,
Tillys,US990278686,701 Lynnhaven Parkway,Lynnhaven Mall ,Virginia Beach,VA,23452,US,,36.820011,-76.067062,,store,,
Tillys,US990279090,12300 Jefferson Avenue,Patrick Henry Mall ,Newport News,VA,23602,US,,37.111828,-76.496925,,store,,
SFS WAREHOUSE,US202751893,111 FOX KNOLL DRIVE,,POWELLS POINT,NC,27966,US,,36.146828,-75.846832,,store,,
LEE MAIN STORE,US201987691,300 A Ave,,Ft Lee,VA,23801-1603,US,,37.251484,-77.325958,,store,,
PARADISE BEACH SHOP,US103374250,114 WEST FORT MACON ROAD,,ATLANTIC BEACH,NC,28512,US,,34.701144,-76.7386,,store,,
FREESTYLE,US100168423,475 Westfield Rd,,Charlottesville,VA,22901,US,,38.07193,-78.484558,,store,,
Tillys,US990283737,377 Jacksonville Mall,Jacksonville Mall ,Jacksonville,NC,28546,US,,34.767247,-77.381876,,store,,
MARKLES INC,US100071184,9425 Second Ave,,Stone Harbor,NJ,08247,US,,39.054413,-74.758125,,store,,
ROBINS MAIN STORE,US201985492,982 Macon St,,Robins AFB,GA,31098-0000,US,,32.648323,-83.444534,,store,,
BEN MAIN EXCHANGE,US201985711,Marne Rd,,Ft Benning,GA,31905-2328,US,,32.370609,-84.92659,,store,,
"The Ski Shop, Inc",US103378323,1422 South Tejon St.,,Colorado Springs,CO,80905,US,,38.813536,-104.824666,,store,,
HOYAL BOARD COMPANY,US100090816,1246 E. WOODMEN RD,,COLORADO SPRINGS,CO,80920,US,,38.933225,-104.801081,,store,,
BC SURF & SPORT,US200013986,1710 Briargate Blvd.,,Colorado Springs,CO,80920,US,,38.945305,-104.794121,,store,,
CASTLE ROCK BIKE AND SKI,US103717293,411 4TH ST.,,CASTLE ROCK,CO,80104,US,,39.373332,-104.858413,,store,,
PETERSON MAIN STORE NEW,US201992183,1030 E Stewart Ave,,Peterson AFB,CO,80914-0000,US,,38.998543,-105.547813,,store,,
SCHEELS,US990266666,4400 Sergeant Road ,#54,Sioux City,IA,51106,US,,42.448089,-96.350083,,store,,
BROWN'S SHOE,US200120037,618 Lake Ave,,Storm Lake,IA,50588,US,,42.644698,-95.200896,,store,,
SUN N' FUN SPECIALTY SPORTS,US103890359,1605 W. 41ST STREET,,SIOUX FALLS,SD,57105,US,,43.514339,-96.744934,,store,,
SCHEELS,US990266565,2101 West 41st Street,,Sioux Falls,SD,57105,US,,43.513187,-96.754028,,store,,
Tillys,US990282525,4001 West 41st St.,Empire Mall ,Sioux Falls,SD,57106,US,,43.514805,-96.774679,,store,,
THE BUCKLE INC 1,US200155019,2915 W 16th St,,Kearney,NE,68845,US,,40.689674,-99.120575,,store,,
OFFUTT NEW MAIN STORE,US201991672,106 Meyer Ave,,Offutt AFB,NE,68113-4034,US,,41.527271,-99.811104,,store,,
SCHEELS,US990267979,402 Viking Plaza Drive,,Cedar Falls,IA,50613,US,,42.481621,-92.4422,,store,,
SCHEELS,US990267171,1850 Adams St,Suite 6,Mankato,MN,56001,US,,44.170963,-93.955681,,store,,
SCHEELS,US990266363,1461 Coral Ridge Avenue,,Coralville,IA,52241,US,,41.691487,-91.608407,,store,,
17TH STREET SURF SHOP,US200009504,414 S College Dr,,Wilmington,NC,28403,US,,34.233189,-77.876503,,store,,
BEST BRAND BOOTS,US103265427,307 A RALEIGH ST UNIT 1,,WILMINGTON,NC,28412,US,,34.180189,-77.934646,,store,,
CAPE FEAR SURF SHOP,US100106180,3229 Holden Beach Rd. Sw,,Supply,NC,28462,US,,33.927247,-78.272072,,store,,
TSUNAMI 8,US202522720,1046 SEA MOUNTAIN HWY,,N. MYRTLE BEACH,SC,29582,US,,33.840366,-78.64508,,store,,
COMFORTABLE FOOTWEAR LLC,US202751079,10839 KINGS RD. #704,,MYRTLE BEACH,SC,29572,US,,33.785031,-78.770526,,store,,
TSUNAMI,US200144412,1107 North Ocean Blvd,,Myrtle Beach,SC,29577,US,,33.693856,-78.877983,,store,,
"MIA SKATEBOARDING, INC.",US100122438,229 9th Street,,Miami Beach,FL,33139,US,,25.779522,-80.132714,,store,,
ALVIN'S ISLAND #18,US200148093,216 Lincoln Rd,,Miami Beach,FL,33139,US,,25.790678,-80.130349,,store,,
PANACHE - PO777,US202490245,1951 NW 89TH PLACE,,MIAMI,FL,33172,US,,25.79191,-80.341957,,store,,
TAXI TRADING,US201946500,9950 NW 17TH STREET,,MIAMI,FL,33172,US,,25.789305,-80.357155,,store,,
Tillys,US990275555,11401 N.W. 12 Street,Dolphin Mall ,Miami,FL,33172,US,,25.78281,-80.376827,,store,,
Quiksilver Outlet Dolphin Mall,F00830,11401 NW 12th St,289,Miami,FL,33172,US,,25.786696,-80.377607,,store,,
DUTY FREE CARIB.-BARBADOS,US200462084,9505 Nw 108Th Ave.,,Medley,FL,33178,US,,25.859772,-80.371986,,store,,
PLATINUM SECURITY,US200571003,9505 N.W. 108TH AVE,,Miami,FL,33178,US,,25.859772,-80.371986,,store,,
PANACHE - PO888,US202490346,"12600 N.W. 25TH STREET, #107",,MIAMI,FL,33182,US,,25.794973,-80.399231,,store,,
PANACHE CURACAO PO555,US202490447,"12600 N.W. 25TH STREET, #107",,MIAMI,FL,33182,US,,25.794973,-80.399231,,store,,
PHOTO TOURS C/O,US201242088,12600 NW 25TH ST.,,MIAMI,FL,33182,US,,25.794973,-80.399231,,store,,
Tillys,US990286060,8740 Mills Drive,Palms at Town and Country ,Miami,FL,33183,US,,25.687703,-80.38639,,store,,
SPORTS CENTER LTD,US200624687,11701 NW 102ND ROAD SUITE 15,,MEDLEY,FL,33178,US,,25.872772,-80.366012,,store,,
BEAUTY LOOK N.V.,US202033103,10301 NW 108 AVE. SUITE 2,,MIAMI,FL,33178,US,,25.868103,-80.372169,,store,,
Quiksilver Aventura Mall,R0106,19501 Biscayne Blvd.  ,#1265,Aventura,FL,33180,US,,25.956979,-80.146787,,store,,
Tillys,US990277171,11401 Pines Blvd,Pembroke Lakes Mall ,Pembroke Pines,FL,33026,US,,26.009403,-80.302917,,store,,
Tillys,US990285959,2150 S. University Drive,Tower Shops ,Davie,FL,33324,US,,26.094112,-80.251163,,store,,
Quiksilver Outlet Sawgrass Mills,F0801,12801 W Sunrise Blvd,811,Sunrise,FL,33323,US,,26.146256,-80.325974,,store,,
BC SURF & SPORT,US202810288,398 NE 38th STREET,,OAKLAND,FL,33334,US,,26.17381,-80.141784,,store,,
Tillys,US990287373,9541 W. Atlantic Blvd.,Coral Square ,Coral Springs,FL,33071,US,,26.239998,-80.252582,,store,,
FLATSPOT BOARDSHOP,US100138183,1267 N University Dr.,,Coral Springs,FL,33071,US,,26.245702,-80.253054,,store,,
ISLAND WATER SPORTS ,US100093262,1985 Ne 2Nd Street,,Deerfield Beach,FL,33441,US,,26.316465,-80.077563,,store,,
SHRED SHED INC.,US100115950,"1101 N Dixie Hwy, # B",,Lake Worth,FL,33460,US,,26.629025,-80.057198,,store,,
BC SURF & SPORT,US202137483,10300 W. FOREST HILL BLVD #214,,WELLINGTON,FL,33414,US,,26.650959,-80.207812,,store,,
Adventure Moto,US103196945,901 S Military Trail,,West Palm Beach,FL,33415,US,,26.664369,-80.112718,,store,,
FAMILIA SKATESHOP LLC,US100225235,2833 HENNEPIN AVE S,,MINNEAPOLIS,MN,55408,US,,44.95084,-93.297874,,store,,
3RD LAIR SKATEPARK & SKATE SHOP,US100606111,850 Florida Ave South,,Golden Valley,MN,55426,US,,44.973014,-93.363616,,store,,
JOES SPORTING GOODS,US100069196,33 E County rd B,,Saint Paul,MN,55117,US,,45.007069,-93.100082,,store,,
Tillys,US990283838,246 North Garden,Mall of America ,Bloomington,MN,55425,US,,44.855435,-93.242895,,store,,
THE HOUSE,US200080496,523 Shoreview Park Rd,,Saint Paul,MN,55126,US,,45.052579,-93.123084,,store,,
Tillys,US990289797,3995 Eagen Outlets Parkway,Paragon Outlets Twin Cities ,Eagan,MN,55122,US,,44.818081,-93.16716,,store,,
HOT SPOT,US200012710,10563 University Ave Ne,,Minneapolis,MN,55434,US,,45.162507,-93.266219,,store,,
VALLEY FAIR,US200137066,One Valleyfair Drive,,Shakopee,MN,55379,US,,44.801289,-93.459689,,store,,
VALLEYFAIR,US100056468,One Valleyfair Drive,,Shakopee,MN,55379,US,,44.801289,-93.459689,,store,,
PINEWSKI'S SKI SHOP,US100057793,546 W. Main Street,,Anoka,MN,55303,US,,45.204594,-93.400986,,store,,
ZOMBIE BOARDSHOP,US100127507,15100 Buckhill Rd.,,Burnsville,MN,55306,US,,44.728546,-93.284157,,store,,
TRADEHOME SHOES,US100020356,8300 97th St. S.,,Cottage Grove,MN,55016,US,,44.808513,-92.939971,,store,,
YOUTH SHELTER BOARD SUPPY,US100096799,305 5TH AVE S. SUITE 100,,ST. CLOUD,MN,56301-4350,US,,45.558068,-94.155547,,store,,
SCHEELS,US990266868,40 North Waite Ave,,Waite Park,MN,56387,US,,45.556267,-94.213685,,store,,
SCHEELS,US990268383,1220 12th Street SW,,Rochester,MN,55902,US,,44.006895,-92.47928,,store,,
SCHEELS,US990266262,4710 Golf Road,,Eau Claire,WI,54701-8926,US,,44.774086,-91.439926,,store,,
MASON COMPANIES,US100023589,1251 1St Ave,,Chippewa Falls,WI,54729,US,,44.951678,-91.379488,,store,,
MASON COMPANIES (DC 2),US200115791,2321 OLSON DRIVE,,Chippewa Falls,WI,54729,US,,44.937871,-91.352906,,store,,
BREKKENS,US100013526,14136 Baxter Dr #27,,Baxter,MN,56425,US,,46.356884,-94.225334,,store,,
DAMAGE INC,US100590728,1904 W SUPERIOR ST,,DULUTH,MN,55806,US,,46.768478,-92.121689,,store,,
BENDER'S SHOE,US202516212,405 E. HOWARD ST.,,HIBBING,MN,55746,US,,47.427519,-92.937661,,store,,
CENTRAL BOARD SHOP,US100216305,426 3RD ST,,WAUSAU,WI,54403,US,,44.960105,-89.627959,,store,,
Tillys,US990287474,185 Millcreek Mall,Millcreek Mall ,Erie,PA,16565,US,,42.0721,-80.099809,,store,,
Harrington Sports,CA990059898,138 Erie Blvd.,,Long Point,ON,N0E 1M0,CA,,42.579436,-80.429235,,store,,
Archies,CA990000202,649 Richmond Street,,London,ON,N6A 3G7,CA,,42.992164,-81.251619,,store,,
Harrington Sports,CA990059494,93 Broadway,,Tillsonburg,ON,N4G 3P5,CA,,42.859747,-80.726973,,store,,
ALVIN'S ISLAND #19,US200148194,100 W Beach Blvd,,Gulf Shores,AL,36542,US,,30.247852,-87.690392,,store,,
ALVIN'S ISLAND #22,US200148397,24949 Perdido Beach Blvd,,Orange Beach,AL,36561,US,,30.2677,-87.599167,,store,,
WATER BOYZ,US100101195,380 N 9th Ave,,Pensacola,FL,32502,US,,30.41815,-87.205582,,store,,
Tillys,US990277070,5100 N 9th Ave,Cordova Mall ,Pensacola,FL,32504,US,,30.473938,-87.211357,,store,,
ALVIN'S ISLAND #12,US200147790,400 Quitewater Bch Rd #1,,Pensacola Beach,FL,32561,US,,30.335483,-87.14257,,store,,
PLUS SKATE SHOP,US100090607,186 Miracle Strip Parkway,,Fort Walton Beach,FL,32548,US,,30.405393,-86.625848,,store,,
ALVIN'S ISLAND #9,US200149105,1204 Miracle Stp Pkwy Se,,Fort Walton Beach,FL,32548,US,,30.4177,-86.626091,,store,,
ALVIN'S ISLAND #318,US200148499,1000 Hwy 98 East,,Destin,FL,32541,US,,30.386983,-86.47364,,store,,
ALVIN'S ISLAND #11,US200147689,1073 Hwy 98 East,,Destin,FL,32541,US,,30.386741,-86.467391,,store,,
ALVIN'S ISLAND #759,US200148904,10271 Emerald Coast Pkwy,,Destin,FL,32541,US,,30.387011,-86.4571,,store,,
ALVIN'S ISLAND #750,US200148601,34888 Emerald Coast Pkwy,,Destin,FL,32541,US,,30.387709,-86.429939,,store,,
ALVIN'S ISLAND #14,US200147891,1976A Scenic S. Gulf Dr,,Destin,FL,32550,US,,30.378368,-86.380859,,store,,
ALVIN'S ISLAND #752,US200148702,632 Old Hwy 98,,Miramar Beach,FL,32550,US,,30.375565,-86.359253,,store,,
ALVIN'S ISLAND #7,US200148500,17698 Front Beach Rd,,Panama City Beach,FL,32413,US,,30.233835,-85.910751,,store,,
Tillys,US990276363,201 Bluefish Dr,Pier Park ,Panama City Beach,FL,32413,US,,30.22024,-85.86981,,store,,
ALVIN'S ISLAND #1,US200542187,14520 FRONT BEACH RD,,PANAMA CITY BEACH,FL,32413,US,,30.205626,-85.856735,,store,,
ALVIN'S ISLAND #10,US200147588,12010 Front Beach Rd,,Panama City Beach,FL,32407,US,,30.190416,-85.828667,,store,,
ALVIN'S ISLAND #20,US200542596,11220 Front Beach Road,,Panama City Beach,FL,32407,US,,30.185715,-85.81916,,store,,
ALVIN'S ISLAND #2,US200148295,9401 Thomas Dr,,Panama City,FL,32408,US,,30.174765,-85.797943,,store,,
ALVIN'S ISLAND #17,US200147992,4200 Thomas Dr,,Panama City,FL,32408,US,,30.139561,-85.750025,,store,,
Tillys,US990276666,2701 Ming Ave,Valley Plaza ,Bakersfield,CA,93304-4415,US,,35.339335,-119.033574,,store,,
Tillys,US990270606,27027 McBean Parkway,Promenade at Town Center ,Valencia,CA,91355,US,,34.421745,-118.564751,,store,,
BROOKS SHOES FOR KIDS #4,US200086032,24201 Valencia Blvd,,Valencia,CA,91355,US,,34.413231,-118.557223,,store,,
VAL SURF,US200013262,24140 Valencia Blvd,,Valencia,CA,91355,US,,34.412975,-118.555482,,store,,
Tillys,US990271414,1233 W. Rancho Vista Rd.,Antelope Valley Mall ,Palmdale,CA,93551,US,,34.601895,-118.152342,,store,,
Tillys,US990280404,917 State Street,State Street ,Santa Barbara,CA,93101,US,,34.420742,-119.701477,,store,,
LIGHTHOUSE,US103855532,16 B HELENA AVE,,SANTA BARBARA,CA,93101,US,,34.412986,-119.688791,,store,,
Tillys,US990273131,1555 Simi Vlly Twn Ctr Way,Simi Valley Town Center ,Simi Valley,CA,93065,US,,34.283829,-118.769722,,store,,
Action Village,US103183534,41 MORELAND RD,,SIMI VALLEY,CA,93065,US,,34.277069,-118.79715,,store,,
FIVE POINTS SK8 & SNOWBOARD,US100111281,2787 E Main St,,Ventura,CA,93003,US,,34.272832,-119.258553,,store,,
SBT PRODUCTIONS INC.,US100117758,4226 Valley Fair St.,,Simi Valley,CA,93063,US,,34.272266,-118.712807,,store,,
TEN TALL TREES LLC,US200660903,"2368 EASTMAN AVENUE, UNIT #15",,VENTURA,CA,93003,US,,34.252006,-119.229125,,store,,
Tillys,US990270202,161 W. Esplanade Dr.,Esplanade Shopping Center ,Oxnard,CA,93036-1101,US,,34.231601,-119.175648,,store,,
Tillys,US990290505,7046 Marketplace Drive,Camino Real Marketplace ,Goleta,CA,93117,US,,34.429523,-119.873472,,store,,
NEW STAR ACTIVEWEAR INC,US100056820,12933 Foothill Blvd,,Sylmar,CA,91342,US,,34.294872,-118.415946,,store,,
BOARDERS SPORTS INC,US200264177,9400 Lurline Ave #D,,Chatsworth,CA,91311,US,,34.241165,-118.582855,,store,,
BOARDERS NORTHRIDGE,US201969974,9301 TAMPA AVE. #192,,NORTHRIDGE,CA,91324,US,,34.239143,-118.556121,,store,,
BOARDERS SPORTS INC,US200015876,9301 Tampa Ave # 80,,Northridge,CA,91324,US,,34.239143,-118.556121,,store,,
Tillys,US990271313,33 North Moonpark Rd.,Village at Moorpark ,Thousand Oaks,CA,91360,US,,34.179916,-118.876923,,store,,
SHOE FACTORY,US100025733,2720 Saviers Rd,,Oxnard,CA,93033,US,,34.174912,-119.177442,,store,,
VAL SURF,US200013063,3055 E Thousand Oaks Blvd,,Thousand Oaks,CA,91362,US,,34.169994,-118.835205,,store,,
VALLEY SKATE & SURF,US100110567,16914 Parthenia Street,,North Hills,CA,91343,US,,34.228445,-118.500955,,store,,
SKATEPARK OF TAMPA,US100113089,2602 N 43rd STREET,,TAMPA,FL,33605,US,,27.965891,-82.410061,,store,,
The Boardr,US103360117,4611 N Hale Ave,,Tampa,FL,33614,US,,27.985069,-82.510422,,store,,
Tillys,US990275656,2223 N. West Shore Blvd,Tampa-Int'l ,Tampa,FL,33607,US,,27.966714,-82.52156,,store,,
MACDILL MAIN STORE,US201986269,3108 N Boundary Blvd,,Macdill AFB,FL,33608-6842,US,,27.855284,-82.483162,,store,,
Tillys,US990275050,955 Brandon Town Center,Brandon Town Center ,Brandon,FL,33511,US,,27.933952,-82.328546,,store,,
Tillys,US990277979,27001 US Highway 19 North,Westfield Countryside ,Clearwater,FL,33761,US,,28.017635,-82.736473,,store,,
Tillys,US990276565,6901 Tyrone Sq.,Tyrone Square ,St. Petersburg,FL,33710,US,,27.792551,-82.733443,,store,,
SURF STYLE,US200154446,315 S Gulfview Blvd,,Clearwater Beach,FL,33767,US,,27.973051,-82.828903,,store,,
ALVIN'S ISLAND #758,US200148803,462 John Ringling Blvd,,Sarasota,FL,34236,US,,27.318605,-82.57608,,store,,
Quiksilver Waikiki Beachwalk,R0070,2181 KALAKAUA AVE.,Suite 101,Honolulu,HI,96815,US,,21.279709,-157.830231,,store,,
Quiksilver Tabora Waikiki,R0122,2335 Kalakakaua Ave. #103,,Honolulu,HI,96815,US,,21.277214,-157.827271,,store,,
NORTHSHORE BOARDRIDERS,US100152644,66-250 Kam Hwy #G-100,,Haleiwa,HI,96712,US,,21.589479,-158.102905,,store,,
Quiksilver Whalers Village,R0053,2435 Kaanapali Parkway,K1,Lahaina,HI,96761,US,,20.920866,-156.693796,,store,,
Quiksilver Maui,R0022,851 Front St,,Lahaina,HI,96761,US,,20.87567,-156.680196,,store,,
Quiksilver Wailea,R0121,3750 Wailea Alanui ,#B-50,Wailea,HI,96753,US,,20.686855,-156.44035,,store,,
Quiksilver Kai Kane,R0098,5-5088 Kuhio Highway,,Hanalei ,HI,96714,US,,22.204164,-159.491873,,store,,
Quiksilver Queen's Marketplace,R0084,201 Waikoloa Beach Dr.,Suite F14-16,Waikoloa,HI,96738,US,,19.924852,-155.866637,,store,,
Tillys,US990268686,1363 S. Harbor Blvd.,Fullerton Metro Center ,Fullerton,CA,92832,US,,33.85851,-117.924435,,store,,
Tillys,US990269292,20 City Blvd. West,The Outlets at Orange ,Orange,CA,92868,US,,33.783377,-117.890658,,store,,
DECK 'N SHOES,US100030243,13175 Harbor Blvd,,Garden Grove,CA,92843,US,,33.771808,-117.920548,,store,,
Tillys,US990269393,2365 E Imperial Highway,Brea Union Plaza ,Brea,CA,92821,US,,33.91109,-117.870672,,store,,
CONTENDERS INC.,US103839982,5655 E. LA PALMA AVE.,,ANAHEIM,CA,92807,US,,33.859887,-117.791978,,store,,
Tillys,US990269797,8176 E. Santa Ana Canyon Rd,Anaheim Hills Festival ,Anaheim Hills,CA,92808,US,,33.844398,-117.776001,,store,,
PF MCMULLIN COMPANY,US100157185,1530 East Edinger #9,,Santa Ana,CA,92705,US,,33.725883,-117.848877,,store,,
"Green Room - Surf, Skate, Snow",US990386565,18375 Euclid St,,Fountain Valley,CA,92708,US,,33.696161,-117.935037,,store,,
Tillys,US990269090,901 K South Coast Drive,Metro Pointe at South Coast ,Costa Mesa,CA,92626,US,,33.689064,-117.895752,,store,,
Tillys,US990275353,2403 Park Ave,District at Tustin Legacy ,Tustin,CA,92782,US,,33.699266,-117.828578,,store,,
SHOE CITY- INDUSTRY,US100019531,17436 Colima Road,,Rowland Heights,CA,91748,US,,33.990545,-117.925833,,store,,
JCE CLOTHING INC.,US103825687,2750 HARBOR BLVD. #B-02,,COSTA MESA,CA,92626,US,,33.67258,-117.91864,,store,,
ATTIC SKATE SHOP,US100127347,2588 Newport Blvd,,Costa Mesa,CA,92627,US,,33.662576,-117.897303,,store,,
Tillys,US990269696,3850 Barranca Pkwy.,Irvine - Crossroads ,Irvine,CA,92606,US,,33.684303,-117.811791,,store,,
Tillys,US990270909,723 Spectrum Center Drive,Irvine Spectrum Center ,Irvine,CA,92618,US,,33.653259,-117.747749,,store,,
Quiksilver,R0112,71 Fortune Dr. #806,,Irvine,CA,92618,US,,33.65106,-117.745755,,store,,
Club Urban,US103211662,23151 Alcalde Dr #B1,,Laguna Hills,CA,92653,US,,33.623176,-117.725891,,store,,
CBS BOARDSHOP,US100592998,UNIT C 23635 EL TORO RD,,LAKE FOREST,CA,92630,US,,33.62027,-117.703461,,store,,
Quiksilver Laguna Beach,R0113,255 Forest Ave,,Laguna Beach,CA,92651,US,,33.542463,-117.782726,,store,,
Tillys,US990268888,27150 Alicia Pkwy.,Marketplace at Laguna Niguel ,Laguna Niguel,CA,92677,US,,33.568439,-117.713592,,store,,
SCHEELS,US990267777,3801 S. MacArthur Blvd,,Springfield,IL,62711,US,,39.750134,-89.67099,,store,,
Tillys,US990286262,2501 Wabash Ave,White Oaks Mall ,Springfield,IL,62704,US,,39.764557,-89.703247,,store,,
Tillys,US990284343,320 West Kimberly Road,Northpark Mall ,Davenport,IA,52806,US,,41.560266,-90.577115,,store,,
MALCOM SMITH MOTORSPORTS,US100142877,7599 Indiana Ave,,Riverside,CA,92504,US,,33.934074,-117.406906,,store,,
Quiksilver Factory Riverside #501,F0887,2550 Canyon Springs Parkway,Suite B-F,Riverside,CA,92507,US,,33.941498,-117.289154,,store,,
9FIVE1,US103882020,22500 TOWN CIRCLE,,MORENO VALLEY,CA,92553,US,,33.940228,-117.272514,,store,,
Tillys,US990289292,22500 Town Circle,Moreno Valley Mall ,Moreno Valley,CA,92553,US,,33.940227,-117.272514,,store,,
Tillys,US990274747,12327 Limonite Ave,Eastvale Gateway ,Mira Loma,CA,91752,US,,33.975269,-117.552111,,store,,
ORVA STORES,US202155197,2090 SOUTH ETIWANDA AVENUE,,ONTARIO,CA,91761,US,,34.036163,-117.525451,,store,,
Quiksilver Outlet Corona,F0803,530 Hidden Valley Parkway,101,Corona,CA,92879,US,,33.897121,-117.547966,,store,,
Tillys,US990280909,340 Inland Center Drive,Inland Center ,San Bernardino,CA,92408,US,,34.089599,-117.296513,,store,,
Tillys,US990272020,3417 Grand Oaks,Crossings at Corona ,Corona,CA,92881,US,,33.826325,-117.515115,,store,,
"DEFY BOARDSHOP, INC.",US100119745,451 Magnolia Ave #101,,Corona,CA,92879,US,,33.854587,-117.56295,,store,,
Quiksilver Outlet Ontario Mills,F0836,1 East Mills Circle,Suite 123,Ontario,CA,91764,US,,34.070596,-117.547096,,store,,
DD'S DISCOUNT,US200131141,17800 Perris Blvd,,Moreno Valley,CA,92551,US,,33.860614,-117.22171,,store,,
ACTIVE RIDE SHOP,US100221740,12178 4TH ST.,,RANCHO CUCAMONGO,CA,91730,US,,34.077789,-117.540337,,store,,
Tillys,US990269191,1 Mills Road,Ontario Mills ,Ontario,CA,91764,US,,34.073009,-117.551597,,store,,
Tillys,US990281919,12518 N Mainstreet,Victoria Gardens ,Rancho Cucamonga,CA,91739,US,,34.112135,-117.531989,,store,,
LEROY'S BOARD SHOP,US200302311,9980 ALABAMA AVE,,REDLANDS,CA,92374,US,,34.073849,-117.209404,,store,,
Tillys,US990290909,27461 San Bernardino Ave.,Mountain Grove at Citrus Plaza,Redlands,CA,92374,US,,34.075542,-117.205284,,store,,
Tillys,US990273333,1115 Galleria,Galleria at Tyler ,Riverside,CA,92503,US,,33.773548,-117.229568,,store,,
MICA GROUP INC/SHOE CITY,US200095441,12089 Central Ave,,Chino,CA,91710,US,,34.03389,-117.68853,,store,,
PACIFIC SHORE,US100388035,17600 Collier Avenue #H-172,,Lake Elsinore,CA,92530,US,,33.700157,-117.350891,,store,,
PACIFIC SHORES BOARDSHOP,US100116736,17600 Collier Ave #H-172,,Lake Elsinore,CA,92530,US,,33.700157,-117.350891,,store,,
SOLUS,US100597850,14589 RAMONA AVE,,CHINO,CA,91710,US,,33.988392,-117.705925,,store,,
Tillys,US990286363,1257 E 19th Street,Colonies Crossroads ,Upland,CA,91784,US,,34.132362,-117.633797,,store,,
Tillys,US990270505,3865 Grand Avenue,Chino Spectrum Towne Center ,Chino,CA,91710,US,,33.999552,-117.720422,,store,,
Tillys,US990279191,5144 E Montclair Plaza Lane,Montclair Plaza ,Montclair,CA,91763,US,,34.088462,-117.693949,,store,,
OVERCAST SKATEBOARD SHOP,US202832430,4116 MAIN ST.,,PITTSBURGH,PA,15224,US,,40.465115,-79.954727,,store,,
OVERCAST SKATEBOARD SHOP,US103826029,299 MAIN ST.,,PITTSBURGH,PA,15201,US,,40.467724,-79.957642,,store,,
WILLIS SKI SHOP,US200127363,3738 Libray Rd.,,Pittsburgh,PA,15234,US,,40.365016,-80.021324,,store,,
WILLIS SKI SHOP,US200127264,3740 Library Rd,,Pittsburgh,PA,15234,US,,40.364578,-80.02138,,store,,
EASTERN H20,US201227393,1123 FREEPORT RD,,PITTSBURGH,PA,15238,US,,40.487633,-79.882325,,store,,
ROCK STAR,US100032694,5256 Route 30,,Greensburg,PA,15601,US,,40.303064,-79.507776,,store,,
SKI DEN SPORTS,US100154603,1231 Scalp Avenue,,Johnstown,PA,15904,US,,40.277668,-78.861097,,store,,
MCNULTY'S GIFTS,US103825924,5522 SHAFFER RD.,,DUBOIS,PA,15801,US,,41.119586,-78.730501,,store,,
THE FITTED JOINT,US103903433,1003 E. OLDTOWN RD.,,CUMBERLAND,MD,21502,US,,39.636896,-78.74833,,store,,
Harrington Sports,CA990059797,93 Cedar Dr.,,Turkey Point,ON,N0E 1W0,CA,,42.691621,-80.327283,,store,,
SEQUENCE,US100127780,9310 GLACIER HWY #104,,JUNEAU,AK,99801,US,,58.36483,-134.58757,,store,,
LEGACY DISTRIBUTION,US100658198,2092 JORDAN AVE SUITE 550,,JUNEAU,AK,99801,US,,58.362608,-134.579533,,store,,
CRAIG EMPORIUM,US100037403,336 LINCOLN STREET,,SITCA,AK,99835,US,,57.05049,-135.334076,,store,,
Hougen's Department Store,CA990056868,806 Frank Trail,,Watson Lake,YT,Y0A1C0,CA,,60.05809,-128.68423,,store,,
Tillys,US990278585,301 Mount Hope Avenue,Rockaway Townsquare ,Rockaway,NJ,07866,US,,40.904532,-74.54648,,store,,
COLORADO SKI & SNOWBOARD,US100164477,725 Rt 15 South,,Lake Hopatcong,NJ,07849,US,,40.958568,-74.596076,,store,,
West 49 Canada One Niagara,CA990071616,7500 Lundy's Lane,,Niagara Falls,ON,L2H 1G8,CA,,43.087642,-79.120457,,store,,
Stance Niagara,CA990071414,"Canada One Factory Outlet, 7500 Lundys Lane, Unit B14",,Niagara Falls,ON,L2H 1G9,CA,,43.089857,-79.122042,,store,,
SNOWFLAKE SKI SHOP,US100430840,245 S Transit Rd,,Lockport,NY,14094,US,,43.146111,-78.696899,,store,,
Arlies/Boathouse Seaway Mall,CA990006767,800 Niagara Street Units G7 G8,,Welland,ON,L3C 5Z4,CA,,43.016523,-79.249849,,store,,
Quiksilver Outlet Niagara ,F0882,300 Taylor Road,#435,Niagara-On-The-Lake,ON,L0S 1J0,CA,,43.157522,-79.168131,,store,,
Boathouse Niagara,CA990063232,300 Taylor Rd Unit 509,,Niagara On The Lake,ON,L0S 1J0,CA,,43.157905,-79.171575,,store,,
Arlies Glendale Pen Centre,CA990007070,221 Glendale Avenue,Unit 23 A,St Catharines,ON,L2T 2K9,CA,,43.133346,-79.224099,,store,,
West 49 Pen Centre,CA990011515,221 Glendale Avenue,,St Catharines,ON,L2T 2K9,CA,,43.133346,-79.224099,,store,,
Boathouse Limeridge Mall,CA990008383,999 Upper Wentworth Street Unit 0316A,,Hamilton,ON,L9A 4X5,CA,,43.224565,-79.861325,,store,,
Stance Limeridge,CA990009898,999 Upper Wentworth Street Unit 233,Unit 233,Hamilton,ON,L9A 4X5,CA,,43.224565,-79.861325,,store,,
Corbetts Ski & Snowboard,CA990072121,120 Speers Rd,,Oakville,ON,L6K 2E7,CA,,43.44587,-79.68747,,store,,
Boathouse Mapleview,CA990006565,900 Maple Avenue Unit A28B,,Burlington,ON,L7S 2J8,CA,,43.326106,-79.818569,,store,,
West 49 Mapleview Mall,CA990010000,900 Maple Avenue,Unit# AA48,Burlington,ON,L7S 2J8,CA,,43.326106,-79.818569,,store,,
Boathouse Oakville,CA990007272,240 Leighland Road Unit 122,Unit 122,Oakville,ON,L6H 3H6,CA,,43.459779,-79.691276,,store,,
West 49 Oakville Place,CA990014141,240 Leighland Avenue,202,Oakville,ON,L6H 3H6,CA,,43.459779,-79.691276,,store,,
Overkill,CA990001111,2130-A Queen Street East,,Toronto,ON,M4E 1E3,CA,,43.671339,-79.293949,,store,,
Identity Skate,CA990060000,1735 Queen St. East,,Toronto,ON,M4L 6S5,CA,,43.667715,-79.310368,,store,,
The Baitshop,CA990060404,358 Dufferin Street- Suite 117,,Toronto ,ON,M6K 1Z8,CA,,43.64113,-79.428765,,store,,
Grom's,CA990061111,1967 Queen St. E. ,,Toronto,ON,0M6K,CA,,43.638829,-79.44575,,store,,
West 49 Dixie Outlet Mall,CA990071919,1250 South Service Road,Unit# 163,Mississauga,ON,L5E 1V4,CA,,43.593956,-79.571384,,store,,
Boathouse Dixie Outlet,CA990068888,"1250 South Service Road, Unit 156A",,Mississauga,ON,L5E 1V4,CA,,43.593956,-79.571384,,store,,
Sanction Skate & Snow,CA990060303,2978 Dudas Street West,,Toronto,ON,M6P 2A1,CA,,43.66545,-79.468661,,store,,
Boathouse Square One,CA990006868,100 City Centre Drive Unit 2 416,Unit 2-416,Mississauga,ON,L5B 4M9,CA,,43.591959,-79.639396,,store,,
Stance Square One,CA990009595,100 City Centre Drive Unit 415,Unit 2-112,Mississauga,ON,L5B 2J8,CA,,43.591959,-79.639396,,store,,
West 49 Square One ,CA990010101,100 City Centre DRive,,Mississauga,ON,L5B 2C9,CA,,43.591959,-79.639396,,store,,
WIND WAVES AND WHEELS,US200011871,3624 29th Street SE,,Kentwood,MI,49512,US,,42.908824,-85.577606,,store,,
PREMIER SKATEBOARDING LLC,US100223819,14 WESTON ST SE,,GRAND RAPIDS,MI,49503,US,,42.961922,-85.667221,,store,,
HOUSE OF VISTA,US103831715,637 S. SANTA FE AVE. #C,,VISTA,CA,92083,US,,33.19545,-117.237961,,store,,
REALITY CHECK,US100094754,1085 University Ave,,Dubuque,IA,52001,US,,42.499359,-90.681374,,store,,
Tillys,US990282828,110A Bay Park Square,Bay Park Square ,Green Bay,WI,54304,US,,44.484923,-88.066414,,store,,
WOOD ON WHEELS,US100120376,870 SYCAMORE VISTA DR.,,CHINO VALLEY,AZ,86323-5853,US,,34.758747,-112.475426,,store,,
Tillys,US990277272,27562 Antonio Parkway,Mercantile East Shopping Ctr ,Ladera Ranch,CA,92694,US,,33.562668,-117.629458,,store,,
BOBO'S MOGUL MOUSE SKI &,US200083990,475 E Moana Lane,,Reno,NV,89502,US,,39.49324,-119.791695,,store,,
Tillys,US990274343,5000 Meadowood Mall Circle,Meadowood Mall ,Reno,NV,89502,US,,39.475993,-119.785238,,store,,
SCHEELS,US990267575,1200 Scheels Drive,,Sparks,NV,89434,US,,39.53067,-119.721649,,store,,
WAVE WEAR,US103825705,6610 CANOE HILL DR.,,SPARKS,NV,89436,US,,39.586334,-119.737564,,store,,
Tillys,US990274242,13985 S Virginia St,Summit Sierra ,Reno,NV,89511,US,,39.406047,-119.748392,,store,,
WAVE WEAR,US202832104,11429 DONNER PASS RD. 1A,,TRUCKEE,CA,96161,US,,39.32607,-120.210074,,store,,
702(JIMMY'S SKATE SHOP),US100110613,961 TOPSY LN. STE.442,,CARSON CITY,NV,89705,US,,39.108849,-119.77594,,store,,
DAVE'S SKIS & SNOWBOARDS,US200080637,600 North Lake Blvd,,Tahoe City,CA,96145,US,,39.17189,-120.139099,,store,,
SUMMIT SPORTS,US103650454,2480 PRECISION DRIVE UNIT H,,MINDEN,NV,89423,US,,39.020336,-119.746117,,store,,
HOMEWOOD MOUNTAIN RESORT,US202795605,5145 WEST LAKE BLVD.,,HOMEWOOD,CA,96141,US,,39.085754,-120.160389,,store,,
SHORELINE,US200013648,259 Kingsbury Grade,,Stateline,NV,89449,US,,38.96833,-119.930353,,store,,
POWDER HOUSE,US200585915,4045 Lake Tahoe Blvd.,,So. Lake Tahoe,CA,96150,US,,38.956157,-119.944427,,store,,
TAHOE SPORTS LTD,US100673988,4000 LAKE TAHOE BLVD #7,,S. LAKE TAHOE,CA,96151,US,,38.954912,-119.94493,,store,,
VILLAGE MOUNTAIN SURF & SPORTS,US100097979,3552 Lake Tahoe Blvd,,South Lake Tahoe,CA,96150,US,,38.946915,-119.96125,,store,,
SIERRA AT TAHOE,US100158455,1111 SIERRA AT TAHOE RD,,TWIN BRIDGES,CA,95735,US,,38.797134,-120.074348,,store,,
JOHNSON'S FAMILY SHOES,US200098498,714 Main St,,Susanville,CA,96130,US,,40.418455,-120.661376,,store,,
Claudes Sports,US103664548,1585 Filmore St,,Twin Falls,ID,83301,US,,42.589802,-114.465546,,store,,
THE COVE,US100121324,2072 IDAHO STREET,,ELKO,NV,89801,US,,40.824559,-115.783617,,store,,
BARRIES SKI AND SPORT,US100244470,624 Yellowstone Ave,,Pocatello,ID,83201,US,,42.886681,-112.450783,,store,,
"SHORELINE WEAR, INC",US100122349,49 E. Winnemucca Blvd,,Winnemucca,NV,89445,US,,40.973928,-117.734483,,store,,
LOST BOARDROOM,US100128351,111 E Main St,,Walla Walla,WA,99362,US,,46.068501,-118.337273,,store,,
THE NAYBORHOOD,US100176204,2300 E. 17TH ST. #1122,,IDAHO FALLS,ID,83404,US,,43.48214,-111.988344,,store,,
M&R FOOTWEAR,US100034264,828 Hwy 395 S,,Hermiston,OR,97838,US,,45.824115,-119.272237,,store,,
Sled Shed Board Shop,US103066719,49 E Main,,Rexburg,ID,83440,US,,43.826447,-111.782082,,store,,
Tillys,US990282424,1321 N. Columbia Center Blvd.,Columbia Center ,Kennewick,WA,99336,US,,46.224789,-119.224071,,store,,
BOB WARDS,US200124788,1600 North Ave #5,,Missoula,MT,59801,US,,46.852924,-114.022141,,store,,
JENSON OUTDOORS,US103903193,1189 WEST 1700 NORTH BLDG 1,,LOGAN,UT,84321,US,,41.764568,-111.86293,,store,,
AL'S SPORTING GOODS,US100065386,1075 N. MAIN ST.,,LOGAN,UT,84341,US,,41.751312,-111.834535,,store,,
SMOOTH SHOP,US202588225,695 W.1700 S. BLDG 8,,LOGAN,UT,84321,US,,41.702812,-111.849784,,store,,
A.D.S MOTORPORTS,US100124323,284 West 12th Street,,Ogden,UT,84404,US,,41.244911,-111.983254,,store,,
CROSSROADS SKATE SHOP,US100044206,251 W. 12TH ST.,,OGDEN,UT,84404,US,,41.244272,-111.982601,,store,,
HOLE IN THE WALL,US200153295,1745 High School Rd,,Jackson,WY,83001,US,,43.459217,-110.798363,,store,,
HOBACK SPORTS,US202721489,1745 HIGH SCHOOL RD STE 550,,JACKSON,WY,83001,US,,43.459217,-110.798362,,store,,
THE ANKLE DOWN,US200144711,290 S Washington,,Afton,WY,83110,US,,42.72765,-110.934097,,store,,
REVIVAL FREERIDE INC,US100222478,540 W. 1700 S UNIT F,,CLEARFIELD,UT,84015,US,,41.089263,-112.034965,,store,,
HILL AFB MAIN STORE,US201989284,5845 E Ave Bldg 412,,Hill AFB,UT,84056-5711,US,,41.112218,-111.98177,,store,,
BLINDSIDE OF LAYTON,US100034559,721 N Main St,,Layton,UT,84041,US,,41.070958,-111.977053,,store,,
Tillys,US990282626,170 N. Station Parkway,Station Park ,Farmington,UT,84025,US,,40.985,-111.906088,,store,,
SKI SHACK,US200277910,9437 N GOVERNMENT WAY,,HAYDEN,ID,83835,US,,47.757473,-116.78727,,store,,
SPORTS OUTLET,US200134195,4505 N Division St,,Spokane,WA,99207,US,,47.699328,-117.411387,,store,,
SNOW VALLEY SKI RESORT,US200659232,Hwy 18,,Running Springs,CA,92382,US,,34.225498,-117.035454,,store,,
HI-DESERT SHOES II,US100041879,16930 Mail St #H,,Hesperia,CA,92345,US,,34.421932,-117.293755,,store,,
BLAUER SKI AND BOARD SHOP,US200048258,41177 Big Bear Blvd,,Big Bear Lake,CA,92315,US,,34.243183,-116.903739,,store,,
GOLDSMITH'S BOARD HOUSE,US200022970,42071 Big Bear Blvd,,Big Bear Lake,CA,92315,US,,34.244076,-116.883919,,store,,
OLD SKULL SKATEBOARDS,US100137773,2555 BAIRD RD,,PENFIELD,NY,14526,US,,43.111603,-77.463486,,store,,
Tillys,US990287575,766 Eastview Mall,Eastview Mall ,Victor,NY,14564,US,,43.028018,-77.448148,,store,,
SKI COMPANY MOUNTAIN,US200059401,3036 Route 64,,Bloomfield,NY,14469,US,,42.881306,-77.391296,,store,,
Mad Monkey Clothing,CA990057373,45 Walton Steet,,Port Hope,ON,L1A 1N2,CA,,43.951373,-78.293863,,store,,
Boathouse Quinte,CA990007575,390 North Front Street Unit C3,,Belleville,ON,K8P 3E1,CA,,44.188352,-77.396302,,store,,
Quiksilver Outlet Destiny USA,F0867,9090 Destiny USA Drive,Space L-214,Syracuse,NY,13290,US,,43.073248,-76.171927,,store,,
BC SURF & SPORT,US202478581,1 DESTINY USA DRIVE #B-115,,SYRACUSE,NY,13204,US,,43.067004,-76.170714,,store,,
Jake's Cactus Clothing,CA990056969,17 King Street West,,Bowmanville,ON,L1C1N1,CA,,43.912045,-78.688721,,store,,
West 49 Oshawa Shopping Centre,CA990011414,419 King Street ,2320,Oshawa,ON,L1J 2K5,CA,,43.894052,-78.87905,,store,,
Boathouse Oshawa,CA990007979,419 King Street W Unit 2580,,Oshawa,ON,L1J 2K5,CA,,43.894052,-78.879051,,store,,
Boathouse Landsdowne Place,CA990063838,645 Landsdowne St W Unit 163,,Peterborough,ON,K9J 7Y5,CA,,44.283564,-78.330874,,store,,
West 49 Lansdowne,CA990012626,645 Lansdowne Street W,Unit# 156,Peterborough,ON,K9J 7Y5,CA,,44.285357,-78.331414,,store,,
SPORTS OUTLET,US100179196,4505 N. DIVISION ST.,,SPOKANE,WA,99207,US,,47.699328,-117.411387,,store,,
7B BOARD SHOP,US100174315,121 N. 1st AVENUE,,SANDPOINT,ID,83864,US,,48.273956,-116.547974,,store,,
LIBBY SPORTS CENTER,US100059727,204 W 9th St,,Libby,MT,59923,US,,48.388416,-115.556031,,store,,
"RAWSON'S, INC.",US200058650,200 Queen St,,Okanogan,WA,98840,US,,48.363433,-119.581523,,store,,
JJ Fashions,CA990004343,102-1983 Columbia Avenue,,Castlegar,BC,V1N 2W8,CA,,49.329322,-117.671272,,store,,
Bum Wrap,CA990005959,285 Main Street,,Penticton,BC,V2A 5B1,CA,,49.499126,-119.592643,,store,,
West 49 Orchard Park Mall,CA990013232,2271 Harvey Avenue,1548,Kelowna,BC,V1Y 6H2,CA,,49.881826,-119.435603,,store,,
Below The Belt,CA990017878,2271 Harvey Avenue,,Kelowna,BC,V1Y 6H2,CA,,49.881826,-119.435603,,store,,
Boathouse Orchard Park Mall,CA990064949,2271 Harvey Ave Unit 0915,,Kelowna,BC,V1Y 6H2,CA,,49.880696,-119.439577,,store,,
Swimco Orchard Park Shopping Centre,CA990019797,#951 Orchard Park 2271 Harvey Avenue,,Kelowna,BC,V1Y 6H2,CA,,49.88223,-119.46868,,store,,
Surf Culture Clothing Co.,CA990058585,213 Bernard Avenue,,Kelowna,BC,V1Y 6N2,CA,,49.886273,-119.497883,,store,,
KaliEna Swim & Sports Boutique,CA990020000,1310 Water Street,,Kelowna,BC,V1Y 9P3,CA,,49.891405,-119.496622,,store,,
Cottage Toys,CA990000707,180 Charlotte Street,,Peterborough,ON,K9J 2T8,CA,,44.303194,-78.320955,,store,,
Boathouse Pickering Town Centre,CA990009494,1355 Kingston Road Unit 420/422,,Pickering,ON,L1V 1B8,CA,,43.835856,-79.086013,,store,,
West 49 Pickering Town Centre,CA990012121,1355 Kingston Road,,Pickering,ON,L1V 1B8,CA,,43.837224,-79.088443,,store,,
Gravity,CA990059191,1601 Birchmount Road,,Scarborough,ON,M1H2J5,CA,,43.771161,-79.2365,,store,,
Tillys,US990290404,30730 Russell Ranch Road,The Shoppes at Westlake Village,Westlake Village,CA,91362,US,,34.149936,-118.794214,,store,,
VAL SURF,US200013361,22864 Ventura Blvd,,Woodland Hills,CA,91364,US,,34.16494,-118.625526,,store,,
BOARD SPORTS,US100102471,22642 Ventura Blvd,,Woodland Hills,CA,91364,US,,34.167124,-118.619638,,store,,
Tillys,US990279999,6600 Topanga Canyon Blvd,Topanga Plaza ,Canoga Park,CA,91303,US,,34.19363,-118.60247,,store,,
BOARDERS TOPANGA,US200840078,"6600 TOPANGA CANYON BLVE, SUITE 97B",,CANOGA PARK,CA,91303,US,,34.19363,-118.60247,,store,,
SURFIN ON THE BANKS,US100093355,6600 TOPANGA CANYON BLVD. #97B,,CANOGA PARK,CA,91303,US,,34.19363,-118.60247,,store,,
Tillys,US990282727,1426 3rd Street Promenade,3rd Street Promenade ,Santa Monica,CA,90401,US,,34.015232,-118.495705,,store,,
Tillys,US990278282,30046 Haun Road,Countryside Marketplace ,Menifee,CA,92584,US,,33.684215,-117.175409,,store,,
Quiksilver Outlet Desert Hills,F0884,48400 Seminole Drive,#430A,Cabazon,CA,92230,US,,33.929037,-116.816141,,store,,
MOUNTAIN HIGH RESORT,US200094473,24510 State Hway 2,,Wrightwood,CA,92397,US,,34.359169,-117.627853,,store,,
Tillys,US990274646,1327 E Gladstone St,Diamond Ridge Marketplace ,Glendora,CA,91740,US,,34.113986,-117.837425,,store,,
Tillys,US990284444,350 Route 110,Huntington Shopping Center ,Huntington,NY,11746,US,,40.857941,-73.413567,,store,,
UTOPIA,US100179758,150 Connecticut Ave,,Norwalk,CT,06854,US,,41.105068,-73.430222,,store,,
Red Beard Skateshop,US103605758,4747 FRANCHISE ST.,,N. CHARLESTON,SC,29418,US,,32.912695,-80.091359,,store,,
Quiksilver Charleston,R0052,299 King St,,Charleston,SC,29401,US,,32.783334,-79.934618,,store,,
"J & N SHOES, INC.",US100124565,102 South Main,,Lamar,CO,81052,US,,38.088875,-102.619652,,store,,
BROOKS SHOES FOR KIDS #9,US200085933,14006 Riverside Dr,,Sherman Oaks,CA,91423,US,,34.156143,-118.432205,,store,,
Tillys,US990270101,14570 Ventura Blvd.,Sherman Oaks ,Sherman Oaks,CA,91403,US,,34.151267,-118.451134,,store,,
SPORTS 4 U,US103903580,8717 VAN NUYS BLVD,,PANORAMA CITY,CA,91402,US,,34.227913,-118.450539,,store,,
BROOKS SHOES FOR KIDS,US100121931,1703 WILSHIRE BLVD,,SANTA MONICA,CA,90403,US,,34.029243,-118.48593,,store,,
NORTHERN EDGE SNOW SPORTS,US103746539,5711 HOLTON-WHITEWALL RD,,HOLTON,MI,49425,US,,43.408703,-86.101456,,store,,
UTAH SKI & GOLF,US100049657,134 W 600 S,,Salt Lake City,UT,84101,US,,40.756657,-111.895165,,store,,
BABINSKI'S BABY,US103760657,1324 S. FOOTHILL DRIVE,,SALT LAKE CITY,UT,84108,US,,40.741105,-111.826877,,store,,
SALTY PEAKS,US200011333,3055 East 3300 South,,Salt Lake City,UT,84109,US,,40.70026,-111.806686,,store,,
Level Nine Sports Inc,US103262524,1199 WEST 2425 SOUTH,,WOODS CROSS,UT,84087,US,,40.863663,-111.914436,,store,,
X NATION,US103837991,6874 S. REDWOOD RD.,,WEST JORDAN,UT,84084,US,,40.626285,-111.94046,,store,,
OSSINE SHOES,US100017004,7576 South Redwood Rd,,West Jordan,UT,84084,US,,40.613647,-111.939613,,store,,
Tillys,US990283636,3746 W Center Park Drive,Jordan Landing ,West Jordan,UT,84084,US,,40.620045,-111.98077,,store,,
BEST BRAND BOOTS,US202518026,1251 WEST 75 NORTH,,CENTERVILLE,UT,84014,US,,40.917281,-111.897814,,store,,
SKI N SEE,US100159506,772 E. 9400 S.,,Sandy,UT,84094,US,,40.580568,-111.870339,,store,,
BC SURF & SPORT,US200014284,10450 S. State St.,,Sandy,UT,84070,US,,40.561889,-111.890997,,store,,
Tillys,US990285353,10465 South State Street,Commons at Southtowne ,Sandy,UT,84070,US,,40.561757,-111.890673,,store,,
SCHEELS,US990267878,11282 S State St,,Sandy,UT,84070,US,,40.546501,-111.893486,,store,,
THE EDGE CUSTOM SHOP,US100050730,352 W.12300 S,,DRAPER,UT,84020,US,,40.527744,-111.901466,,store,,
MARTY'S SKI AND BOARD SHOP,US100215587,105 1635 W REDSTONE CENTER DR,,PARK CITY,UT,84098,US,,40.740917,-111.548241,,store,,
BRIGHTON MOUNTAIN SPORTS,US103895430,8302 S. BRIGHTON LOOP,,BRIGHTON,UT,84121,US,,40.598167,-111.582901,,store,,
Quiksilver Outlet Traverse Mountain,F0871,3700 N. Cabelas Blvd.,Suite #266,Lehi,UT,84043,US,,40.435037,-111.88406,,store,,
BOARD OF PROVO,US100245770,465 N University Ave,,Provo,UT,84601,US,,40.2399,-111.658725,,store,,
WHAT'S HOT!,US202934554,2066 SOUTH 950 EAST,,PROVO,UT,84606,US,,40.205925,-111.642571,,store,,
ROCKY MOUNTAIN ATV,US100139898,1551 West American Way,,Payson,UT,84651,US,,40.034664,-111.757286,,store,,
CUTTING EDGE (CONN),US100004412,146 Mill St,,Berlin,CT,06037,US,,41.625809,-72.748082,,store,,
BOB'S CHALET SKI & SNOWBOARD,US100225791,510 FARMINGTON AVE,,BRISTOL,CT,06010,US,,41.689785,-72.926413,,store,,
BOB'S STORES DISTRIBUTION,US200084993,160 Corporate Court,,Meriden,CT,06450,US,,41.511936,-72.761108,,store,,
INVASION,US100602544,321 RT 100,,WEST DOVER,VT,05356,US,,42.955515,-72.881205,,store,,
MOUNT SNOW LTD,US200123370,89 Grand Summit Way,,West Dover,VT,05356,US,,42.966136,-72.893635,,store,,
PLAZA SURF & SPORTS,US200020604,716 Main St,,Montauk,NY,11954,US,,40.976181,-72.139572,,store,,
PLAZA SURF AND SPORTS,US202154405,171 MAIN ST.,,AMAGANSETT,NY,11930,US,,40.975105,-72.14209,,store,,
Boardwalker Corporation,US200845886,401 Mission Ave Suite A140,,Oceanside,CA,92054,US,,33.195098,-117.379798,,store,,
ASYLUM/BOARDWALKER CORP,US100248740,310 Mission Ave,,Oceanside,CA,92054,US,,33.195427,-117.380837,,store,,
MCGILL'S SKATESHOP,US100109323,335 South Coast Highway,,Encinitas,CA,92024,US,,33.192379,-117.376646,,store,,
Tillys,US990271111,2641 Vista Way,El Camino North Shopping Cntr ,Oceanside,CA,92054,US,,33.182751,-117.33017,,store,,
SO CAL SURF SHOP LLC,US103810543,801 AVENIDA TALEGA SUITE 104,,SAN CLEMENTE,CA,92673,US,,33.463395,-117.597881,,store,,
Tillys,US990291111,101 West Avenida Vista Hermosa,Outlets at San Clemente ,San Clemente,CA,92672,US,,33.451302,-117.625023,,store,,
Tillys,US990269494,40820 Winchester Rd,Promenade in Temecula ,Temecula,CA,92591,US,,33.525399,-117.158993,,store,,
SKATEWORKS,US100130990,2062 Santa Rosa Plz,,Santa Rosa,CA,95401,US,,38.439857,-122.717491,,store,,
Tillys,US990280606,2041 Santa Rosa Plaza,Santa Rosa Plaza ,Santa Rosa,CA,95401,US,,38.439855,-122.717493,,store,,
REVOLUTION SKATEBOARD,US100103479,1240 Mendocino Ave,,Santa Rosa,CA,95401,US,,38.452206,-122.716972,,store,,
SANTA ROSA SKI & SPORT,US100647855,2875 SANTA ROSA AVE SUITE B2,,SANTA ROSA,CA,95407,US,,38.40726,-122.714736,,store,,
CAMPOS CASUALS,US100023079,344 North Main Street,,Lakeport,CA,95453,US,,39.044236,-122.915097,,store,,
FREEDOM SKATEBOARD SHOP,US100100721,435 N. State St.,,Ukiah,CA,95482,US,,39.152583,-123.208071,,store,,
PACIFIC OUTFITTERS UKIAH,US202828434,955 N. STATE STREET,,UKIAH,CA,95482,US,,39.160492,-123.208572,,store,,
BERT'S MEGA MALL,US100144718,1151 N Azusa Avenue,,Covina,CA,91722,US,,34.100979,-117.909058,,store,,
Tillys,US990271515,112 Plaza Drive,West Covina Fashion Plaza ,West Covina,CA,91790,US,,34.069872,-117.927954,,store,,
Tillys,US990288585,1731 Palm Beach Lakes Blvd.,Palm Beach Outlets ,West Palm Beach,FL,33401,US,,26.724114,-80.084369,,store,,
ASYLUM SKATE SHOP,US202292739,1460 GOLDEN GATE PKWY SUITE 104,,NAPLES,FL,34105,US,,26.171377,-81.79029,,store,,
ALVIN'S ISLAND #317,US202561598,581 S. COLLIER BLVD,,MARCO ISLAND,FL,34145,US,,25.922928,-81.726349,,store,,
SHOES RIGHT HERE,US100025845,600 Rogue River Hwy,,Grants Pass,OR,97527,US,,42.424613,-123.32814,,store,,
ROGUE SKI SHOP,US100158002,309 E. Jackson St.,,Medford,OR,97501,US,,42.331387,-122.874901,,store,,
ESCAPE HATCH SPORTS,US200129418,642 Railroad Ave,,Brookings,OR,97415,US,,42.050443,-124.282391,,store,,
SPORTSMEN'S DEN,US100101501,100 CHESTNUT ST.,,MT. SHASTA,CA,96067,US,,41.312466,-122.310532,,store,,
MAIN STREET SHOES,US200122474,521 Main St,,Weaverville,CA,96093,US,,40.733448,-122.940693,,store,,
Global Shoe Addiction,US202567762,960 Twin View Blvd.,,Redding,CA,96003,US,,40.621002,-122.370926,,store,,
Global Shoe Addiction,US103650361,1095 Hilltop Dr. Suite 137,,Redding,CA,96003,US,,40.591266,-122.358001,,store,,
Tillys,US990282222,1662 North Main Street,Harden Ranch Plaza ,Salinas,CA,93906,US,,36.71558,-121.653252,,store,,
Tillys,US990283939,2080 California Ave.,Edgewater Shopping Center ,Sand City,CA,93955,US,,36.622452,-121.842255,,store,,
HAWLEY LANE,US100023359,862 Bridgeport Ave.,,Shelton,CT,06484,US,,41.265662,-73.132153,,store,,
STRATTON MT. RESORT,US202127233,9D VILLAGE LODGE RD.,,STRATTON MT.,VT,05155,US,,43.114036,-72.905186,,store,,
BRAGG N MAIN SHOP CTR,US201984807,2nd & Butner Rd,,Ft Bragg,NC,28307-5000,US,,42.779411,-73.69149,,store,,
SNS BOARDS,US202550442,4106 N. VALLEY RD.,,LONGMONT,CO,80504,US,,40.206783,-104.975792,,store,,
ENDLESS YOUTH BOARDSHOP,US202910611,20 E. LAKEVIEW DR. UNIT 211,,NEDERLAND,CO,80466,US,,39.960048,-105.508575,,store,,
SKI BROKER,US200048998,601 S. Zerex,,Fraser,CO,80442,US,,39.942364,-105.810181,,store,,
VENICE SKATEBOARDING SURF,US100135472,8 Brooks Ave #C,,Venice,CA,90291,US,,33.9906,-118.4766,,store,,
ZJ BOARDING HOUSE/SOP INC,US200298106,2619 Main St,,Santa Monica,CA,90405,US,,34.002262,-118.483444,,store,,
Tillys,US990281212,230 Smith Haven Mall,Smith Haven Mall ,Lake Grove,NY,11755,US,,40.864624,-73.128223,,store,,
SUNDOWN SKI & SNOWBOARD,US200107965,3060 Middle Country Rd,,Lake Grove,NY,11755,US,,40.860817,-73.120506,,store,,
HERB PHILIPSON'S INC.,US202757568,108 EAST SENECA ST,,SHERILL,NY,13461,US,,43.076881,-75.597458,,store,,
DRUM MAIN STORE,US201987875,10730A Enduring Freedom Dr,,Ft Drum,NY,13602-5000,US,,44.045317,-75.805357,,store,,
Boathouse Cataraqui Town Centre,CA990009393,945 Gardiners Raod Unit U 045,,Kingston,ON,K7M 7H4,CA,,44.256202,-76.568633,,store,,
West 49 Cataraqui Town Centre,CA990010808,945 Gardiners Road,Unit #U028B,Kingston,ON,K7M 7H4,CA,,44.256202,-76.568633,,store,,
Steel,CA990058383,21 King Street East,,Gananoque,ON,K76 1E8,CA,,44.328282,-76.164345,,store,,
GUENTHER'S SKI HAUS,US100046717,945 Main St,,Honesdale,PA,18431,US,,41.574174,-75.256596,,store,,
"THE SKI CORNER, INC.",US100160620,908 SCRANTON CARBONDALE HWY,,SCRANTON,PA,18508,US,,41.466164,-75.645889,,store,,
Biba,CA990055252,Highway #2 45 Plaza Drive,,Iroquois,ON,K0E 1K0,CA,,44.868099,-75.320823,,store,,
940 SNOWBOARDS,US100360518,948 STATE ROUTE 940,,WHITE HAVEN,PA,18661,US,,41.08466,-75.605461,,store,,
LOFT,US100176944,1824 SULLIVAN TRAIL,,TANNERSVILLE,PA,18372,US,,41.052112,-75.325421,,store,,
STARTING GATE SPORTS,US200080121,5905 MILFORD RD.,,EAST STROUDSBURG,PA,18302,US,,41.069435,-75.043633,,store,,
Stance Masonville Mall,CA990066464,1680 Richmond Street N Unit L043,,London,ON,N6G 3Y9,CA,,43.024356,-81.278159,,store,,
Big Reds Clothing Company ,CA990055353,383 Main Street,,Exeter,ON,N0M 1S6,CA,,43.346191,-81.480502,,store,,
SKATE WAREHOUSE,US100074484,747 BUCKLEY ROAD,,SAN LUIS OBISPO,CA,93401,US,,35.235835,-120.644652,,store,,
SKATE WAREHOUSE,US200079885,747 BUCKLEY ROAD,,SAN LUIS OBISPO,CA,93401,US,,35.235835,-120.644652,,store,,
AHA SHOES,US202780351,162 TOWN CENTER EAST,,SANTA MARIA,CA,93454,US,,34.951891,-120.433573,,store,,
Tillys,US990283232,2348 So. Bradley Rd.,Crossroads SC ,Santa Maria,CA,93455,US,,34.916733,-120.421165,,store,,
Quiksilver Jersey Shore,F0875,1 Premium Outlet Blvd. ,Suite 231,Tinton Falls,CA,07753,US,,40.224025,-74.092076,,store,,
Tillys,US990278181,14400 Bear Valley Rd,Mall of Victor Valley ,Victorville,CA,92392,US,,34.470455,-117.349085,,store,,
ICE BOX,US202606623,43101 GOLDMINE DRIVE,,BIG BEAR LAKE,CA,92315,US,,34.226349,-116.860649,,store,,
HALF PIPE,US103728529,3982 MOUNTAIN VIEW DR.,,DANIELSVILLE,PA,18038,US,,40.795318,-75.532905,,store,,
HOLISTIC SKATESHOP,US100651001,516 PENN AVE,,WEST READING,PA,19611,US,,40.332182,-76.090348,,store,,
FISHBONE APPAREL,US200017177,1021 Cumberland St,,Lebanon,PA,17042,US,,40.339306,-76.428658,,store,,
JENSEN'S DEPT STORE,US100158791,29 N. Main,,Manti,UT,84642,US,,39.2659,-111.637075,,store,,
SCHEELS,US990266161,505 Center Avenue,,Moorhead,MN,56560-1921,US,,46.875005,-96.772183,,store,,
SCHEELS,US990267272,1551 45th Street S,,Fargo,ND,58103-0959,US,,46.857525,-96.863762,,store,,
SCHEELS,US990268080,2800 S Columbia Rd,,Grand Forks,ND,58201,US,,47.892025,-97.066954,,store,,
SCHEELS,US990267474,800 Kirkwood Mall,,Bismarck,ND,58504-5721,US,,46.798115,-100.78283,,store,,
US VINTAGE,US202561655,"1560 COLLINS AVE, SUITE 3 & 4",,MIAMI,FL,33139,US,,46.839807,-100.892792,,store,,
Swimco St Vital Centre,CA990063131,#9 1225 St Marys Road,,Winnipeg,MB,R2M 5E5,CA,,49.827927,-97.109088,,store,,
Boathouse St Vital Centre,CA990064040,1225 St Marys Rd Unit 32,,Winnipeg,MB,R2M 5E5,CA,,49.828469,-97.112104,,store,,
Stance St Vital,CA990066969,86 1225 St Marys Rd Unit 107,,Winnipeg,MB,R2M 5E5,CA,,49.828829,-97.109805,,store,,
Swimwear- Etc.,CA990018888,#32- 1225 St. Mary's Road,,Winnipeg,MB,R2M 5E5,CA,,49.829207,-97.114748,,store,,
West 49 St Vital Centre,CA990012424,1225 St Mary's Road,,Winnipeg,MB,R2M 5E5,CA,,49.829207,-97.114748,,store,,
Below The Belt,CA990016565,75-1225 St Mary's Road,,Winnipeg,MB,R2M 5E5,CA,,49.829207,-97.114748,,store,,
West 49 Polo Park Mall,CA990012323,1485 Portage Avenue,,Winnipeg ,MB,R3G 0W4,CA,,49.880781,-97.198885,,store,,
Below The Belt,CA990016666,1485 Portage Avenue,,Winnipeg,MB,R3G 0W4,CA,,49.880781,-97.198885,,store,,
Swimwear- Etc.,CA990018989,Unit 260- 1485 Portage Ave,,Winnipeg,MB,R3G 0W4,CA,,49.880781,-97.198885,,store,,
Swimco Polo Park Shopping Centre,CA990063030,Unit 260 1485 Portage Ave,,Winnipeg,MB,R3G 0W4,CA,,49.881293,-97.199564,,store,,
West 49 Kildonan Place,CA990015252,1555 Regent Avenue,T34,Winnipeg,MB,R2C 4J2,CA,,49.897478,-97.064287,,store,,
NBS Apparel,CA990057777,4-1575 Regent Avenue West,,Winnipeg,MB,R2C 3B3,CA,,49.897945,-97.066211,,store,,
Boathouse Kildonan Place,CA990063939,1555 Regent Ave W Unit T64A,,Winnipeg,MB,R2C 4J2,CA,,49.898498,-97.059157,,store,,
Royal Sports,CA990004747,650 Raleigh Street,,Winnipeg,MB,R2K 3Z9,CA,,49.917934,-97.085932,,store,,
RODGERS SKI & SPORT,US200138500,5 Railroad St,,Lincoln,NH,03251,US,,44.037501,-71.676686,,store,,
DARKSIDE,US200429833,2160 MOUNTAIN ROAD,,KILLINGTON,VT,05751,US,,43.625963,-72.769865,,store,,
DARKSIDE SNOWBOARD SHOP,US200036435,2481 Killington Road,,Killington,VT,05751,US,,43.637994,-72.787191,,store,,
THE SKI STATION,US103067724,2132 GRAND AVENUE,,BILLINGS,MT,59102,US,,45.783699,-108.570892,,store,,
SCHEELS,US990268181,1121 Shiloh Crossing Blvd,,Billings,MT,59102,US,,45.748947,-108.614075,,store,,
SHERIDAN SPORT STOP,US100066125,208 North Main,,Sheridan,WY,82801,US,,44.799774,-106.95623,,store,,
SCHEELS,US990267373,1200 10th Ave S. ,Ste 92,Great Falls,MT,59405,US,,47.492668,-111.291267,,store,,
Primetime Paintball and Skateboards,US103281822,3707 Hidden Valley Rd,,Gillete,WY,82718,US,,44.255257,-105.552216,,store,,
OUT SPORTIN',US100067407,412 E Main Street,,Riverton,WY,82501,US,,43.024998,-108.385704,,store,,
NORTH STAR ATHLETICS/TAF,US100069738,1753 Us Hwy 2 Nw,,Havre,MT,59501,US,,48.556141,-109.704754,,store,,
SHOE SHACK,US103830038,118 S. MERRILL AVE.,,GLENDIVE,MT,59330,US,,47.10418,-104.713709,,store,,
SIMPLY SHOES,US100029865,348 Main Street,,Lander,WY,82520,US,,42.833404,-108.732161,,store,,
MOUNTAIN SPORTS,US100095079,543 S Center,,Casper,WY,82601,US,,42.844799,-106.324753,,store,,
EDGE SPORTS,US200120896,11380 Highway 14A,,Lead,SD,57754,US,,44.338813,-103.785057,,store,,
STARBOARD,US202553619,424 32ND AVE W. SUITE 23,,WILLISTON,ND,58801,US,,48.147498,-103.669022,,store,,
STARBOARD,US100073318,1681 3rd Ave West #111,,Dickinson,ND,58601,US,,46.901458,-102.789813,,store,,
N-D-ZINE,US202549711,2200 N. MAPLE AVE UNIT #410,,RAPID CITY,SD,57700,US,,44.107075,-103.212647,,store,,
SCHEELS,US990267676,1225 Eglin St,,Rapid City,SD,57701,US,,44.101459,-103.190657,,store,,
KYTECH LLC.,US202829456,2441 FOOTHILL BLVD #1211,,ROCK SPRINGS,WY,82901,US,,41.580006,-109.262508,,store,,
In Look,CA990002727,106-3292 Dunmore Road ,,Medicine Hat,AB,T1B 2R4,CA,,50.003964,-110.643219,,store,,
Boathouse Medicine Hat Mall,CA990066161,3292 Dunmore Road Unit 124,,Medicine Hat,AB,T1B 2R4,CA,,50.00554,-110.64429,,store,,
ZELLERS SKI & SPORTS,US100461402,1212 Marine St.,,Green Bay,WI,54301,US,,44.497229,-88.021843,,store,,
CASUALTIES,US100099195,503 N 3rd St,,Marquette,MI,49855,US,,46.547322,-87.394784,,store,,
SURF CONNECTION,US100148534,1307 N. H STREET STE. C,,Lompoc,CA,93436,US,,34.658771,-120.458,,store,,
Harrington Sports,CA990059696,19 Harbour St.,,Port Dover,ON,N0A 1NA,CA,,42.778894,-80.230254,,store,,
Grom's,CA990061010,231 Main St. Port Dover,,Dover,ON,N0A 1N0 ,CA,,42.788333,-80.205762,,store,,
Harrington Sports Inc.,CA990026262,31 Norfolk Street N,,Simcoe,ON,N3Y 3N6,CA,,42.836728,-80.303842,,store,,
Hotline Apparel Systems,CA990056767,45 Adams Blvd.,,Brantford,ON,N3S7V8,CA,,43.16186,-80.224607,,store,,
West 49 Lynden Park Mall,CA990012828,84 Lynden Road,B4,Brantford,ON,N3R 6B8,CA,,43.173801,-80.239409,,store,,
Boathouse Lynden,CA990008787,84 Lynden Road Unit E5,Unit E5,Brantford,ON,N3R 6B8,CA,,43.173806,-80.23936,,store,,
Grom's,CA990061212,185 King George Rd. ,,Brantford,ON,N3R 1R9 ,CA,,43.173176,-80.278004,,store,,
Harrington Sports,CA990059595,185 King George Rd.,,Brantford,ON,N3R 7R9,CA,,43.173941,-80.278209,,store,,
BROWN'S SHOE FIT ,US100022934,315 Main,,Fort Morgan,CO,80701,US,,40.250576,-103.801811,,store,,
MESA SPORTS,US200022530,1314 4th Ave,,Yuma,AZ,85364,US,,32.703247,-114.625259,,store,,
Tillys,US990287979,888 West 2nd St,Gran Plaza Outlets ,Calexico,CA,92231,US,,32.664932,-115.511772,,store,,
SPORTS IMAGE,US200036091,3451 S Dogwood Ave,,El Centro,CA,92243,US,,32.762201,-115.534874,,store,,
SPORTS IMAGE,US100016392,3451 S. Dogwood Rd.,,El Centro,CA,92243,US,,32.762201,-115.534874,,store,,
HALBY'S,US100070522,217 W. Hobson Way,,Blythe,CA,92225,US,,33.610447,-114.598491,,store,,
SHOE STATION,US100022440,49225 Grapefruit Blvd,,Coachella,CA,92236,US,,33.691128,-116.183873,,store,,
Tillys,US990271010,72840 Highway 111,Westfield Palm Desert ,Palm Desert,CA,92260,US,,33.721656,-116.393859,,store,,
RYTHM SKATE SHOP,US202242826,405 S. PAVILION WAY,,PALM SPRINGS,CA,92262,US,,33.81821,-116.523888,,store,,
BOARDS OF NORD,US100134984,14822 MERIDIAN MEADOWS LN,,CHICO,CA,95973,US,,39.843962,-121.931036,,store,,
F.K.O.,US100012733,365 East Avenue,,Chico,CA,95926,US,,39.758853,-121.856994,,store,,
Feet First,US103650244,336 North Main St,,Fort Bragg,CA,95437,US,,39.444919,-123.805897,,store,,
RHYTHM,US100132081,418 Sheldon Ave,,Houghton,MI,49931,US,,47.119041,-88.602173,,store,,
Boathouse Intercity Mall,CA990007171,1000 Fort William Road Unit B31,Unit 31B,Thunder Bay,ON,P7B 6B9,CA,,48.408401,-89.240296,,store,,
West 49 Intercity Shopping Centre,CA990013737,1000 Fort William Road,Unit# B010,Thunder Bay,ON,P7B 6B9,CA,,48.408401,-89.240296,,store,,
BAJA EAST SURF SHOP,US100034464,2600 Bridge Ave,,Point Pleasant Beach,NJ,08742,US,,40.073948,-74.079002,,store,,
RIGHT COAST SURF SHOP,US100153486,214 S. E. Central Ave,,Seaside Park,NJ,08752,US,,39.921287,-74.078323,,store,,
West 49 Seven Oaks Mall,CA990013434,32900 South Fraser Way,,Abbotsford ,BC,V2S 5A1,CA,,49.050854,-122.312482,,store,,
CJ001,CA990005555,1631 128th Street,,Surrey,BC,V4A 3V4,CA,,49.031855,-122.867551,,store,,
J.J & Whiskey,CA990005656,1631 128th Street,,Surrey,BC,V4A 3V4,CA,,49.031855,-122.867551,,store,,
Swimwear- Etc.,CA990018484,Unit 427- 19705 Fraser Highway,,Langley,BC,V3A 7E9,CA,,49.112977,-122.677597,,store,,
West 49 Willowbrook Shopping Centre,CA990015555,19705 Fraser Hwy,455,Langley,BC,V3A 1E9,CA,,49.112977,-122.677597,,store,,
Boathouse Willowbrook Mall,CA990064848,19705 Fraser Hwy Unit 101,,Langley,BC,V3A 7E9,CA,,49.112952,-122.677706,,store,,
Stance Willowbrook Mall,CA990066565,19705 Fraser Hwy Unit 108,,Langley,BC,V3A 7E9,CA,,49.112952,-122.677706,,store,,
Swimco Willowbrook Mall,CA990062727,Unit 427 19705 Fraser Highway,,Langley,BC,V3A 7E9,CA,,49.113506,-122.678633,,store,,
Monkey Business Kids Boutique,CA990071313,11947 224th Street,,Maple Ridge,BC,V2X 6B2,CA,,49.21936,-122.601902,,store,,
Boathouse Guildford Town Centre,CA990064343,2695 Guildford Town Centre Unit 1393,,Surrey,BC,V3R7C1,CA,,49.188897,-122.805887,,store,,
Below The Belt,CA990017575,Guildord Town Centre,,Surrey,BC,V3R 7B9,CA,,49.190454,-122.802384,,store,,
West 49 Cottonwood Mall,CA990014444,45585 Luckakuck Way,Unit# 113,Chilliwack,BC,V2R 1A1,CA,,49.140794,-121.962152,,store,,
Below The Belt,CA990017777,130-805 Boyd Street,Unit G,New Westminster,BC,V3M 5X2,CA,,49.190853,-122.946661,,store,,
Quiksilver Outlet New Westminister,F0849,805 Boyd St,Unit D120,New Westminster,BC,V3M 5X2,CA,,49.190866,-122.946674,,store,,
Below the Belt ,CA990055050,#117-250 School House Street,,Coquitlam,BC,V3K 6V7,CA,,49.237536,-122.852611,,store,,
Below The Belt,CA990017474,2929 Barnet Highway,,Port Coquitlam,BC,V3B 5R5,CA,,49.276894,-122.799372,,store,,
Boathouse Coquitlam Centre,CA990065454,2929 Barnet Hwy Unit 1124,,Coquitlam,BC,V3B 0B9,CA,,49.278446,-122.798539,,store,,
Swimco Coquitlam Centre,CA990062424,2330 2929 Barnet Highway,,Coquitlam,BC,V3B 5R5,CA,,49.279549,-122.798955,,store,,
Below The Belt,CA990017272,4800 Kingsway,,Burnaby,BC,V5H 4J2,CA,,49.227359,-122.996381,,store,,
Boathouse Metropolis at Metrotown,CA990064242,4700 Kingsway Unit 2155A,,Burnaby,BC,V5H 4N2,CA,,49.225919,-123.002663,,store,,
Moana,CA990005858,1224-4700 Kingsway,,Burnaby,BC,V5H 4M1,CA,,49.228317,-122.999367,,store,,
West 49 Metropolis Centre,CA990012727,4700 Kingsway,2173,Burnaby,BC,V5H 4N2,CA,,49.228317,-122.999367,,store,,
Swimco Metropolis at Metrotown,CA990019595,2114 - 4700 Kingsway,,Burnaby,BC,V5H 4M1,CA,,49.228317,-122.999367,,store,,
West 49 Richmond Centre,CA990011818,1922-6551 Minoru Blvd,,Richmond,BC,V6Y 2B6,CA,,49.166385,-123.141142,,store,,
BRIAN HEAD RESORT LLC,US200265027,329 S. HWY 143,,BRIAN HEAD,UT,84719,US,,37.692824,-112.849612,,store,,
BRIAN HEAD SPORTS,US200122228,269 S Village Way,,Brian Head,UT,84719,US,,37.69417,-112.846804,,store,,
CHRISTENSENS - RICHFIELD,US100013124,39 North Main,,Richfield,UT,84701,US,,38.768644,-112.084842,,store,,
ARIZONA SNOWBOWL,US200316531,N. Hwy 180 & N. Snowbowl Rd.,,Flagstaff,AZ,86001,US,,35.487949,-111.807693,,store,,
RC STAPLES CO.,US100013651,261 West Main,,Delta,UT,84624,US,,39.351974,-112.580475,,store,,
SURF SHACK SOUTH,US100051444,657 EASY BAY AVE UNIT 13,,MANAHAWKIN,NJ,08050,US,,39.684398,-74.236686,,store,,
BROWN'S SHOE FIT,US202544235,204 MAIN ST.,,STERLIMG,CO,80751,US,,40.623507,-103.207532,,store,,
SCHEELS,US990266060,2400 10th St. SW,,Minot,ND,58701-6996,US,,48.207058,-101.30765,,store,,
RADIO SNOWBOARD SHOP LLC,US100157746,400 E Hopkins,,Aspen,CO,81611,US,,39.189867,-106.819304,,store,,
Below The Belt,CA990016262,1st Ave S & 5th Street,,Lethbridge ,AB,T1J 4L9,CA,,49.69789,-112.840401,,store,,
West 49 Park Place,CA990014343,501 1st Avenue S,D09,Lethbridge,AB,T1J 4L9,CA,,49.697891,-112.84038,,store,,
Boathouse Park Place Mall,CA990065959,501 1st Ave S Unit Q01,,Lethbridge,AB,T1J 4L9,CA,,49.698005,-112.839152,,store,,
West 49 Cimarron,CA990071717,105 Southbank Boulevard,Unit #D101,Okotoks,AB,T1S 0G1,CA,,50.704854,-113.948628,,store,,
42Nd Street,CA990047272,921 - 2nd Street West,,Brooks,AB,,CA,,50.577119,-111.898055,,store,,
The Source Skate/Snow,CA990061515,16061 Macleod Tr Se,,Calgary,AB,T2Y 2Z9,CA,,50.908271,-114.06705,,store,,
Jenny Joans,CA990057070,1225 4th Street,,Estevan,SK,S4A0W8,CA,,49.141021,-102.996143,,store,,
Boathouse Shoppers Mall,CA990065555,1570 18th Street Unit 13,,Brandon,MB,R7A 5C5,CA,,49.826299,-99.962045,,store,,
North Shore Outfitters,CA990003535,1570 18th Street,Unit 90,Brandon,MB,R7A 5C5,CA,,49.835946,-99.961661,,store,,
Backwoods Snow & Skate,US103116158,1 Garfield Rd,,Auburn,ME,04210,US,,44.081364,-70.27018,,store,,
MAUREEN'S BOUTIQUE,US100075100,146 Main Street,,Berlin,NH,03570,US,,44.469631,-71.180679,,store,,
LAHOUTS SKI SHOP,US100177167,245 Union St,,Littleton,NH,03561,US,,44.309166,-71.762176,,store,,
DARKSIDE SNOWBOARD SHOP,US200036534,2160 Mountain Road,,Stowe,VT,05672,US,,44.475032,-72.717074,,store,,
TALENT SKATE PARK & SHOP,US100118194,2069 Williston Rd,,South Burlington,VT,05403,US,,44.459651,-73.147429,,store,,
COLLIN MCBRIDE INC.,US100666275,453 ROUTE 3,,PLATTSBURGH,NY,12901,US,,44.696251,-73.492355,,store,,
SIDEWINDER SPORTS,US200654954,8 Snowmass Village Mall,,Snowmass Village,CO,81615,US,,39.207277,-106.954312,,store,,
STEWART'S,US103815429,245 W. HIGHWAY 40,,ROOSEVELT,UT,84066,US,,40.290811,-109.99599,,store,,
BASE MOUNTAIN,US200321572,76 Avondale Lane,,Beaver Creek,CO,81620,US,,39.604976,-106.516418,,store,,
TRANSITION SPORTS,US100624159,240 Chapel PL Unit B-125,,Avon,CO,81620,US,,39.632419,-106.518363,,store,,
BASE MOUNTAIN SPORTS,US200115174,500 S. Park,,Avon,CO,81620,US,,39.638447,-106.509598,,store,,
POWDER PURSUITS,US200022016,2300 Mt Werner Circle,,Steamboat Springs,CO,80487,US,,40.458746,-106.806349,,store,,
CLANDESTINE CLOTHES,US103770938,703 LINCOLN AVE. SUITE 101,,STEAMBOAT SPRINGS,CO,80487,US,,40.485073,-106.83448,,store,,
IN CELEBRATION OF KIDS,US202793732,831 LINCOLN AVE,,STEAMBOAT SPRINGS,CO,80487,US,,40.486279,-106.835579,,store,,
BASE MOUNTAIN SPORTS,US200284673,500 S PARK AVE,,BRECKENRIDGE,CO,80424,US,,39.477607,-106.047504,,store,,
MOUNTAIN STYLE INC,US200546881,135 S. MAIN ST. UNIT F,,BRECKENRIDGE,CO,80424,US,,39.480965,-106.046455,,store,,
FUN VS AWSOME,US202220834,"222 S. MAIN STREET, UNIT C",,BRECKENRIDGE,CO,80424,US,,39.48036,-106.045967,,store,,
THE LUMBERYARD,US202604703,400 S. MAIN ST.,,BRECKENRIDGE,CO,80424,US,,39.478172,-106.045029,,store,,
SUN LOGIC,US202873558,122 S. MAIN ST,,BRECKENRIDGE,CO,80424,US,,39.481323,-106.045761,,store,,
UNDERGROUND SNOWBOARDS,US200015538,320 S Main St,,Breckenridge,CO,80424,US,,39.478916,-106.045097,,store,,
UNDERGROUND SNOWBOARDS,US202789839,320 S MAIN ST,,BRECKENRIDGE,CO,80424,US,,39.478916,-106.045097,,store,,
Boathouse South Centre Mall,CA990070808,"110 Anderson Road, Unit 146",,Calgary ,AB,T2J 3V1,CA,,50.950528,-114.066563,,store,,
West 49 South Centre,CA990011212,100 Anderson Road SE,64,Calgary,AB,T2J 3V1,CA,,50.950525,-114.066586,,store,,
Swimco Southcentre,CA990019090,39- 100 Anderson Road SE,,Calgary,AB,T2J 3V1,CA,,50.950525,-114.066586,,store,,
West 49 Chinook Center,CA990014949,6455 Macleod Trail SW,106,Calgary,AB,T2H 0K8,CA,,50.99562,-114.071646,,store,,
Below The Belt,CA990016060,6455 Macleod Tr SW,,Calgary,AB,T2H 0K3,CA,,50.99562,-114.071646,,store,,
Swimco Chinook Centre,CA990019191,1225- 6455 Macleod Trail S,,Calgary,AB,T2H 0K8,CA,,50.995714,-114.071646,,store,,
Boathouse Chinook Centre,CA990064646,6455 Macleod Trail SW Unit 1269,,Calgary,AB,T2H 0K8,CA,,50.997498,-114.071863,,store,,
The Source Skate/Snow ,CA990061414,738 11 Ave SW,,Calgary,AB,T2R 0E3 ,CA,,51.042916,-114.078687,,store,,
Boardanyone,CA990055454,329 2nd Street South,,Kenora,ON,P9N 1G3,CA,,49.765538,-94.488093,,store,,
West Shore Clothing,CA990001414,792 Queen Street,,Kincardine,ON,N2Z 2Y2,CA,,44.177115,-81.635265,,store,,
Quiksilver Banff,R0100,114 Banff Ave,,Banff,AB,T1L 1A1,CA,,51.174728,-115.57106,,store,,
Parkland Source for Sport,CA990057878,17 3rd avenue north east,,Dauphin,MB,R7N 0Y5,CA,,51.150703,-100.047295,,store,,
North Shore Outfitters,CA990003434,2965 Gordon Road,Unit 66,Regina,SK,S4S 6H7,CA,,50.405152,-104.626972,,store,,
West 49 Cornwall,CA990012929,2102 11th Avenue,Unit # TT32A,Regina,SK,S4P 3Y6,CA,,50.450377,-104.611558,,store,,
Below The Belt,CA990016767,2102 11th Avenue,,Regina,SK,S4P 3Y6,CA,,50.450377,-104.611558,,store,,
Below The Belt,CA990016464,451 Albert Street N,,Regina,SK,S4R 3C4,CA,,50.482863,-104.617994,,store,,
NO SCHOOL SNOWBOARD SHOP,US100155627,123 Old 108 Loop,,Jeffersonville,VT,05464,US,,44.590101,-72.791702,,store,,
Orbite Sport,CA990002121,9 rue St Jacques,,St Jean sur Richelieu,QC,J3B 2J5,CA,,45.306215,-73.277969,,store,,
Amnesia Carrefour Richelieu,CA990069393,"600,Pierre Caisse",310,St-Jean,QC,J3A 1M1,CA,,45.329531,-73.280818,,store,,
Ultimate,CA990001919,61 Robichaud,,Granby,QC,J2G 8C9,CA,,45.422279,-72.719367,,store,,
Panda Inc.,CA990039292,7077 Boul Newman,,Lasalle,QC,H8N 1X1,CA,,45.446888,-73.610861,,store,,
Amnesia Mail Champlain,CA990069797,"2151, boul. Lapinire",A33,Brossard,QC,J4W 2T5,CA,,45.474695,-73.471881,,store,,
Panda Inc.,CA990038484,2150 Boul Lapiniere,,Brossard,QC,J4W 2T5,CA,,45.474762,-73.471728,,store,,
Amnesia Promendes St Bruno,CA990070404,"234, boul. Les Promenades",502,St Bruno,QC,J3V 5K4,CA,,45.504948,-73.378362,,store,,
Panda Inc.,CA990039999,284 Boul Des Promenades,,St-Bruno,QC,J3V 5K4,CA,,45.509918,-73.381335,,store,,
Mode 2010,CA990057575,2010 St. Denis ,,Montreal,QC,H2X 3K7,CA,,45.516,-73.565467,,store,,
Boutique Ocean,CA990002222,4413 St Denis,A,Montreal,QC,H2J 2L2,CA,,45.523294,-73.581494,,store,,
Amnesia Fairview Pointe-Claire,CA990069494,"6815, rte Transcanadienne",G001,Pointe-Claire,QC,H9R 5J1,CA,,45.464282,-73.833396,,store,,
Boutique L'ecole Buissonniere,CA990033636,600 Boulevard Sir-Wilfrid-Laurier,,Beloeil,QC,J3G 4J2,CA,,45.5626,-73.209404,,store,,
Illusion Sports,CA990060101,304 Principale Quest,,Magog,QC,J1X 2A9,CA,,45.266026,-72.153094,,store,,
Panda Inc.,CA990039494,6772 Rue St-Hubert,,Montreal,QC,H2S 2M6,CA,,45.538175,-73.607565,,store,,
Ballz,CA990054848,89 Rue St. Anne,,Sainte-Anne-De-Belle,QC,H9X 1L9,CA,,45.461689,-73.920765,,store,,
Panda Inc.,CA990038686,1001 Rue Montarville,,Boucherville,QC,J4B 6P5,CA,,45.590974,-73.435839,,store,,
Sharks,CA990002424,313 Boulevard Cartier,,Laval ,QC,H7N 2J3,CA,,45.556415,-73.699823,,store,,
Oberson,CA990002323,1355 Boulevard Des Laurentides,,Laval,QC,H7N 4Y5,CA,,45.578102,-73.700942,,store,,
Martin's Menswear,CA990003232,33 Station Street,,Duncan,BC,V9L 1M2,CA,,48.777682,-123.707357,,store,,
