store_name,store_number,address,address2,city,state,zip_code,country,phone_number,latitude,longitude,store_hours,store_type,other_fields,coming_soon
Mattress Warehouse of Alexandria,,382 South Pickett Street,,Alexandria,Virginia,22304,United States,,,,"Sunday 11:00 AM - 6:00 PM , Monday 10:00 AM - 9:00 PM , Tuesday 10:00 AM - 9:00 PM , Wednesday 10:00 AM - 9:00 PM , Thursday 10:00 AM - 9:00 PM , Friday 10:00 AM - 9:00 PM , Saturday 10:00 AM - 8:00 PM ",,,
Mattress Warehouse of Culpeper,,15131 Montanus Drive,,Culpeper,Virginia,22701,United States,,,,"Sunday 11:00 AM - 6:00 PM , Monday 10:00 AM - 9:00 PM , Tuesday 10:00 AM - 9:00 PM , Wednesday 10:00 AM - 9:00 PM , Thursday 10:00 AM - 9:00 PM , Friday 10:00 AM - 9:00 PM , Saturday 10:00 AM - 8:00 PM ",,,
Mattress Warehouse of Dunkirk,,10730 Town Center Boulevard,,Dunkirk,Maryland,20754,United States,,,,"Sunday 11:00 AM - 6:00 PM , Monday 10:00 AM - 9:00 PM , Tuesday 10:00 AM - 9:00 PM , Wednesday 10:00 AM - 9:00 PM , Thursday 10:00 AM - 9:00 PM , Friday 10:00 AM - 9:00 PM , Saturday 10:00 AM - 8:00 PM ",,,
Mattress Warehouse of Columbia Crossing,,6110 Dobbin Road,,Columbia,Maryland,21045,United States,,,,"Sunday 11:00 AM - 6:00 PM , Monday 10:00 AM - 9:00 PM , Tuesday 10:00 AM - 9:00 PM , Wednesday 10:00 AM - 9:00 PM , Thursday 10:00 AM - 9:00 PM , Friday 10:00 AM - 9:00 PM , Saturday 10:00 AM - 8:00 PM ",,,
Mattress Warehouse of Danville,,3 Drive B,,Danville,Virginia,24540,United States,,,,"Sunday 11:00 AM - 6:00 PM , Monday 10:00 AM - 9:00 PM , Tuesday 10:00 AM - 9:00 PM , Wednesday 10:00 AM - 9:00 PM , Thursday 10:00 AM - 9:00 PM , Friday 10:00 AM - 9:00 PM , Saturday 10:00 AM - 8:00 PM ",,,
Mattress Warehouse of District Heights,,5702 Silver Hill Road,,District Heights,Maryland,20747,United States,,,,"Sunday 11:00 AM - 6:00 PM , Monday 10:00 AM - 9:00 PM , Tuesday 10:00 AM - 9:00 PM , Wednesday 10:00 AM - 9:00 PM , Thursday 10:00 AM - 9:00 PM , Friday 10:00 AM - 9:00 PM , Saturday 10:00 AM - 8:00 PM ",,,
Mattress Warehouse of Durham Southpoint,,"6901 Fayetteville Road, Suite 101",,Durham,North,27713,United States,,,,"Sunday 11:00 AM - 6:00 PM , Monday 10:00 AM - 9:00 PM , Tuesday 10:00 AM - 9:00 PM , Wednesday 10:00 AM - 9:00 PM , Thursday 10:00 AM - 9:00 PM , Friday 10:00 AM - 9:00 PM , Saturday 10:00 AM - 8:00 PM ",,,
Mattress Warehouse of Dumfries,,3966-3970 Fettler Park Drive,,Dumfries,Virginia,22025,United States,,,,"Sunday 11:00 AM - 6:00 PM , Monday 10:00 AM - 9:00 PM , Tuesday 10:00 AM - 9:00 PM , Wednesday 10:00 AM - 9:00 PM , Thursday 10:00 AM - 9:00 PM , Friday 10:00 AM - 9:00 PM , Saturday 10:00 AM - 8:00 PM ",,,
Mattress Warehouse of Columbia,,"9400 Snowden River Parkway, Suite 101",,Columbia,Maryland,21045,United States,,,,"Sunday 11:00 AM - 6:00 PM , Monday 10:00 AM - 9:00 PM , Tuesday 10:00 AM - 9:00 PM , Wednesday 10:00 AM - 9:00 PM , Thursday 10:00 AM - 9:00 PM , Friday 10:00 AM - 9:00 PM , Saturday 10:00 AM - 8:00 PM ",,,
Mattress Warehouse of Colonial Heights,,1170 Temple Avenue,,Colonial Heights,Virginia,23834,United States,,,,"Sunday 11:00 AM - 6:00 PM , Monday 10:00 AM - 9:00 PM , Tuesday 10:00 AM - 9:00 PM , Wednesday 10:00 AM - 9:00 PM , Thursday 10:00 AM - 9:00 PM , Friday 10:00 AM - 9:00 PM , Saturday 10:00 AM - 8:00 PM ",,,
Mattress Warehouse of Cockeysville,,9729 York Road,,Cockeysville,Maryland,21030,United States,,,,"Sunday 11:00 AM - 6:00 PM , Monday 10:00 AM - 9:00 PM , Tuesday 10:00 AM - 9:00 PM , Wednesday 10:00 AM - 9:00 PM , Thursday 10:00 AM - 9:00 PM , Friday 10:00 AM - 9:00 PM , Saturday 10:00 AM - 8:00 PM ",,,
Mattress Warehouse of Clinton,,8847 Woodyard Road,,Clinton,Maryland,20735,United States,,,,"Sunday 11:00 AM - 6:00 PM , Monday 10:00 AM - 9:00 PM , Tuesday 10:00 AM - 9:00 PM , Wednesday 10:00 AM - 9:00 PM , Thursday 10:00 AM - 9:00 PM , Friday 10:00 AM - 9:00 PM , Saturday 10:00 AM - 8:00 PM ",,,
Mattress Warehouse of ,,"290 Peppers Ferry Road, #104",,Christiansburg,,24073,United States,,,,"Sunday 11:00 AM - 6:00 PM , Monday 10:00 AM - 9:00 PM , Tuesday 10:00 AM - 9:00 PM , Wednesday 10:00 AM - 9:00 PM , Thursday 10:00 AM - 9:00 PM , Friday 10:00 AM - 9:00 PM , Saturday 10:00 AM - 8:00 PM ",,,
Mattress Warehouse of Charlottesville Shoppers World,,1500 Seminole Trail,,Charlottesville,Virginia,22901,United States,,,,"Sunday 11:00 AM - 6:00 PM , Monday 10:00 AM - 9:00 PM , Tuesday 10:00 AM - 9:00 PM , Wednesday 10:00 AM - 9:00 PM , Thursday 10:00 AM - 9:00 PM , Friday 10:00 AM - 9:00 PM , Saturday 10:00 AM - 8:00 PM ",,,
Mattress Warehouse of Charlottesville Hollymead,,304 Connor Drive,,Charlottesville,Virginia,22911,United States,,,,"Sunday 11:00 AM - 6:00 PM , Monday 10:00 AM - 9:00 PM , Tuesday 10:00 AM - 9:00 PM , Wednesday 10:00 AM - 9:00 PM , Thursday 10:00 AM - 9:00 PM , Friday 10:00 AM - 9:00 PM , Saturday 10:00 AM - 8:00 PM ",,,
Mattress Warehouse of Chapel Hill,,1200-B Raleigh Road,,Chapel Hill,North,27517,United States,,,,"Sunday 11:00 AM - 6:00 PM , Monday 10:00 AM - 9:00 PM , Tuesday 10:00 AM - 9:00 PM , Wednesday 10:00 AM - 9:00 PM , Thursday 10:00 AM - 9:00 PM , Friday 10:00 AM - 9:00 PM , Saturday 10:00 AM - 8:00 PM ",,,
Mattress Warehouse of Glassboro,,730 North Delsea Drive,,Glassboro,New,08028,United States,,,,"Sunday 11:00 AM - 6:00 PM , Monday 10:00 AM - 9:00 PM , Tuesday 10:00 AM - 9:00 PM , Wednesday 10:00 AM - 9:00 PM , Thursday 10:00 AM - 9:00 PM , Friday 10:00 AM - 9:00 PM , Saturday 10:00 AM - 8:00 PM ",,,
Mattress Warehouse of Harbour Square,,4551 Highway One,,Rehoboth Beach,Delaware,19971,United States,,,,"Sunday 11:00 AM - 6:00 PM , Monday 10:00 AM - 9:00 PM , Tuesday 10:00 AM - 9:00 PM , Wednesday 10:00 AM - 9:00 PM , Thursday 10:00 AM - 9:00 PM , Friday 10:00 AM - 9:00 PM , Saturday 10:00 AM - 8:00 PM ",,,
Mattress Warehouse of York Queen Street,,2064 South Queen Street,,York,Pennsylvania,17403,United States,,,,"Sunday 11:00 AM - 6:00 PM , Monday 10:00 AM - 9:00 PM , Tuesday 10:00 AM - 9:00 PM , Wednesday 10:00 AM - 9:00 PM , Thursday 10:00 AM - 9:00 PM , Friday 10:00 AM - 9:00 PM , Saturday 10:00 AM - 8:00 PM ",,,
Mattress Warehouse of Chantilly Lee Jackson,,14008 B Lee Jackson Memorial Highway,,Chantilly,Virginia,20151,United States,,,,"Sunday 11:00 AM - 6:00 PM , Monday 10:00 AM - 9:00 PM , Tuesday 10:00 AM - 9:00 PM , Wednesday 10:00 AM - 9:00 PM , Thursday 10:00 AM - 9:00 PM , Friday 10:00 AM - 9:00 PM , Saturday 10:00 AM - 8:00 PM ",,,
Mattress Warehouse of Fuquay Varina,,1389 N. Main Street,,Fuquay Varina,North,27526,United States,,,,"Sunday 11:00 AM - 6:00 PM , Monday 10:00 AM - 9:00 PM , Tuesday 10:00 AM - 9:00 PM , Wednesday 10:00 AM - 9:00 PM , Thursday 10:00 AM - 9:00 PM , Friday 10:00 AM - 9:00 PM , Saturday 10:00 AM - 8:00 PM ",,,
Mattress Warehouse of Fredericksburg Westwood,,"2051 Plank Road, Unit A-27",,Fredericksburg,Virginia,22401,United States,,,,"Sunday 11:00 AM - 6:00 PM , Monday 10:00 AM - 9:00 PM , Tuesday 10:00 AM - 9:00 PM , Wednesday 10:00 AM - 9:00 PM , Thursday 10:00 AM - 9:00 PM , Friday 10:00 AM - 9:00 PM , Saturday 10:00 AM - 8:00 PM ",,,
Mattress Warehouse of Harleysville,,259 Harleysville Pike,,Harleysville,Pennsylvania,19438,United States,,,,"Sunday 11:00 AM - 6:00 PM , Monday 10:00 AM - 9:00 PM , Tuesday 10:00 AM - 9:00 PM , Wednesday 10:00 AM - 9:00 PM , Thursday 10:00 AM - 9:00 PM , Friday 10:00 AM - 9:00 PM , Saturday 10:00 AM - 8:00 PM ",,,
Mattress Warehouse of Toms River,,10 Route 37 East,,Toms River,New,08753,United States,,,,"Sunday 11:00 AM - 6:00 PM , Monday 10:00 AM - 9:00 PM , Tuesday 10:00 AM - 9:00 PM , Wednesday 10:00 AM - 9:00 PM , Thursday 10:00 AM - 9:00 PM , Friday 10:00 AM - 9:00 PM , Saturday 10:00 AM - 8:00 PM ",,,
Mattress Warehouse of Charlottesville 5th Street,,"415 Merchant Walk Square, Suite 100",,Charlottesville,Virginia,22902,United States,,,,"Sunday 11:00 AM - 6:00 PM , Monday 10:00 AM - 9:00 PM , Tuesday 10:00 AM - 9:00 PM , Wednesday 10:00 AM - 9:00 PM , Thursday 10:00 AM - 9:00 PM , Friday 10:00 AM - 9:00 PM , Saturday 10:00 AM - 8:00 PM ",,,
Mattress Warehouse of Fredericksburg Waverly Village,,12101 Amos Lane,,Fredericksburg,Virginia,22407,United States,,,,"Sunday 11:00 AM - 6:00 PM , Monday 10:00 AM - 9:00 PM , Tuesday 10:00 AM - 9:00 PM , Wednesday 10:00 AM - 9:00 PM , Thursday 10:00 AM - 9:00 PM , Friday 10:00 AM - 9:00 PM , Saturday 10:00 AM - 8:00 PM ",,,
Mattress Warehouse of Mechanicsburg Carlisle Pike,,"6427 Carlisle Pike, Suite B",,Mechanicsburg,Pennsylvania,17050,United States,,,,"Sunday 11:00 AM - 6:00 PM , Monday 10:00 AM - 9:00 PM , Tuesday 10:00 AM - 9:00 PM , Wednesday 10:00 AM - 9:00 PM , Thursday 10:00 AM - 9:00 PM , Friday 10:00 AM - 9:00 PM , Saturday 10:00 AM - 8:00 PM ",,,
Mattress Warehouse of Middletown,,392 East Main Street,,Middletown,Delaware,19709,United States,,,,"Sunday 11:00 AM - 6:00 PM , Monday 10:00 AM - 9:00 PM , Tuesday 10:00 AM - 9:00 PM , Wednesday 10:00 AM - 9:00 PM , Thursday 10:00 AM - 9:00 PM , Friday 10:00 AM - 9:00 PM , Saturday 10:00 AM - 8:00 PM ",,,
Mattress Warehouse of Latrobe,,"3922 Route 30 W, Suite 140",,Latrobe,Pennsylvania,15650,United States,,,,"Sunday 11:00 AM - 6:00 PM , Monday 10:00 AM - 9:00 PM , Tuesday 10:00 AM - 9:00 PM , Wednesday 10:00 AM - 9:00 PM , Thursday 10:00 AM - 9:00 PM , Friday 10:00 AM - 9:00 PM , Saturday 10:00 AM - 8:00 PM ",,,
Mattress Warehouse of Deptford Locust,,"1692 Clements Bridge Road, Suite A",,Deptford,New,08096,United States,,,,"Sunday 11:00 AM - 6:00 PM , Monday 10:00 AM - 9:00 PM , Tuesday 10:00 AM - 9:00 PM , Wednesday 10:00 AM - 9:00 PM , Thursday 10:00 AM - 9:00 PM , Friday 10:00 AM - 9:00 PM , Saturday 10:00 AM - 8:00 PM ",,,
Mattress Warehouse of Hamilton,,"950 Route 33, Suite 5,6,7",,Hamilton,New,08690,United States,,,,"Sunday 11:00 AM - 6:00 PM , Monday 10:00 AM - 9:00 PM , Tuesday 10:00 AM - 9:00 PM , Wednesday 10:00 AM - 9:00 PM , Thursday 10:00 AM - 9:00 PM , Friday 10:00 AM - 9:00 PM , Saturday 10:00 AM - 8:00 PM ",,,
Mattress Warehouse of York South,,3014 East Market Street,,York,Pennsylvania,17402,United States,,,,"Sunday 11:00 AM - 6:00 PM , Monday 10:00 AM - 9:00 PM , Tuesday 10:00 AM - 9:00 PM , Wednesday 10:00 AM - 9:00 PM , Thursday 10:00 AM - 9:00 PM , Friday 10:00 AM - 9:00 PM , Saturday 10:00 AM - 8:00 PM ",,,
Mattress Warehouse of Winterville,,"4100 Humber Drive, Suite 106",,Winterville,North,28590,United States,,,,"Sunday 11:00 AM - 6:00 PM , Monday 10:00 AM - 9:00 PM , Tuesday 10:00 AM - 9:00 PM , Wednesday 10:00 AM - 9:00 PM , Thursday 10:00 AM - 9:00 PM , Friday 10:00 AM - 9:00 PM , Saturday 10:00 AM - 8:00 PM ",,,
Mattress Warehouse of Mays Landing,,6040 E Black Horse Pike,,Egg Harbor Township,New,08234,United States,,,,"Sunday 11:00 AM - 6:00 PM , Monday 10:00 AM - 9:00 PM , Tuesday 10:00 AM - 9:00 PM , Wednesday 10:00 AM - 9:00 PM , Thursday 10:00 AM - 9:00 PM , Friday 10:00 AM - 9:00 PM , Saturday 10:00 AM - 8:00 PM ",,,
Mattress Warehouse of Forked River,,306 N Main Street,,Forked River,New,08734,United States,,,,"Sunday 11:00 AM - 6:00 PM , Monday 10:00 AM - 9:00 PM , Tuesday 10:00 AM - 9:00 PM , Wednesday 10:00 AM - 9:00 PM , Thursday 10:00 AM - 9:00 PM , Friday 10:00 AM - 9:00 PM , Saturday 10:00 AM - 8:00 PM ",,,
Mattress Warehouse of Brick,,722 Route 70,,Brick,New,08723,United States,,,,"Sunday 10:00 AM - 6:00 PM , Monday 10:00 AM - 9:00 PM , Tuesday 10:00 AM - 9:00 PM , Wednesday 10:00 AM - 9:00 PM , Thursday 10:00 AM - 9:00 PM , Friday 10:00 AM - 9:00 PM , Saturday 10:00 AM - 8:00 PM ",,,
Mattress Warehouse of Springfield,,6119-A Backlick Road,,Springfield,Virginia,22150,United States,,,,"Sunday 11:00 AM - 6:00 PM , Monday 10:00 AM - 9:00 PM , Tuesday 10:00 AM - 9:00 PM , Wednesday 10:00 AM - 9:00 PM , Thursday 10:00 AM - 9:00 PM , Friday 10:00 AM - 9:00 PM , Saturday 10:00 AM - 8:00 PM ",,,
Mattress Warehouse of Martinsburg Foxcroft,,882 Foxcroft Avenue,,Martinsburg,West,25401,United States,,,,"Sunday 11:00 AM - 6:00 PM , Monday 10:00 AM - 9:00 PM , Tuesday 10:00 AM - 9:00 PM , Wednesday 10:00 AM - 9:00 PM , Thursday 10:00 AM - 9:00 PM , Friday 10:00 AM - 9:00 PM , Saturday 10:00 AM - 8:00 PM ",,,
Mattress Warehouse of Greensboro Southwest,,4000 West Wendover Avenue,,Greensboro,North,27407,United States,,,,"Sunday 11:00 AM - 6:00 PM , Monday 10:00 AM - 9:00 PM , Tuesday 10:00 AM - 9:00 PM , Wednesday 10:00 AM - 9:00 PM , Thursday 10:00 AM - 9:00 PM , Friday 10:00 AM - 9:00 PM , Saturday 10:00 AM - 8:00 PM ",,,
Mattress Warehouse of Washington PA,,360 Washington Road,,Washington,Pennsylvania,15301,United States,,,,"Sunday 11:00 AM - 6:00 PM , Monday 10:00 AM - 9:00 PM , Tuesday 10:00 AM - 9:00 PM , Wednesday 10:00 AM - 9:00 PM , Thursday 10:00 AM - 9:00 PM , Friday 10:00 AM - 9:00 PM , Saturday 10:00 AM - 8:00 PM ",,,
Mattress Warehouse of High Point,,4009 Precision Way,,High Point,North,27265,United States,,,,"Sunday 11:00 AM - 6:00 PM , Monday 10:00 AM - 9:00 PM , Tuesday 10:00 AM - 9:00 PM , Wednesday 10:00 AM - 9:00 PM , Thursday 10:00 AM - 9:00 PM , Friday 10:00 AM - 9:00 PM , Saturday 10:00 AM - 8:00 PM ",,,
Mattress Warehouse of La Vale,,"12317 Winchester Road, Suite 200",,La Vale,,21502,United States,,,,"Sunday 11:00 AM - 6:00 PM , Monday 10:00 AM - 9:00 PM , Tuesday 10:00 AM - 9:00 PM , Wednesday 10:00 AM - 9:00 PM , Thursday 10:00 AM - 9:00 PM , Friday 10:00 AM - 9:00 PM , Saturday 10:00 AM - 8:00 PM ",,,
Mattress Warehouse of Salisbury North,,2630 North  Boulevard,,Salisbury,Maryland,21801,United States,,,,"Sunday 11:00 AM - 6:00 PM , Monday 10:00 AM - 9:00 PM , Tuesday 10:00 AM - 9:00 PM , Wednesday 10:00 AM - 9:00 PM , Thursday 10:00 AM - 9:00 PM , Friday 10:00 AM - 9:00 PM , Saturday 10:00 AM - 8:00 PM ",,,
Mattress Warehouse of Madison Heights,,4225 South Amherst Highway,,Madison Heights,Virginia,24572,United States,,,,"Sunday 11:00 AM - 6:00 PM , Monday 10:00 AM - 9:00 PM , Tuesday 10:00 AM - 9:00 PM , Wednesday 10:00 AM - 9:00 PM , Thursday 10:00 AM - 9:00 PM , Friday 10:00 AM - 9:00 PM , Saturday 10:00 AM - 8:00 PM ",,,
Mattress Warehouse of Alexandria Hilltop,,6464 Old Beulah St,,Alexandria,Virginia,22315,United States,,,,"Sunday 11:00 AM - 6:00 PM , Monday 10:00 AM - 9:00 PM , Tuesday 10:00 AM - 9:00 PM , Wednesday 10:00 AM - 9:00 PM , Thursday 10:00 AM - 9:00 PM , Friday 10:00 AM - 9:00 PM , Saturday 10:00 AM - 8:00 PM ",,,
Mattress Warehouse of Laurel Towne Centre,,"14700 Baltimore Avenue, Suite 104",,Laurel,Maryland,20707,United States,,,,"Sunday 11:00 AM - 6:00 PM , Monday 10:00 AM - 9:00 PM , Tuesday 10:00 AM - 9:00 PM , Wednesday 10:00 AM - 9:00 PM , Thursday 10:00 AM - 9:00 PM , Friday 10:00 AM - 9:00 PM , Saturday 10:00 AM - 8:00 PM ",,,
Mattress Warehouse of Shrewsbury Highlands,,"96 Sofia Drive, Suite 107",,Shrewsbury,Pennsylvania,17361,United States,,,,"Sunday 11:00 AM - 6:00 PM , Monday 10:00 AM - 9:00 PM , Tuesday 10:00 AM - 9:00 PM , Wednesday 10:00 AM - 9:00 PM , Thursday 10:00 AM - 9:00 PM , Friday 10:00 AM - 9:00 PM , Saturday 10:00 AM - 8:00 PM ",,,
Mattress Warehouse of Willow Grove,,"2524 West Moreland Road, Space B1",,Willow Grove,Pennsylvania,19090,United States,,,,"Sunday 11:00 AM - 6:00 PM , Monday 10:00 AM - 9:00 PM , Tuesday 10:00 AM - 9:00 PM , Wednesday 10:00 AM - 9:00 PM , Thursday 10:00 AM - 9:00 PM , Friday 10:00 AM - 9:00 PM , Saturday 10:00 AM - 8:00 PM ",,,
Mattress Warehouse of Whitehall,,1450 MacArthur Road,,Whitehall,Pennsylvania,18052,United States,,,,"Sunday 11:00 AM - 6:00 PM , Monday 10:00 AM - 9:00 PM , Tuesday 10:00 AM - 9:00 PM , Wednesday 10:00 AM - 9:00 PM , Thursday 10:00 AM - 9:00 PM , Friday 10:00 AM - 9:00 PM , Saturday 10:00 AM - 8:00 PM ",,,
Mattress Warehouse of Turnersville,,"610 Cross Keys Road, Building 200, Suite 202",,Sicklerville,New,08081,United States,,,,"Sunday 11:00 AM - 6:00 PM , Monday 10:00 AM - 9:00 PM , Tuesday 10:00 AM - 9:00 PM , Wednesday 10:00 AM - 9:00 PM , Thursday 10:00 AM - 9:00 PM , Friday 10:00 AM - 9:00 PM , Saturday 10:00 AM - 8:00 PM ",,,
Mattress Warehouse of Severna Park North,,574 Ritchie Highway,,Severna Park,Maryland,21146,United States,,,,"Sunday 11:00 AM - 6:00 PM , Monday 10:00 AM - 9:00 PM , Tuesday 10:00 AM - 9:00 PM , Wednesday 10:00 AM - 9:00 PM , Thursday 10:00 AM - 9:00 PM , Friday 10:00 AM - 9:00 PM , Saturday 10:00 AM - 8:00 PM ",,,
Mattress Warehouse of Annapolis West Street,,2091 West Street,,Annapolis,Maryland,21401,United States,,,,"Sunday 11:00 AM - 6:00 PM , Monday 10:00 AM - 9:00 PM , Tuesday 10:00 AM - 9:00 PM , Wednesday 10:00 AM - 9:00 PM , Thursday 10:00 AM - 9:00 PM , Friday 10:00 AM - 9:00 PM , Saturday 10:00 AM - 8:00 PM ",,,
Mattress Warehouse of Arlington Courthouse,,2044 Wilson Boulevard,,Arlington,Virginia,22201,United States,,,,"Sunday 11:00 AM - 6:00 PM , Monday 10:00 AM - 9:00 PM , Tuesday 10:00 AM - 9:00 PM , Wednesday 10:00 AM - 9:00 PM , Thursday 10:00 AM - 9:00 PM , Friday 10:00 AM - 9:00 PM , Saturday 10:00 AM - 8:00 PM ",,,
Mattress Warehouse of Marlton,,46 West Route 70,,Marlton,New,08053,United States,,,,"Sunday 11:00 AM - 6:00 PM , Monday 10:00 AM - 9:00 PM , Tuesday 10:00 AM - 9:00 PM , Wednesday 10:00 AM - 9:00 PM , Thursday 10:00 AM - 9:00 PM , Friday 10:00 AM - 9:00 PM , Saturday 10:00 AM - 8:00 PM ",,,
Mattress Warehouse of Alexandria Crossroads,,7838 Richmond Highway,,Alexandria,Virginia,22306,United States,,,,"Sunday 11:00 AM - 6:00 PM , Monday 10:00 AM - 9:00 PM , Tuesday 10:00 AM - 9:00 PM , Wednesday 10:00 AM - 9:00 PM , Thursday 10:00 AM - 9:00 PM , Friday 10:00 AM - 9:00 PM , Saturday 10:00 AM - 8:00 PM ",,,
Mattress Warehouse of Purcellville,,711 East Main Street,,Purcellville,Virginia,20132,United States,,,,"Sunday 11:00 AM - 6:00 PM , Monday 10:00 AM - 9:00 PM , Tuesday 10:00 AM - 9:00 PM , Wednesday 10:00 AM - 9:00 PM , Thursday 10:00 AM - 9:00 PM , Friday 10:00 AM - 9:00 PM , Saturday 10:00 AM - 8:00 PM ",,,
Mattress Warehouse of Friendship Heights,,"5252 Wisconsin Avenue NW, 1B Third Floor",,Washington,District,20015,United States,,,,"Sunday 11:00 AM - 6:00 PM , Monday 10:00 AM - 9:00 PM , Tuesday 10:00 AM - 9:00 PM , Wednesday 10:00 AM - 9:00 PM , Thursday 10:00 AM - 9:00 PM , Friday 10:00 AM - 9:00 PM , Saturday 10:00 AM - 8:00 PM ",,,
Mattress Warehouse of Camden,,"4598 South Dupont Highway, Suite 1",,Camden,Delaware,19901,United States,,,,"Sunday 11:00 AM - 6:00 PM , Monday 10:00 AM - 9:00 PM , Tuesday 10:00 AM - 9:00 PM , Wednesday 10:00 AM - 9:00 PM , Thursday 10:00 AM - 9:00 PM , Friday 10:00 AM - 9:00 PM , Saturday 10:00 AM - 8:00 PM ",,,
Mattress Warehouse of Waynesboro Commons,,"831 Lew DeWitt Boulevard, Suite 104",,Waynesboro,Virginia,22980,United States,,,,"Sunday 11:00 AM - 6:00 PM , Monday 10:00 AM - 9:00 PM , Tuesday 10:00 AM - 9:00 PM , Wednesday 10:00 AM - 9:00 PM , Thursday 10:00 AM - 9:00 PM , Friday 10:00 AM - 9:00 PM , Saturday 10:00 AM - 8:00 PM ",,,
Mattress Warehouse of Cherry Hill,,"1200 Haddonfield Road, Suite C",,Cherry Hill,New,08002,United States,,,,"Sunday 11:00 AM - 6:00 PM , Monday 10:00 AM - 9:00 PM , Tuesday 10:00 AM - 9:00 PM , Wednesday 10:00 AM - 9:00 PM , Thursday 10:00 AM - 9:00 PM , Friday 10:00 AM - 9:00 PM , Saturday 10:00 AM - 8:00 PM ",,,
Mattress Warehouse of Monroeville,,"4100 William Penn Highway, Store 17",,Monroeville,Pennsylvania,15146,United States,,,,"Sunday 11:00 AM - 6:00 PM , Monday 10:00 AM - 9:00 PM , Tuesday 10:00 AM - 9:00 PM , Wednesday 10:00 AM - 9:00 PM , Thursday 10:00 AM - 9:00 PM , Friday 10:00 AM - 9:00 PM , Saturday 10:00 AM - 8:00 PM ",,,
Mattress Warehouse of Germantown Square,,12619 MP Wisteria Drive,,Germantown,Maryland,20874,United States,,,,"Sunday 11:00 AM - 6:00 PM , Monday 10:00 AM - 9:00 PM , Tuesday 10:00 AM - 9:00 PM , Wednesday 10:00 AM - 9:00 PM , Thursday 10:00 AM - 9:00 PM , Friday 10:00 AM - 9:00 PM , Saturday 10:00 AM - 8:00 PM ",,,
Mattress Warehouse of Greensboro Battleground,,2416 Battleground Avenue,,Greensboro,North,27408,United States,,,,"Sunday 11:00 AM - 6:00 PM , Monday 10:00 AM - 9:00 PM , Tuesday 10:00 AM - 9:00 PM , Wednesday 10:00 AM - 9:00 PM , Thursday 10:00 AM - 9:00 PM , Friday 10:00 AM - 9:00 PM , Saturday 10:00 AM - 8:00 PM ",,,
Mattress Warehouse of Lancaster Hempstead Road,,1831 Hempstead Road,,Lancaster,Pennsylvania,17601,United States,,,,"Sunday 11:00 AM - 6:00 PM , Monday 10:00 AM - 9:00 PM , Tuesday 10:00 AM - 9:00 PM , Wednesday 10:00 AM - 9:00 PM , Thursday 10:00 AM - 9:00 PM , Friday 10:00 AM - 9:00 PM , Saturday 10:00 AM - 8:00 PM ",,,
Mattress Warehouse of Dover Commons,,"1237 North Dupont Highway, 103A",,Dover,Delaware,19901,United States,,,,"Sunday 11:00 AM - 6:00 PM , Monday 10:00 AM - 9:00 PM , Tuesday 10:00 AM - 9:00 PM , Wednesday 10:00 AM - 9:00 PM , Thursday 10:00 AM - 9:00 PM , Friday 10:00 AM - 9:00 PM , Saturday 10:00 AM - 8:00 PM ",,,
Mattress Warehouse of Frederick Golden Mile,,1003 West Patrick Street,,Frederick,Maryland,21702,United States,,,,"Sunday 11:00 AM - 6:00 PM , Monday 10:00 AM - 9:00 PM , Tuesday 10:00 AM - 9:00 PM , Wednesday 10:00 AM - 9:00 PM , Thursday 10:00 AM - 9:00 PM , Friday 10:00 AM - 9:00 PM , Saturday 10:00 AM - 8:00 PM ",,,
Mattress Warehouse of Lebanon,,203 Rocherty Road,,Lebanon,Pennsylvania,17042,United States,,,,"Sunday 11:00 AM - 6:00 PM , Monday 10:00 AM - 9:00 PM , Tuesday 10:00 AM - 9:00 PM , Wednesday 10:00 AM - 9:00 PM , Thursday 10:00 AM - 9:00 PM , Friday 10:00 AM - 9:00 PM , Saturday 10:00 AM - 8:00 PM ",,,
Mattress Warehouse of Somers Point,,512 New Road,,Somers Point,New,08244,United States,,,,"Sunday 11:00 AM - 6:00 PM , Monday 10:00 AM - 9:00 PM , Tuesday 10:00 AM - 9:00 PM , Wednesday 10:00 AM - 9:00 PM , Thursday 10:00 AM - 9:00 PM , Friday 10:00 AM - 9:00 PM , Saturday 10:00 AM - 8:00 PM ",,,
Mattress Warehouse of Falls Church,,3528 S Jefferson Street,,Falls Church,Virginia,22041,United States,,,,"Sunday 11:00 AM - 6:00 PM , Monday 10:00 AM - 9:00 PM , Tuesday 10:00 AM - 9:00 PM , Wednesday 10:00 AM - 9:00 PM , Thursday 10:00 AM - 9:00 PM , Friday 10:00 AM - 9:00 PM , Saturday 10:00 AM - 8:00 PM ",,,
Mattress Warehouse of Swedesboro,,"120 Center Square Road, #105",,Woolwich Township,New,08085,United States,,,,"Sunday 11:00 AM - 6:00 PM , Monday 10:00 AM - 9:00 PM , Tuesday 10:00 AM - 9:00 PM , Wednesday 10:00 AM - 9:00 PM , Thursday 10:00 AM - 9:00 PM , Friday 10:00 AM - 9:00 PM , Saturday 10:00 AM - 8:00 PM ",,,
Mattress Warehouse of Downtown Short Pump,,11620 West Broad Street,,Richmond,Virginia,23233,United States,,,,"Sunday 11:00 AM - 6:00 PM , Monday 10:00 AM - 9:00 PM , Tuesday 10:00 AM - 9:00 PM , Wednesday 10:00 AM - 9:00 PM , Thursday 10:00 AM - 9:00 PM , Friday 10:00 AM - 9:00 PM , Saturday 10:00 AM - 8:00 PM ",,,
Mattress Warehouse of Fayetteville,,1972 Skibo Road,,Fayetteville,North,28314,United States,,,,"Sunday 11:00 AM - 6:00 PM , Monday 10:00 AM - 9:00 PM , Tuesday 10:00 AM - 9:00 PM , Wednesday 10:00 AM - 9:00 PM , Thursday 10:00 AM - 9:00 PM , Friday 10:00 AM - 9:00 PM , Saturday 10:00 AM - 8:00 PM ",,,
Mattress Warehouse of Greenville,,116 SE Greenville Boulevard,,Greenville,North,27858,United States,,,,"Sunday 11:00 AM - 6:00 PM , Monday 10:00 AM - 9:00 PM , Tuesday 10:00 AM - 9:00 PM , Wednesday 10:00 AM - 9:00 PM , Thursday 10:00 AM - 9:00 PM , Friday 10:00 AM - 9:00 PM , Saturday 10:00 AM - 8:00 PM ",,,
Mattress Warehouse of Maple Shade,,490 South Lenola Road,,Maple Shade,New,08052,United States,,,,"Sunday 11:00 AM - 6:00 PM , Monday 10:00 AM - 9:00 PM , Tuesday 10:00 AM - 9:00 PM , Wednesday 10:00 AM - 9:00 PM , Thursday 10:00 AM - 9:00 PM , Friday 10:00 AM - 9:00 PM , Saturday 10:00 AM - 8:00 PM ",,,
Mattress Warehouse of Hagerstown Antietam,,93 Eastern Boulevard North,,Hagerstown,Maryland,21740,United States,,,,"Sunday 11:00 AM - 6:00 PM , Monday 10:00 AM - 9:00 PM , Tuesday 10:00 AM - 9:00 PM , Wednesday 10:00 AM - 9:00 PM , Thursday 10:00 AM - 9:00 PM , Friday 10:00 AM - 9:00 PM , Saturday 10:00 AM - 8:00 PM ",,,
Mattress Warehouse of Sterling Sugarland,,47118 Community Plaza,,Sterling,Virginia,20164,United States,,,,"Sunday 11:00 AM - 6:00 PM , Monday 10:00 AM - 9:00 PM , Tuesday 10:00 AM - 9:00 PM , Wednesday 10:00 AM - 9:00 PM , Thursday 10:00 AM - 9:00 PM , Friday 10:00 AM - 9:00 PM , Saturday 10:00 AM - 8:00 PM ",,,
Mattress Warehouse of York Maple Village,,970 Loucks Road,,York,Pennsylvania,17404,United States,,,,"Sunday 11:00 AM - 6:00 PM , Monday 10:00 AM - 9:00 PM , Tuesday 10:00 AM - 9:00 PM , Wednesday 10:00 AM - 9:00 PM , Thursday 10:00 AM - 9:00 PM , Friday 10:00 AM - 9:00 PM , Saturday 10:00 AM - 8:00 PM ",,,
Mattress Warehouse of Rockville Metro Pike,,11550 Rockville Pike,,Rockville,Maryland,20852,United States,,,,"Sunday 11:00 AM - 6:00 PM , Monday 10:00 AM - 9:00 PM , Tuesday 10:00 AM - 9:00 PM , Wednesday 10:00 AM - 9:00 PM , Thursday 10:00 AM - 9:00 PM , Friday 10:00 AM - 9:00 PM , Saturday 10:00 AM - 8:00 PM ",,,
Mattress Warehouse of Wilmington Kirkwood,,3624 Kirkwood Highway,,Wilmington,Delaware,19808,United States,,,,"Sunday 11:00 AM - 6:00 PM , Monday 10:00 AM - 9:00 PM , Tuesday 10:00 AM - 9:00 PM , Wednesday 10:00 AM - 9:00 PM , Thursday 10:00 AM - 9:00 PM , Friday 10:00 AM - 9:00 PM , Saturday 10:00 AM - 8:00 PM ",,,
Mattress Warehouse of Lynchburg Lakeside,,"3901 Old Forest Road, Suite C101",,Lynchburg,Virginia,24501,United States,,,,"Sunday 11:00 AM - 6:00 PM , Monday 10:00 AM - 9:00 PM , Tuesday 10:00 AM - 9:00 PM , Wednesday 10:00 AM - 9:00 PM , Thursday 10:00 AM - 9:00 PM , Friday 10:00 AM - 9:00 PM , Saturday 10:00 AM - 8:00 PM ",,,
Mattress Warehouse of Aberdeen Beards Hill,,931 Beards Hill Road,,Aberdeen,Maryland,21001,United States,,,,"Sunday 11:00 AM - 6:00 PM , Monday 10:00 AM - 9:00 PM , Tuesday 10:00 AM - 9:00 PM , Wednesday 10:00 AM - 9:00 PM , Thursday 10:00 AM - 9:00 PM , Friday 10:00 AM - 9:00 PM , Saturday 10:00 AM - 8:00 PM ",,,
Mattress Warehouse of York Galleria,,2915 Whiteford Road,,York,Pennsylvania,17402,United States,,,,"Sunday 11:00 AM - 6:00 PM , Monday 10:00 AM - 9:00 PM , Tuesday 10:00 AM - 9:00 PM , Wednesday 10:00 AM - 9:00 PM , Thursday 10:00 AM - 9:00 PM , Friday 10:00 AM - 9:00 PM , Saturday 10:00 AM - 8:00 PM ",,,
Mattress Warehouse of Greensburg Greengate,,5175 State Route 30,,Greensburg,Pennsylvania,15601,United States,,,,"Sunday 11:00 AM - 6:00 PM , Monday 10:00 AM - 9:00 PM , Tuesday 10:00 AM - 9:00 PM , Wednesday 10:00 AM - 9:00 PM , Thursday 10:00 AM - 9:00 PM , Friday 10:00 AM - 9:00 PM , Saturday 10:00 AM - 8:00 PM ",,,
Mattress Warehouse of Wyomissing,,1800 State Hill Road,,Wyomissing,Pennsylvania,19610,United States,,,,"Sunday 11:00 AM - 6:00 PM , Monday 10:00 AM - 9:00 PM , Tuesday 10:00 AM - 9:00 PM , Wednesday 10:00 AM - 9:00 PM , Thursday 10:00 AM - 9:00 PM , Friday 10:00 AM - 9:00 PM , Saturday 10:00 AM - 8:00 PM ",,,
Mattress Warehouse of Woodbridge,,14006 Jefferson Davis Highway,,Woodbridge,Virginia,22191,United States,,,,"Sunday 11:00 AM - 6:00 PM , Monday 10:00 AM - 9:00 PM , Tuesday 10:00 AM - 9:00 PM , Wednesday 10:00 AM - 9:00 PM , Thursday 10:00 AM - 9:00 PM , Friday 10:00 AM - 9:00 PM , Saturday 10:00 AM - 8:00 PM ",,,
Mattress Warehouse of Winchester Kernstown,,224 Kernstown Commons Boulevard #7A,,Winchester,Virginia,22602,United States,,,,"Sunday 11:00 AM - 6:00 PM , Monday 10:00 AM - 9:00 PM , Tuesday 10:00 AM - 9:00 PM , Wednesday 10:00 AM - 9:00 PM , Thursday 10:00 AM - 9:00 PM , Friday 10:00 AM - 9:00 PM , Saturday 10:00 AM - 8:00 PM ",,,
Mattress Warehouse of Wilmington Concord,,2302 Concord Pike,,Wilmington,Delaware,19803,United States,,,,"Sunday 11:00 AM - 6:00 PM , Monday 10:00 AM - 9:00 PM , Tuesday 10:00 AM - 9:00 PM , Wednesday 10:00 AM - 9:00 PM , Thursday 10:00 AM - 9:00 PM , Friday 10:00 AM - 9:00 PM , Saturday 10:00 AM - 8:00 PM ",,,
Mattress Warehouse of Williamsburg,,5547-A Richmond Road,,Williamsburg,Virginia,23188,United States,,,,"Sunday 11:00 AM - 6:00 PM , Monday 10:00 AM - 9:00 PM , Tuesday 10:00 AM - 9:00 PM , Wednesday 10:00 AM - 9:00 PM , Thursday 10:00 AM - 9:00 PM , Friday 10:00 AM - 9:00 PM , Saturday 10:00 AM - 8:00 PM ",,,
Mattress Warehouse of Wilkes Barre,,757 Kidder Street,,Wilkes Barre,Pennsylvania,18702,United States,,,,"Sunday 11:00 AM - 6:00 PM , Monday 10:00 AM - 9:00 PM , Tuesday 10:00 AM - 9:00 PM , Wednesday 10:00 AM - 9:00 PM , Thursday 10:00 AM - 9:00 PM , Friday 10:00 AM - 9:00 PM , Saturday 10:00 AM - 8:00 PM ",,,
Mattress Warehouse of Wheaton,,2704 University Boulevard West,,Wheaton,Maryland,20902,United States,,,,"Sunday 11:00 AM - 6:00 PM , Monday 10:00 AM - 9:00 PM , Tuesday 10:00 AM - 9:00 PM , Wednesday 10:00 AM - 9:00 PM , Thursday 10:00 AM - 9:00 PM , Friday 10:00 AM - 9:00 PM , Saturday 10:00 AM - 8:00 PM ",,,
Mattress Warehouse of Westminster,,625-D Baltimore Boulevard,,Westminster,Maryland,21157,United States,,,,"Sunday 11:00 AM - 6:00 PM , Monday 10:00 AM - 9:00 PM , Tuesday 10:00 AM - 9:00 PM , Wednesday 10:00 AM - 9:00 PM , Thursday 10:00 AM - 9:00 PM , Friday 10:00 AM - 9:00 PM , Saturday 10:00 AM - 8:00 PM ",,,
Mattress Warehouse of West Ocean City,,12909 Ocean Gateway #2,,Ocean City,Maryland,21842,United States,,,,"Sunday 11:00 AM - 6:00 PM , Monday 10:00 AM - 9:00 PM , Tuesday 10:00 AM - 9:00 PM , Wednesday 10:00 AM - 9:00 PM , Thursday 10:00 AM - 9:00 PM , Friday 10:00 AM - 9:00 PM , Saturday 10:00 AM - 8:00 PM ",,,
Mattress Warehouse of Washington DC Tenleytown,,4437-39 Wisconsin Avenue,,Washington,District,20016,United States,,,,"Sunday 11:00 AM - 6:00 PM , Monday 10:00 AM - 9:00 PM , Tuesday 10:00 AM - 9:00 PM , Wednesday 10:00 AM - 9:00 PM , Thursday 10:00 AM - 9:00 PM , Friday 10:00 AM - 9:00 PM , Saturday 10:00 AM - 8:00 PM ",,,
Mattress Warehouse of Warrenton,,310 Broadview Street,,Warrenton,Virginia,20186,United States,,,,"Sunday 11:00 AM - 6:00 PM , Monday 10:00 AM - 9:00 PM , Tuesday 10:00 AM - 9:00 PM , Wednesday 10:00 AM - 9:00 PM , Thursday 10:00 AM - 9:00 PM , Friday 10:00 AM - 9:00 PM , Saturday 10:00 AM - 8:00 PM ",,,
Mattress Warehouse of Winchester,,1869 South Pleasant Valley Road,,Winchester,Virginia,22601,United States,,,,"Sunday 11:00 AM - 6:00 PM , Monday 10:00 AM - 9:00 PM , Tuesday 10:00 AM - 9:00 PM , Wednesday 10:00 AM - 9:00 PM , Thursday 10:00 AM - 9:00 PM , Friday 10:00 AM - 9:00 PM , Saturday 10:00 AM - 8:00 PM ",,,
Mattress Warehouse of Waldorf,,3368 Crain Highway,,Waldorf,Maryland,20603,United States,,,,"Sunday 11:00 AM - 6:00 PM , Monday 10:00 AM - 9:00 PM , Tuesday 10:00 AM - 9:00 PM , Wednesday 10:00 AM - 9:00 PM , Thursday 10:00 AM - 9:00 PM , Friday 10:00 AM - 9:00 PM , Saturday 10:00 AM - 8:00 PM ",,,
Mattress Warehouse of Tamaqua,,"45 Plaza Drive, Route 309N",,Tamaqua,Pennsylvania,18252,United States,,,,"Sunday 11:00 AM - 6:00 PM , Monday 10:00 AM - 9:00 PM , Tuesday 10:00 AM - 9:00 PM , Wednesday 10:00 AM - 9:00 PM , Thursday 10:00 AM - 9:00 PM , Friday 10:00 AM - 9:00 PM , Saturday 10:00 AM - 8:00 PM ",,,
Mattress Warehouse of Swatara,,6301 Grayson Road Unit A170,,Harrisburg,Pennsylvania,17111,United States,,,,"Sunday 11:00 AM - 6:00 PM , Monday 10:00 AM - 9:00 PM , Tuesday 10:00 AM - 9:00 PM , Wednesday 10:00 AM - 9:00 PM , Thursday 10:00 AM - 9:00 PM , Friday 10:00 AM - 9:00 PM , Saturday 10:00 AM - 8:00 PM ",,,
Mattress Warehouse of Stone Ridge,,"42015 Village Center Plaza, Suite 145",,Stone Ridge,Virginia,20105,United States,,,,"Sunday 11:00 AM - 6:00 PM , Monday 10:00 AM - 9:00 PM , Tuesday 10:00 AM - 9:00 PM , Wednesday 10:00 AM - 9:00 PM , Thursday 10:00 AM - 9:00 PM , Friday 10:00 AM - 9:00 PM , Saturday 10:00 AM - 8:00 PM ",,,
Mattress Warehouse of Sterling,,"45591 Dulles Eastern Plaza, Suite 102",,Sterling,Virginia,20166,United States,,,,"Sunday 11:00 AM - 6:00 PM , Monday 10:00 AM - 9:00 PM , Tuesday 10:00 AM - 9:00 PM , Wednesday 10:00 AM - 9:00 PM , Thursday 10:00 AM - 9:00 PM , Friday 10:00 AM - 9:00 PM , Saturday 10:00 AM - 8:00 PM ",,,
Mattress Warehouse of Stafford,,"370 Garrisonville Road, Suite 10",,Stafford,Virginia,22554,United States,,,,"Sunday 11:00 AM - 6:00 PM , Monday 10:00 AM - 9:00 PM , Tuesday 10:00 AM - 9:00 PM , Wednesday 10:00 AM - 9:00 PM , Thursday 10:00 AM - 9:00 PM , Friday 10:00 AM - 9:00 PM , Saturday 10:00 AM - 8:00 PM ",,,
Mattress Warehouse of Springfield Square,,6400 Commerce Street,,Springfield,Virginia,22150,United States,,,,"Sunday 11:00 AM - 6:00 PM , Monday 10:00 AM - 9:00 PM , Tuesday 10:00 AM - 9:00 PM , Wednesday 10:00 AM - 9:00 PM , Thursday 10:00 AM - 9:00 PM , Friday 10:00 AM - 9:00 PM , Saturday 10:00 AM - 8:00 PM ",,,
Mattress Warehouse of Silver Spring Georgia Avenue,,8204 Georgia Avenue,,Silver Spring,Maryland,20910,United States,,,,"Sunday 11:00 AM - 6:00 PM , Monday 10:00 AM - 9:00 PM , Tuesday 10:00 AM - 9:00 PM , Wednesday 10:00 AM - 9:00 PM , Thursday 10:00 AM - 9:00 PM , Friday 10:00 AM - 9:00 PM , Saturday 10:00 AM - 8:00 PM ",,,
Mattress Warehouse of Silver Spring,,10165 New Hampshire Avenue,,Silver Spring,Maryland,20903,United States,,,,"Sunday 11:00 AM - 6:00 PM , Monday 10:00 AM - 9:00 PM , Tuesday 10:00 AM - 9:00 PM , Wednesday 10:00 AM - 9:00 PM , Thursday 10:00 AM - 9:00 PM , Friday 10:00 AM - 9:00 PM , Saturday 10:00 AM - 8:00 PM ",,,
Mattress Warehouse of Staunton,,"1209 Richmond Avenue, #102-104",,Staunton,Virginia,24401,United States,,,,"Sunday 11:00 AM - 6:00 PM , Monday 10:00 AM - 9:00 PM , Tuesday 10:00 AM - 9:00 PM , Wednesday 10:00 AM - 9:00 PM , Thursday 10:00 AM - 9:00 PM , Friday 10:00 AM - 9:00 PM , Saturday 10:00 AM - 8:00 PM ",,,
Mattress Warehouse of Shrewsbury,,"14645 Mt. Airy Road, Suite 200",,Shrewsbury,Pennsylvania,17361,United States,,,,"Sunday 11:00 AM - 6:00 PM , Monday 10:00 AM - 9:00 PM , Tuesday 10:00 AM - 9:00 PM , Wednesday 10:00 AM - 9:00 PM , Thursday 10:00 AM - 9:00 PM , Friday 10:00 AM - 9:00 PM , Saturday 10:00 AM - 8:00 PM ",,,
Mattress Warehouse of Taylor,,"1341 South Main Avenue, Unit 260",,Scranton,Pennsylvania,18504,United States,,,,"Sunday 11:00 AM - 6:00 PM , Monday 10:00 AM - 9:00 PM , Tuesday 10:00 AM - 9:00 PM , Wednesday 10:00 AM - 9:00 PM , Thursday 10:00 AM - 9:00 PM , Friday 10:00 AM - 9:00 PM , Saturday 10:00 AM - 8:00 PM ",,,
Mattress Warehouse of Salisbury Clairmont,,1016D South Salisbury Boulevard,,Salisbury,Maryland,21801,United States,,,,"Sunday 11:00 AM - 6:00 PM , Monday 10:00 AM - 9:00 PM , Tuesday 10:00 AM - 9:00 PM , Wednesday 10:00 AM - 9:00 PM , Thursday 10:00 AM - 9:00 PM , Friday 10:00 AM - 9:00 PM , Saturday 10:00 AM - 8:00 PM ",,,
Mattress Warehouse of Lord Salisbury,,"2639 North Salisbury Boulevard, Suite 110",,Salisbury,Maryland,21801,United States,,,,"Sunday 11:00 AM - 6:00 PM , Monday 10:00 AM - 9:00 PM , Tuesday 10:00 AM - 9:00 PM , Wednesday 10:00 AM - 9:00 PM , Thursday 10:00 AM - 9:00 PM , Friday 10:00 AM - 9:00 PM , Saturday 10:00 AM - 8:00 PM ",,,
Mattress Warehouse of Salem,,1415 West Main Street,,Salem,Virginia,24153,United States,,,,"Sunday 11:00 AM - 6:00 PM , Monday 10:00 AM - 9:00 PM , Tuesday 10:00 AM - 9:00 PM , Wednesday 10:00 AM - 9:00 PM , Thursday 10:00 AM - 9:00 PM , Friday 10:00 AM - 9:00 PM , Saturday 10:00 AM - 8:00 PM ",,,
Mattress Warehouse of Rockville,,12129 Rockville Pike,,Rockville,Maryland,20852,United States,,,,"Sunday 11:00 AM - 6:00 PM , Monday 10:00 AM - 9:00 PM , Tuesday 10:00 AM - 9:00 PM , Wednesday 10:00 AM - 9:00 PM , Thursday 10:00 AM - 9:00 PM , Friday 10:00 AM - 9:00 PM , Saturday 10:00 AM - 8:00 PM ",,,
Mattress Warehouse of Roanoke Valley View,,"4801 Valley View Boulevard, Suite E",,Roanoke,Virginia,24012,United States,,,,"Sunday 11:00 AM - 6:00 PM , Monday 10:00 AM - 9:00 PM , Tuesday 10:00 AM - 9:00 PM , Wednesday 10:00 AM - 9:00 PM , Thursday 10:00 AM - 9:00 PM , Friday 10:00 AM - 9:00 PM , Saturday 10:00 AM - 8:00 PM ",,,
Mattress Warehouse of Selinsgrove Monroe,,2236 North Susquehanna Trail,,Selinsgrove,Pennsylvania,17870,United States,,,,"Sunday 11:00 AM - 6:00 PM , Monday 10:00 AM - 9:00 PM , Tuesday 10:00 AM - 9:00 PM , Wednesday 10:00 AM - 9:00 PM , Thursday 10:00 AM - 9:00 PM , Friday 10:00 AM - 9:00 PM , Saturday 10:00 AM - 8:00 PM ",,,
Mattress Warehouse of Roanoke,,"1401 Towne Square Boulevard, NW",,Roanoke,Virginia,24012,United States,,,,"Sunday 11:00 AM - 6:00 PM , Monday 10:00 AM - 9:00 PM , Tuesday 10:00 AM - 9:00 PM , Wednesday 10:00 AM - 9:00 PM , Thursday 10:00 AM - 9:00 PM , Friday 10:00 AM - 9:00 PM , Saturday 10:00 AM - 8:00 PM ",,,
Mattress Warehouse of Towne Plaza,,11411 Midlothian Turnpike,,Richmond,Virginia,23235,United States,,,,"Sunday 11:00 AM - 6:00 PM , Monday 10:00 AM - 9:00 PM , Tuesday 10:00 AM - 9:00 PM , Wednesday 10:00 AM - 9:00 PM , Thursday 10:00 AM - 9:00 PM , Friday 10:00 AM - 9:00 PM , Saturday 10:00 AM - 8:00 PM ",,,
Mattress Warehouse of Richmond,,9410 West Broad Street,,Richmond,Virginia,23294,United States,,,,"Sunday 11:00 AM - 6:00 PM , Monday 10:00 AM - 9:00 PM , Tuesday 10:00 AM - 9:00 PM , Wednesday 10:00 AM - 9:00 PM , Thursday 10:00 AM - 9:00 PM , Friday 10:00 AM - 9:00 PM , Saturday 10:00 AM - 8:00 PM ",,,
Mattress Warehouse of Reading,,3225 N 5th Street Highway,,Reading,Pennsylvania,19605,United States,,,,"Sunday 11:00 AM - 6:00 PM , Monday 10:00 AM - 9:00 PM , Tuesday 10:00 AM - 9:00 PM , Wednesday 10:00 AM - 9:00 PM , Thursday 10:00 AM - 9:00 PM , Friday 10:00 AM - 9:00 PM , Saturday 10:00 AM - 8:00 PM ",,,
Mattress Warehouse of Ranson,,"38 Joshua M Freeman Boulevard, Suite 106",,Ranson,West,25438,United States,,,,"Sunday 11:00 AM - 6:00 PM , Monday 10:00 AM - 9:00 PM , Tuesday 10:00 AM - 9:00 PM , Wednesday 10:00 AM - 9:00 PM , Thursday 10:00 AM - 9:00 PM , Friday 10:00 AM - 9:00 PM , Saturday 10:00 AM - 8:00 PM ",,,
Mattress Warehouse of Raleigh Glenwood,,7201 Glenwood Avenew,,Raleigh,North,27612,United States,,,,"Sunday 11:00 AM - 6:00 PM , Monday 10:00 AM - 9:00 PM , Tuesday 10:00 AM - 9:00 PM , Wednesday 10:00 AM - 9:00 PM , Thursday 10:00 AM - 9:00 PM , Friday 10:00 AM - 9:00 PM , Saturday 10:00 AM - 8:00 PM ",,,
Mattress Warehouse of Broad Street,,7482 West Broad Street,,Richmond,Virginia,23294,United States,,,,"Sunday 11:00 AM - 6:00 PM , Monday 10:00 AM - 9:00 PM , Tuesday 10:00 AM - 9:00 PM , Wednesday 10:00 AM - 9:00 PM , Thursday 10:00 AM - 9:00 PM , Friday 10:00 AM - 9:00 PM , Saturday 10:00 AM - 8:00 PM ",,,
Mattress Warehouse of Prince Frederick,,"721 Prince Frederick Boulevard, North",,Prince Frederick,Maryland,20678,United States,,,,"Sunday 11:00 AM - 6:00 PM , Monday 10:00 AM - 9:00 PM , Tuesday 10:00 AM - 9:00 PM , Wednesday 10:00 AM - 9:00 PM , Thursday 10:00 AM - 9:00 PM , Friday 10:00 AM - 9:00 PM , Saturday 10:00 AM - 8:00 PM ",,,
Mattress Warehouse of Potomac Mills,,2800 Prince William Parkway,,Woodbridge,Virginia,22192,United States,,,,"Sunday 11:00 AM - 6:00 PM , Monday 10:00 AM - 9:00 PM , Tuesday 10:00 AM - 9:00 PM , Wednesday 10:00 AM - 9:00 PM , Thursday 10:00 AM - 9:00 PM , Friday 10:00 AM - 9:00 PM , Saturday 10:00 AM - 8:00 PM ",,,
Mattress Warehouse of Owings Mills,,11130 Reisterstown Road,,Owings Mills,Maryland,21117,United States,,,,"Sunday 11:00 AM - 6:00 PM , Monday 10:00 AM - 9:00 PM , Tuesday 10:00 AM - 9:00 PM , Wednesday 10:00 AM - 9:00 PM , Thursday 10:00 AM - 9:00 PM , Friday 10:00 AM - 9:00 PM , Saturday 10:00 AM - 8:00 PM ",,,
Mattress Warehouse of Olney,,18050 Georgia Avenue,,Olney,Maryland,20832,United States,,,,"Sunday 11:00 AM - 6:00 PM , Monday 10:00 AM - 9:00 PM , Tuesday 10:00 AM - 9:00 PM , Wednesday 10:00 AM - 9:00 PM , Thursday 10:00 AM - 9:00 PM , Friday 10:00 AM - 9:00 PM , Saturday 10:00 AM - 8:00 PM ",,,
Mattress Warehouse of Norwalk,,445 Benner Pike,,State College,Pennsylvania,16801,United States,,,,"Sunday 11:00 AM - 6:00 PM , Monday 10:00 AM - 9:00 PM , Tuesday 10:00 AM - 9:00 PM , Wednesday 10:00 AM - 9:00 PM , Thursday 10:00 AM - 9:00 PM , Friday 10:00 AM - 9:00 PM , Saturday 10:00 AM - 8:00 PM ",,,
Mattress Warehouse of North Potomac,,9701 Traville Gateway Drive,,Rockville,Maryland,20850,United States,,,,"Sunday 11:00 AM - 6:00 PM , Monday 10:00 AM - 9:00 PM , Tuesday 10:00 AM - 9:00 PM , Wednesday 10:00 AM - 9:00 PM , Thursday 10:00 AM - 9:00 PM , Friday 10:00 AM - 9:00 PM , Saturday 10:00 AM - 8:00 PM ",,,
Mattress Warehouse of North East,,506 North East Plaza,,North East,Maryland,21901,United States,,,,"Sunday 11:00 AM - 6:00 PM , Monday 10:00 AM - 9:00 PM , Tuesday 10:00 AM - 9:00 PM , Wednesday 10:00 AM - 9:00 PM , Thursday 10:00 AM - 9:00 PM , Friday 10:00 AM - 9:00 PM , Saturday 10:00 AM - 8:00 PM ",,,
Mattress Warehouse of North Atherton,,1803 North Atherton Street,,State College,Pennsylvania,16803,United States,,,,"Sunday 11:00 AM - 6:00 PM , Monday 10:00 AM - 9:00 PM , Tuesday 10:00 AM - 9:00 PM , Wednesday 10:00 AM - 9:00 PM , Thursday 10:00 AM - 9:00 PM , Friday 10:00 AM - 9:00 PM , Saturday 10:00 AM - 8:00 PM ",,,
Mattress Warehouse of Newark,,1245 Churchmans Road,,Newark,Delaware,19713,United States,,,,"Sunday 11:00 AM - 6:00 PM , Monday 10:00 AM - 9:00 PM , Tuesday 10:00 AM - 9:00 PM , Wednesday 10:00 AM - 9:00 PM , Thursday 10:00 AM - 9:00 PM , Friday 10:00 AM - 9:00 PM , Saturday 10:00 AM - 8:00 PM ",,,
Mattress Warehouse of Raleigh Brier Creek,,"8511 Brier Creek Parkway, Suite 107",,Raleigh,North,27617,United States,,,,"Sunday 11:00 AM - 6:00 PM , Monday 10:00 AM - 9:00 PM , Tuesday 10:00 AM - 9:00 PM , Wednesday 10:00 AM - 9:00 PM , Thursday 10:00 AM - 9:00 PM , Friday 10:00 AM - 9:00 PM , Saturday 10:00 AM - 8:00 PM ",,,
Mattress Warehouse of Springfield Old Keene Mill,,8414 C Old Keene Mill Road #12B,,Springfield,Virginia,22152,United States,,,,"Sunday 11:00 AM - 6:00 PM , Monday 10:00 AM - 9:00 PM , Tuesday 10:00 AM - 9:00 PM , Wednesday 10:00 AM - 9:00 PM , Thursday 10:00 AM - 9:00 PM , Friday 10:00 AM - 9:00 PM , Saturday 10:00 AM - 8:00 PM ",,,
Mattress Warehouse of Montgomery Mall,,7101 Democracy Boulevard #2162,,Bethesda,Maryland,20817,United States,,,,"Sunday 11:00 AM - 6:00 PM , Monday 10:00 AM - 9:00 PM , Tuesday 10:00 AM - 9:00 PM , Wednesday 10:00 AM - 9:00 PM , Thursday 10:00 AM - 9:00 PM , Friday 10:00 AM - 9:00 PM , Saturday 10:00 AM - 8:00 PM ",,,
Mattress Warehouse of Millville,,"38069 Town Center Drive, Unit 16",,Millville,Delaware,19967,United States,,,,"Sunday 11:00 AM - 6:00 PM , Monday 10:00 AM - 9:00 PM , Tuesday 10:00 AM - 9:00 PM , Wednesday 10:00 AM - 9:00 PM , Thursday 10:00 AM - 9:00 PM , Friday 10:00 AM - 9:00 PM , Saturday 10:00 AM - 8:00 PM ",,,
Mattress Warehouse of Mechanicsville,,"7225 Bell Creek Road, Suite 200",,Mechanicsville,Virginia,23111,United States,,,,"Sunday 11:00 AM - 6:00 PM , Monday 10:00 AM - 9:00 PM , Tuesday 10:00 AM - 9:00 PM , Wednesday 10:00 AM - 9:00 PM , Thursday 10:00 AM - 9:00 PM , Friday 10:00 AM - 9:00 PM , Saturday 10:00 AM - 8:00 PM ",,,
Mattress Warehouse of Mechanicsburg,,5515 Carlisle Pike,,Mechanicsburg,Pennsylvania,17055,United States,,,,"Sunday 11:00 AM - 6:00 PM , Monday 10:00 AM - 9:00 PM , Tuesday 10:00 AM - 9:00 PM , Wednesday 10:00 AM - 9:00 PM , Thursday 10:00 AM - 9:00 PM , Friday 10:00 AM - 9:00 PM , Saturday 10:00 AM - 8:00 PM ",,,
Mattress Warehouse of Manassas Signal Hill,,9654 Liberia Avenue,,Manassas,Virginia,20110,United States,,,,"Sunday 11:00 AM - 6:00 PM , Monday 10:00 AM - 9:00 PM , Tuesday 10:00 AM - 9:00 PM , Wednesday 10:00 AM - 9:00 PM , Thursday 10:00 AM - 9:00 PM , Friday 10:00 AM - 9:00 PM , Saturday 10:00 AM - 8:00 PM ",,,
Mattress Warehouse of McLean Tyson's Corner,,1986 Chain Bridge Road,,McLean,Virginia,22102,United States,,,,"Sunday 11:00 AM - 6:00 PM , Monday 10:00 AM - 9:00 PM , Tuesday 10:00 AM - 9:00 PM , Wednesday 10:00 AM - 9:00 PM , Thursday 10:00 AM - 9:00 PM , Friday 10:00 AM - 9:00 PM , Saturday 10:00 AM - 8:00 PM ",,,
Mattress Warehouse of Martinsville,,237 Commonwealth Boulevard,,Martinsville,Virginia,24112,United States,,,,"Sunday 11:00 AM - 6:00 PM , Monday 10:00 AM - 9:00 PM , Tuesday 10:00 AM - 9:00 PM , Wednesday 10:00 AM - 9:00 PM , Thursday 10:00 AM - 9:00 PM , Friday 10:00 AM - 9:00 PM , Saturday 10:00 AM - 8:00 PM ",,,
Mattress Warehouse of Manassas,,8376 Sudley Road,,Manassas,Virginia,20109,United States,,,,"Sunday 11:00 AM - 6:00 PM , Monday 10:00 AM - 9:00 PM , Tuesday 10:00 AM - 9:00 PM , Wednesday 10:00 AM - 9:00 PM , Thursday 10:00 AM - 9:00 PM , Friday 10:00 AM - 9:00 PM , Saturday 10:00 AM - 8:00 PM ",,,
Mattress Warehouse of Lynchburg,,3920-A Wards Road,,Lynchburg,Virginia,24502,United States,,,,"Sunday 11:00 AM - 6:00 PM , Monday 10:00 AM - 9:00 PM , Tuesday 10:00 AM - 9:00 PM , Wednesday 10:00 AM - 9:00 PM , Thursday 10:00 AM - 9:00 PM , Friday 10:00 AM - 9:00 PM , Saturday 10:00 AM - 8:00 PM ",,,
Mattress Warehouse of Lexington Park,,"23105 Three Notch Road, Suite B",,California,Maryland,20619,United States,,,,"Sunday 11:00 AM - 6:00 PM , Monday 10:00 AM - 9:00 PM , Tuesday 10:00 AM - 9:00 PM , Wednesday 10:00 AM - 9:00 PM , Thursday 10:00 AM - 9:00 PM , Friday 10:00 AM - 9:00 PM , Saturday 10:00 AM - 8:00 PM ",,,
Mattress Warehouse of Rosedale Golden Ring,,"8640 Pulaski Highway, #119",,Rosedale,Maryland,21237,United States,,,,"Sunday 11:00 AM - 6:00 PM , Monday 10:00 AM - 9:00 PM , Tuesday 10:00 AM - 9:00 PM , Wednesday 10:00 AM - 9:00 PM , Thursday 10:00 AM - 9:00 PM , Friday 10:00 AM - 9:00 PM , Saturday 10:00 AM - 8:00 PM ",,,
Mattress Warehouse of Leesburg Fort Evans,,530-A Fort Evans Road,,Leesburg,Virginia,20176,United States,,,,"Sunday 11:00 AM - 6:00 PM , Monday 10:00 AM - 9:00 PM , Tuesday 10:00 AM - 9:00 PM , Wednesday 10:00 AM - 9:00 PM , Thursday 10:00 AM - 9:00 PM , Friday 10:00 AM - 9:00 PM , Saturday 10:00 AM - 8:00 PM ",,,
Mattress Warehouse of Largo Capital Centre,,"801 Capital Centre Boulevard, Unit G",,Landover,Maryland,20785,United States,,,,"Sunday 11:00 AM - 6:00 PM , Monday 10:00 AM - 9:00 PM , Tuesday 10:00 AM - 9:00 PM , Wednesday 10:00 AM - 9:00 PM , Thursday 10:00 AM - 9:00 PM , Friday 10:00 AM - 9:00 PM , Saturday 10:00 AM - 8:00 PM ",,,
Mattress Warehouse of La Plata,,38 Shining Willow Way,,La Plata,Maryland,20646,United States,,,,"Sunday 11:00 AM - 6:00 PM , Monday 10:00 AM - 9:00 PM , Tuesday 10:00 AM - 9:00 PM , Wednesday 10:00 AM - 9:00 PM , Thursday 10:00 AM - 9:00 PM , Friday 10:00 AM - 9:00 PM , Saturday 10:00 AM - 8:00 PM ",,,
Mattress Warehouse of Hyattsville,,"1425 University Boulevard, Suite 101",,Langley Park,Maryland,20783,United States,,,,"Sunday 11:00 AM - 6:00 PM , Monday 10:00 AM - 9:00 PM , Tuesday 10:00 AM - 9:00 PM , Wednesday 10:00 AM - 9:00 PM , Thursday 10:00 AM - 9:00 PM , Friday 10:00 AM - 9:00 PM , Saturday 10:00 AM - 8:00 PM ",,,
Mattress Warehouse of Lancaster East Lampeter,,2335 Lincoln Highway East,,Lancaster,Pennsylvania,17602,United States,,,,"Sunday 11:00 AM - 6:00 PM , Monday 10:00 AM - 9:00 PM , Tuesday 10:00 AM - 9:00 PM , Wednesday 10:00 AM - 9:00 PM , Thursday 10:00 AM - 9:00 PM , Friday 10:00 AM - 9:00 PM , Saturday 10:00 AM - 8:00 PM ",,,
Mattress Warehouse of Knightdale,,1002-A Shoppes at Midway Drive,,Knightdale,North,27545,United States,,,,"Sunday 11:00 AM - 6:00 PM , Monday 10:00 AM - 9:00 PM , Tuesday 10:00 AM - 9:00 PM , Wednesday 10:00 AM - 9:00 PM , Thursday 10:00 AM - 9:00 PM , Friday 10:00 AM - 9:00 PM , Saturday 10:00 AM - 8:00 PM ",,,
Mattress Warehouse of Indiana,,"2125 Oakland Avenue, Unit 40",,Indiana,Pennsylvania,15701,United States,,,,"Sunday 11:00 AM - 6:00 PM , Monday 10:00 AM - 9:00 PM , Tuesday 10:00 AM - 9:00 PM , Wednesday 10:00 AM - 9:00 PM , Thursday 10:00 AM - 9:00 PM , Friday 10:00 AM - 9:00 PM , Saturday 10:00 AM - 8:00 PM ",,,
Mattress Warehouse of Lancaster,,1691 Oregon Pike,,Lancaster,Pennsylvania,17601,United States,,,,"Sunday 11:00 AM - 6:00 PM , Monday 10:00 AM - 9:00 PM , Tuesday 10:00 AM - 9:00 PM , Wednesday 10:00 AM - 9:00 PM , Thursday 10:00 AM - 9:00 PM , Friday 10:00 AM - 9:00 PM , Saturday 10:00 AM - 8:00 PM ",,,
Mattress Warehouse of Herndon,,491 Elden Street,,Herdon,Virginia,20170,United States,,,,"Sunday 11:00 AM - 6:00 PM , Monday 10:00 AM - 9:00 PM , Tuesday 10:00 AM - 9:00 PM , Wednesday 10:00 AM - 9:00 PM , Thursday 10:00 AM - 9:00 PM , Friday 10:00 AM - 9:00 PM , Saturday 10:00 AM - 8:00 PM ",,,
Mattress Warehouse of Harrisonburg,,1756 East Market Street,,Harrisonburg,Virginia,22801,United States,,,,"Sunday 11:00 AM - 6:00 PM , Monday 10:00 AM - 9:00 PM , Tuesday 10:00 AM - 9:00 PM , Wednesday 10:00 AM - 9:00 PM , Thursday 10:00 AM - 9:00 PM , Friday 10:00 AM - 9:00 PM , Saturday 10:00 AM - 8:00 PM ",,,
Mattress Warehouse of Harrisburg Scottsdale,,3350-A Paxton Street,,Harrisburg,Pennsylvania,17111,United States,,,,"Sunday 11:00 AM - 6:00 PM , Monday 10:00 AM - 9:00 PM , Tuesday 10:00 AM - 9:00 PM , Wednesday 10:00 AM - 9:00 PM , Thursday 10:00 AM - 9:00 PM , Friday 10:00 AM - 9:00 PM , Saturday 10:00 AM - 8:00 PM ",,,
Mattress Warehouse of Harrisburg,,4637-B Jonestown Road,,Harrisburg,Pennsylvania,17109,United States,,,,"Sunday 11:00 AM - 6:00 PM , Monday 10:00 AM - 9:00 PM , Tuesday 10:00 AM - 9:00 PM , Wednesday 10:00 AM - 9:00 PM , Thursday 10:00 AM - 9:00 PM , Friday 10:00 AM - 9:00 PM , Saturday 10:00 AM - 8:00 PM ",,,
Mattress Warehouse of Hanover Arundel Mills,,7659 Arundel Mills Boulevard,,Hanover,Maryland,21076,United States,,,,"Sunday 11:00 AM - 6:00 PM , Monday 10:00 AM - 9:00 PM , Tuesday 10:00 AM - 9:00 PM , Wednesday 10:00 AM - 9:00 PM , Thursday 10:00 AM - 9:00 PM , Friday 10:00 AM - 9:00 PM , Saturday 10:00 AM - 8:00 PM ",,,
Mattress Warehouse of Johnstown,,117 Town Centre Drive,,Johnstown,Pennsylvania,15904,United States,,,,"Sunday 11:00 AM - 6:00 PM , Monday 10:00 AM - 9:00 PM , Tuesday 10:00 AM - 9:00 PM , Wednesday 10:00 AM - 9:00 PM , Thursday 10:00 AM - 9:00 PM , Friday 10:00 AM - 9:00 PM , Saturday 10:00 AM - 8:00 PM ",,,
Mattress Warehouse of Hanover,,434 Eisenhower Drive,,Hanover,Pennsylvania,17331,United States,,,,"Sunday 11:00 AM - 6:00 PM , Monday 10:00 AM - 9:00 PM , Tuesday 10:00 AM - 9:00 PM , Wednesday 10:00 AM - 9:00 PM , Thursday 10:00 AM - 9:00 PM , Friday 10:00 AM - 9:00 PM , Saturday 10:00 AM - 8:00 PM ",,,
Mattress Warehouse of Hancock,,7301 Hancock Village Drive,,Chesterfield,Virginia,23832,United States,,,,"Sunday 11:00 AM - 6:00 PM , Monday 10:00 AM - 9:00 PM , Tuesday 10:00 AM - 9:00 PM , Wednesday 10:00 AM - 9:00 PM , Thursday 10:00 AM - 9:00 PM , Friday 10:00 AM - 9:00 PM , Saturday 10:00 AM - 8:00 PM ",,,
Mattress Warehouse of Hagerstown Hollyhock,,18011 Garland Groh Boulevard,,Hagerstown,Maryland,21740,United States,,,,"Sunday 11:00 AM - 6:00 PM , Monday 10:00 AM - 9:00 PM , Tuesday 10:00 AM - 9:00 PM , Wednesday 10:00 AM - 9:00 PM , Thursday 10:00 AM - 9:00 PM , Friday 10:00 AM - 9:00 PM , Saturday 10:00 AM - 8:00 PM ",,,
Mattress Warehouse of Hagerstown,,17301 Valley Mall Road,,Hagerstown,Maryland,21740,United States,,,,"Sunday 11:00 AM - 6:00 PM , Monday 10:00 AM - 9:00 PM , Tuesday 10:00 AM - 9:00 PM , Wednesday 10:00 AM - 9:00 PM , Thursday 10:00 AM - 9:00 PM , Friday 10:00 AM - 9:00 PM , Saturday 10:00 AM - 8:00 PM ",,,
Mattress Warehouse of Greensburg,,"6225 State Route 30, Hempfield Plaza",,Greensburg,Pennsylvania,15601,United States,,,,"Sunday 11:00 AM - 6:00 PM , Monday 10:00 AM - 9:00 PM , Tuesday 10:00 AM - 9:00 PM , Wednesday 10:00 AM - 9:00 PM , Thursday 10:00 AM - 9:00 PM , Friday 10:00 AM - 9:00 PM , Saturday 10:00 AM - 8:00 PM ",,,
Mattress Warehouse of Greensboro Westover,,1410 Westover Terrace #102,,Greensboro,North,27408,United States,,,,"Sunday 11:00 AM - 6:00 PM , Monday 10:00 AM - 9:00 PM , Tuesday 10:00 AM - 9:00 PM , Wednesday 10:00 AM - 9:00 PM , Thursday 10:00 AM - 9:00 PM , Friday 10:00 AM - 9:00 PM , Saturday 10:00 AM - 8:00 PM ",,,
Mattress Warehouse of Greenbelt,,5506D Cherrywood Lane,,Greenbelt,Maryland,20770,United States,,,,"Sunday 11:00 AM - 6:00 PM , Monday 10:00 AM - 9:00 PM , Tuesday 10:00 AM - 9:00 PM , Wednesday 10:00 AM - 9:00 PM , Thursday 10:00 AM - 9:00 PM , Friday 10:00 AM - 9:00 PM , Saturday 10:00 AM - 8:00 PM ",,,
Mattress Warehouse of Gloucester,,6709 Fox Centre Parkway,,Gloucester,Virginia,23061,United States,,,,"Sunday 11:00 AM - 6:00 PM , Monday 10:00 AM - 9:00 PM , Tuesday 10:00 AM - 9:00 PM , Wednesday 10:00 AM - 9:00 PM , Thursday 10:00 AM - 9:00 PM , Friday 10:00 AM - 9:00 PM , Saturday 10:00 AM - 8:00 PM ",,,
Mattress Warehouse of Glen Burnie,,6711-A Governor Ritchie Highway,,Glen Burnie,Maryland,21061,United States,,,,"Sunday 11:00 AM - 6:00 PM , Monday 10:00 AM - 9:00 PM , Tuesday 10:00 AM - 9:00 PM , Wednesday 10:00 AM - 9:00 PM , Thursday 10:00 AM - 9:00 PM , Friday 10:00 AM - 9:00 PM , Saturday 10:00 AM - 8:00 PM ",,,
Mattress Warehouse of Glen Allen Short Pump,,"11331 West Broad Street, Suite 121",,Glen Allen,Virginia,23060,United States,,,,"Sunday 11:00 AM - 6:00 PM , Monday 10:00 AM - 9:00 PM , Tuesday 10:00 AM - 9:00 PM , Wednesday 10:00 AM - 9:00 PM , Thursday 10:00 AM - 9:00 PM , Friday 10:00 AM - 9:00 PM , Saturday 10:00 AM - 8:00 PM ",,,
Mattress Warehouse of Glen Allen,,9935 Brook Road,,Glen Allen,Virginia,23059,United States,,,,"Sunday 11:00 AM - 6:00 PM , Monday 10:00 AM - 9:00 PM , Tuesday 10:00 AM - 9:00 PM , Wednesday 10:00 AM - 9:00 PM , Thursday 10:00 AM - 9:00 PM , Friday 10:00 AM - 9:00 PM , Saturday 10:00 AM - 8:00 PM ",,,
Mattress Warehouse of Gettysburg,,35C Camp Letterman Drive,,Gettysburg,Pennsylvania,17325,United States,,,,"Sunday 11:00 AM - 6:00 PM , Monday 10:00 AM - 9:00 PM , Tuesday 10:00 AM - 9:00 PM , Wednesday 10:00 AM - 9:00 PM , Thursday 10:00 AM - 9:00 PM , Friday 10:00 AM - 9:00 PM , Saturday 10:00 AM - 8:00 PM ",,,
Mattress Warehouse of Garner,,"1167 Timber Drive East, Garner",,Garner,North,27529,United States,,,,"Sunday 11:00 AM - 6:00 PM , Monday 10:00 AM - 9:00 PM , Tuesday 10:00 AM - 9:00 PM , Wednesday 10:00 AM - 9:00 PM , Thursday 10:00 AM - 9:00 PM , Friday 10:00 AM - 9:00 PM , Saturday 10:00 AM - 8:00 PM ",,,
Mattress Warehouse of Gambrills Crofton,,2612 Brandermill Boulevard,,Gambrills,Maryland,21054,United States,,,,"Sunday 11:00 AM - 6:00 PM , Monday 10:00 AM - 9:00 PM , Tuesday 10:00 AM - 9:00 PM , Wednesday 10:00 AM - 9:00 PM , Thursday 10:00 AM - 9:00 PM , Friday 10:00 AM - 9:00 PM , Saturday 10:00 AM - 8:00 PM ",,,
Mattress Warehouse of Gaithersburg Kentlands,,178 Kentlands Boulevard,,Gaithersburg,Maryland,20878,United States,,,,"Sunday 11:00 AM - 6:00 PM , Monday 10:00 AM - 9:00 PM , Tuesday 10:00 AM - 9:00 PM , Wednesday 10:00 AM - 9:00 PM , Thursday 10:00 AM - 9:00 PM , Friday 10:00 AM - 9:00 PM , Saturday 10:00 AM - 8:00 PM ",,,
Mattress Warehouse of Gaithersburg,,451 North Frederick Avenue,,Gaithersburg,Maryland,20877,United States,,,,"Sunday 11:00 AM - 6:00 PM , Monday 10:00 AM - 9:00 PM , Tuesday 10:00 AM - 9:00 PM , Wednesday 10:00 AM - 9:00 PM , Thursday 10:00 AM - 9:00 PM , Friday 10:00 AM - 9:00 PM , Saturday 10:00 AM - 8:00 PM ",,,
Mattress Warehouse of Gainesville,,5131 Wellington Road,,Gainesville,Virginia,20155,United States,,,,"Sunday 11:00 AM - 6:00 PM , Monday 10:00 AM - 9:00 PM , Tuesday 10:00 AM - 9:00 PM , Wednesday 10:00 AM - 9:00 PM , Thursday 10:00 AM - 9:00 PM , Friday 10:00 AM - 9:00 PM , Saturday 10:00 AM - 8:00 PM ",,,
Mattress Warehouse of Front Royal,,"50 Riverton Commons Drive, Suite 100",,Front Royal,Virginia,22630,United States,,,,"Sunday 11:00 AM - 6:00 PM , Monday 10:00 AM - 9:00 PM , Tuesday 10:00 AM - 9:00 PM , Wednesday 10:00 AM - 9:00 PM , Thursday 10:00 AM - 9:00 PM , Friday 10:00 AM - 9:00 PM , Saturday 10:00 AM - 8:00 PM ",,,
Mattress Warehouse of Fredericksburg Cosner's Corner,,10119 Jefferson Davis Highway,,Fredericksburg,Virginia,22408,United States,,,,"Sunday 11:00 AM - 6:00 PM , Monday 10:00 AM - 9:00 PM , Tuesday 10:00 AM - 9:00 PM , Wednesday 10:00 AM - 9:00 PM , Thursday 10:00 AM - 9:00 PM , Friday 10:00 AM - 9:00 PM , Saturday 10:00 AM - 8:00 PM ",,,
Mattress Warehouse of Fredericksburg Chancellorsville,,5723 Plank Road,,Fredericksburg,Virginia,22407,United States,,,,"Sunday 11:00 AM - 6:00 PM , Monday 10:00 AM - 9:00 PM , Tuesday 10:00 AM - 9:00 PM , Wednesday 10:00 AM - 9:00 PM , Thursday 10:00 AM - 9:00 PM , Friday 10:00 AM - 9:00 PM , Saturday 10:00 AM - 8:00 PM ",,,
Mattress Warehouse of Fredericksburg,,1242 Carl D. Silver Parkway,,Fredericksburg,Virginia,22401,United States,,,,"Sunday 11:00 AM - 6:00 PM , Monday 10:00 AM - 9:00 PM , Tuesday 10:00 AM - 9:00 PM , Wednesday 10:00 AM - 9:00 PM , Thursday 10:00 AM - 9:00 PM , Friday 10:00 AM - 9:00 PM , Saturday 10:00 AM - 8:00 PM ",,,
Mattress Warehouse of Frederick Grove Road,,7315 Grove Road,,Frederick,Maryland,21704,United States,,,,"Sunday 11:00 AM - 6:00 PM , Monday 10:00 AM - 9:00 PM , Tuesday 10:00 AM - 9:00 PM , Wednesday 10:00 AM - 9:00 PM , Thursday 10:00 AM - 9:00 PM , Friday 10:00 AM - 9:00 PM , Saturday 10:00 AM - 8:00 PM ",,,
Mattress Warehouse of Christianburg Franklin,,2435 North Franklin Street,,Christiansburg,Virginia,24073,United States,,,,"Sunday 11:00 AM - 6:00 PM , Monday 10:00 AM - 9:00 PM , Tuesday 10:00 AM - 9:00 PM , Wednesday 10:00 AM - 9:00 PM , Thursday 10:00 AM - 9:00 PM , Friday 10:00 AM - 9:00 PM , Saturday 10:00 AM - 8:00 PM ",,,
Mattress Warehouse of Falls Church Seven Corners,,6381 Seven Corners Center,,Falls Church,Virginia,22044,United States,,,,"Sunday 11:00 AM - 6:00 PM , Monday 10:00 AM - 9:00 PM , Tuesday 10:00 AM - 9:00 PM , Wednesday 10:00 AM - 9:00 PM , Thursday 10:00 AM - 9:00 PM , Friday 10:00 AM - 9:00 PM , Saturday 10:00 AM - 8:00 PM ",,,
Mattress Warehouse of Fairfax Costco,,"12300 Price Club Plaza Drive, Suite B2",,Fairfax,Virginia,22030,United States,,,,"Sunday 11:00 AM - 6:00 PM , Monday 10:00 AM - 9:00 PM , Tuesday 10:00 AM - 9:00 PM , Wednesday 10:00 AM - 9:00 PM , Thursday 10:00 AM - 9:00 PM , Friday 10:00 AM - 9:00 PM , Saturday 10:00 AM - 8:00 PM ",,,
Mattress Warehouse of Fairfax,,11002 Lee Highway,,Fairfax,Virginia,22030,United States,,,,"Sunday 11:00 AM - 6:00 PM , Monday 10:00 AM - 9:00 PM , Tuesday 10:00 AM - 9:00 PM , Wednesday 10:00 AM - 9:00 PM , Thursday 10:00 AM - 9:00 PM , Friday 10:00 AM - 9:00 PM , Saturday 10:00 AM - 8:00 PM ",,,
Mattress Warehouse of Fairfax Turnpike,,9502 Main Street,,Fairfax,Virginia,22031,United States,,,,"Sunday 11:00 AM - 6:00 PM , Monday 10:00 AM - 9:00 PM , Tuesday 10:00 AM - 9:00 PM , Wednesday 10:00 AM - 9:00 PM , Thursday 10:00 AM - 9:00 PM , Friday 10:00 AM - 9:00 PM , Saturday 10:00 AM - 8:00 PM ",,,
Mattress Warehouse of Eldersburg,,1716 Liberty Road,,Eldersburg,Maryland,21784,United States,,,,"Sunday 11:00 AM - 6:00 PM , Monday 10:00 AM - 9:00 PM , Tuesday 10:00 AM - 9:00 PM , Wednesday 10:00 AM - 9:00 PM , Thursday 10:00 AM - 9:00 PM , Friday 10:00 AM - 9:00 PM , Saturday 10:00 AM - 8:00 PM ",,,
Mattress Warehouse of Edgewater,,3059 Solomons Island Road,,Edgewater,Maryland,21037,United States,,,,"Sunday 11:00 AM - 6:00 PM , Monday 10:00 AM - 9:00 PM , Tuesday 10:00 AM - 9:00 PM , Wednesday 10:00 AM - 9:00 PM , Thursday 10:00 AM - 9:00 PM , Friday 10:00 AM - 9:00 PM , Saturday 10:00 AM - 8:00 PM ",,,
Mattress Warehouse of Easton Ocean Gateway,,8098 Ocean Gateway,,Easton,Maryland,21601,United States,,,,"Sunday 11:00 AM - 6:00 PM , Monday 10:00 AM - 9:00 PM , Tuesday 10:00 AM - 9:00 PM , Wednesday 10:00 AM - 9:00 PM , Thursday 10:00 AM - 9:00 PM , Friday 10:00 AM - 9:00 PM , Saturday 10:00 AM - 8:00 PM ",,,
Mattress Warehouse of Durham South Square,,"3415 Westgate Drive, Unit 105",,Durham,North,27707,United States,,,,"Sunday 11:00 AM - 6:00 PM , Monday 10:00 AM - 9:00 PM , Tuesday 10:00 AM - 9:00 PM , Wednesday 10:00 AM - 9:00 PM , Thursday 10:00 AM - 9:00 PM , Friday 10:00 AM - 9:00 PM , Saturday 10:00 AM - 8:00 PM ",,,
Mattress Warehouse of Chantilly,,13806 Metro Tech Drive,,Chantilly,Virginia,20151,United States,,,,"Sunday 11:00 AM - 6:00 PM , Monday 10:00 AM - 9:00 PM , Tuesday 10:00 AM - 9:00 PM , Wednesday 10:00 AM - 9:00 PM , Thursday 10:00 AM - 9:00 PM , Friday 10:00 AM - 9:00 PM , Saturday 10:00 AM - 8:00 PM ",,,
Mattress Warehouse of Chambersburg Square,,986 Norland Avenue,,Chambersburg,Pennsylvania,17201,United States,,,,"Sunday 11:00 AM - 6:00 PM , Monday 10:00 AM - 9:00 PM , Tuesday 10:00 AM - 9:00 PM , Wednesday 10:00 AM - 9:00 PM , Thursday 10:00 AM - 9:00 PM , Friday 10:00 AM - 9:00 PM , Saturday 10:00 AM - 8:00 PM ",,,
Mattress Warehouse of Chambersburg,,"1710 Lincoln Way East, #14",,Chambersburg,Pennsylvania,17201,United States,,,,"Sunday 11:00 AM - 6:00 PM , Monday 10:00 AM - 9:00 PM , Tuesday 10:00 AM - 9:00 PM , Wednesday 10:00 AM - 9:00 PM , Thursday 10:00 AM - 9:00 PM , Friday 10:00 AM - 9:00 PM , Saturday 10:00 AM - 8:00 PM ",,,
Mattress Warehouse of Centreville,,14100-A Lee Highway,,Centreville,Virginia,20120,United States,,,,"Sunday 11:00 AM - 6:00 PM , Monday 10:00 AM - 9:00 PM , Tuesday 10:00 AM - 9:00 PM , Wednesday 10:00 AM - 9:00 PM , Thursday 10:00 AM - 9:00 PM , Friday 10:00 AM - 9:00 PM , Saturday 10:00 AM - 8:00 PM ",,,
Mattress Warehouse of Catonsville,,504 Winters Lane,,Catonsville,Maryland,21228,United States,,,,"Sunday 11:00 AM - 6:00 PM , Monday 10:00 AM - 9:00 PM , Tuesday 10:00 AM - 9:00 PM , Wednesday 10:00 AM - 9:00 PM , Thursday 10:00 AM - 9:00 PM , Friday 10:00 AM - 9:00 PM , Saturday 10:00 AM - 8:00 PM ",,,
Mattress Warehouse of Cary,,2111 Walnut Street,,Cary,North,27518,United States,,,,"Sunday 11:00 AM - 6:00 PM , Monday 10:00 AM - 9:00 PM , Tuesday 10:00 AM - 9:00 PM , Wednesday 10:00 AM - 9:00 PM , Thursday 10:00 AM - 9:00 PM , Friday 10:00 AM - 9:00 PM , Saturday 10:00 AM - 8:00 PM ",,,
Mattress Warehouse of Carlisle,,"40 Noble Boulevard, Suite 50",,Carlisle,Pennsylvania,17013,United States,,,,"Sunday 11:00 AM - 6:00 PM , Monday 10:00 AM - 9:00 PM , Tuesday 10:00 AM - 9:00 PM , Wednesday 10:00 AM - 9:00 PM , Thursday 10:00 AM - 9:00 PM , Friday 10:00 AM - 9:00 PM , Saturday 10:00 AM - 8:00 PM ",,,
Mattress Warehouse of Burlington,,1447 University Drive,,Burlington,North,27215,United States,,,,"Sunday 11:00 AM - 6:00 PM , Monday 10:00 AM - 9:00 PM , Tuesday 10:00 AM - 9:00 PM , Wednesday 10:00 AM - 9:00 PM , Thursday 10:00 AM - 9:00 PM , Friday 10:00 AM - 9:00 PM , Saturday 10:00 AM - 8:00 PM ",,,
Mattress Warehouse of Bloomsburg,,"76 Lunger Drive, Suite 350, Box 60",,Bloomsburg,Pennsylvania,17815,United States,,,,"Sunday 11:00 AM - 6:00 PM , Monday 10:00 AM - 9:00 PM , Tuesday 10:00 AM - 9:00 PM , Wednesday 10:00 AM - 9:00 PM , Thursday 10:00 AM - 9:00 PM , Friday 10:00 AM - 9:00 PM , Saturday 10:00 AM - 8:00 PM ",,,
Mattress Warehouse of Bethesda,,6930 Wisconsin Avenue,,Bethesda,Maryland,20814,United States,,,,"Sunday 11:00 AM - 6:00 PM , Monday 10:00 AM - 9:00 PM , Tuesday 10:00 AM - 9:00 PM , Wednesday 10:00 AM - 9:00 PM , Thursday 10:00 AM - 9:00 PM , Friday 10:00 AM - 9:00 PM , Saturday 10:00 AM - 8:00 PM ",,,
Mattress Warehouse of Bel Air,,403 Baltimore Pike,,Bel Air,Maryland,21014,United States,,,,"Sunday 11:00 AM - 6:00 PM , Monday 10:00 AM - 9:00 PM , Tuesday 10:00 AM - 9:00 PM , Wednesday 10:00 AM - 9:00 PM , Thursday 10:00 AM - 9:00 PM , Friday 10:00 AM - 9:00 PM , Saturday 10:00 AM - 8:00 PM ",,,
Mattress Warehouse of Bear Fox Run,,200 Fox Hunt Drive,,Bear,Delaware,19701,United States,,,,"Sunday 11:00 AM - 6:00 PM , Monday 10:00 AM - 9:00 PM , Tuesday 10:00 AM - 9:00 PM , Wednesday 10:00 AM - 9:00 PM , Thursday 10:00 AM - 9:00 PM , Friday 10:00 AM - 9:00 PM , Saturday 10:00 AM - 8:00 PM ",,,
Mattress Warehouse of Bear,,1257 Quintilio Drive,,Bear,Delaware,19701,United States,,,,"Sunday 11:00 AM - 6:00 PM , Monday 10:00 AM - 9:00 PM , Tuesday 10:00 AM - 9:00 PM , Wednesday 10:00 AM - 9:00 PM , Thursday 10:00 AM - 9:00 PM , Friday 10:00 AM - 9:00 PM , Saturday 10:00 AM - 8:00 PM ",,,
Mattress Warehouse of Baltimore Perry Hall,,7907 Belair Road,,Baltimore,Maryland,21236,United States,,,,"Sunday 11:00 AM - 6:00 PM , Monday 10:00 AM - 9:00 PM , Tuesday 10:00 AM - 9:00 PM , Wednesday 10:00 AM - 9:00 PM , Thursday 10:00 AM - 9:00 PM , Friday 10:00 AM - 9:00 PM , Saturday 10:00 AM - 8:00 PM ",,,
Mattress Warehouse of Arlington Pentagon Row,,"1201 South Joyce Street, Unit C14",,Arlington,Virginia,22202,United States,,,,"Sunday 11:00 AM - 6:00 PM , Monday 10:00 AM - 9:00 PM , Tuesday 10:00 AM - 9:00 PM , Wednesday 10:00 AM - 9:00 PM , Thursday 10:00 AM - 9:00 PM , Friday 10:00 AM - 9:00 PM , Saturday 10:00 AM - 8:00 PM ",,,
Mattress Warehouse of Arlington Ballston,,3807 Wilson Boulevard,,Arlington,Virginia,22203,United States,,,,"Sunday 11:00 AM - 6:00 PM , Monday 10:00 AM - 9:00 PM , Tuesday 10:00 AM - 9:00 PM , Wednesday 10:00 AM - 9:00 PM , Thursday 10:00 AM - 9:00 PM , Friday 10:00 AM - 9:00 PM , Saturday 10:00 AM - 8:00 PM ",,,
Mattress Warehouse of Arlington,,3632 Lee Highway,,Arlington,Virginia,22207,United States,,,,"Sunday 11:00 AM - 6:00 PM , Monday 10:00 AM - 9:00 PM , Tuesday 10:00 AM - 9:00 PM , Wednesday 10:00 AM - 9:00 PM , Thursday 10:00 AM - 9:00 PM , Friday 10:00 AM - 9:00 PM , Saturday 10:00 AM - 8:00 PM ",,,
Mattress Warehouse of Apex,,2025 Creekside Landing Drive,,Apex,North,27502,United States,,,,"Sunday 11:00 AM - 6:00 PM , Monday 10:00 AM - 9:00 PM , Tuesday 10:00 AM - 9:00 PM , Wednesday 10:00 AM - 9:00 PM , Thursday 10:00 AM - 9:00 PM , Friday 10:00 AM - 9:00 PM , Saturday 10:00 AM - 8:00 PM ",,,
Mattress Warehouse of Altoona Plank Road,,2590 Old Route 220,,Altoona,Pennsylvania,16601,United States,,,,"Sunday 11:00 AM - 6:00 PM , Monday 10:00 AM - 9:00 PM , Tuesday 10:00 AM - 9:00 PM , Wednesday 10:00 AM - 9:00 PM , Thursday 10:00 AM - 9:00 PM , Friday 10:00 AM - 9:00 PM , Saturday 10:00 AM - 8:00 PM ",,,
Mattress Warehouse of Altoona,,222 Falon Lane,,Altoona,Pennsylvania,16602,United States,,,,"Sunday 11:00 AM - 6:00 PM , Monday 10:00 AM - 9:00 PM , Tuesday 10:00 AM - 9:00 PM , Wednesday 10:00 AM - 9:00 PM , Thursday 10:00 AM - 9:00 PM , Friday 10:00 AM - 9:00 PM , Saturday 10:00 AM - 8:00 PM ",,,
Mattress Warehouse of Alexandria Route 1,,7520 Richmond Highway,,Alexandria,Virginia,22306,United States,,,,"Sunday 11:00 AM - 6:00 PM , Monday 10:00 AM - 9:00 PM , Tuesday 10:00 AM - 9:00 PM , Wednesday 10:00 AM - 9:00 PM , Thursday 10:00 AM - 9:00 PM , Friday 10:00 AM - 9:00 PM , Saturday 10:00 AM - 8:00 PM ",,,
