store_name,store_number,address,address2,city,state,zip_code,country,phone_number,latitude,longitude,store_hours,store_type,other_fields,coming_soon
ALEX AND ANI Boston,,115 Newbury Street,,Boston,MA,02116,United States,(617) 421-0777,,,"Monday 10 AM to 6 PM, Tuesday 10 AM to 6 PM, Wednesday 10 AM to 6 PM, Thursday 10 AM to 6 PM, Friday 10 AM to 6 PM, Saturday 10 AM to 6 PM, Sunday 12 PM to 5 PM",,,
ALEX AND ANI National Harbor,,180-A Waterfront Street,,Oxon Hill,MD,20745,United States,(301) 567-1646,,,"Monday 10 AM to 9 PM, Tuesday 10 AM to 9 PM, Wednesday 10 AM to 9 PM, Thursday 10 AM to 9 PM, Friday 10 AM to 9 PM, Saturday 10 AM to 9 PM, Sunday 11 AM to 7 PM",,,
ALEX AND ANI Soho,,425 West Broadway,,New York,NY,10012,United States,(646) 484-5099,,,"Monday 10 AM to 8 PM, Tuesday 10 AM to 8 PM, Wednesday 10 AM to 8 PM, Thursday 10 AM to 8 PM, Friday 10 AM to 8 PM, Saturday 10 AM to 9 PM, Sunday 11 AM to 7 PM",,,
ALEX AND ANI Newport,,One Bowen's Wharf,,Newport,RI,02840,United States,(401) 849-3002,,,"Monday 10 AM to 8 PM, Tuesday 10 AM to 8 PM, Wednesday 10 AM to 8 PM, Thursday 10 AM to 9 PM, Friday 10 AM to 9 PM, Saturday 10 AM to 9 PM, Sunday 10 AM to 8 PM",,,
ALEX AND ANI Chapel View,,2000 Chapel View Boulevard,,Cranston,RI,02920,United States,(401) 633-1490,,,"Monday 10 AM to 7 PM, Tuesday 10 AM to 7 PM, Wednesday 10 AM to 7 PM, Thursday 10 AM to 7 PM, Friday 10 AM to 7 PM, Saturday 10 AM to 7 PM, Sunday 11 AM to 6 PM",,,
ALEX AND ANI Red Bank,,12 Broad Street,,Red Bank,NJ,07701,United States,(732) 268-7274,,,"Monday 10 AM to 6 PM, Tuesday 10 AM to 6 PM, Wednesday 10 AM to 6 PM, Thursday 10 AM to 6 PM, Friday 10 AM to 6 PM, Saturday 10 AM to 6 PM, Sunday 11 PM to 5 PM",,,
ALEX AND ANI Cherry Creek,,2827 East 3rd Avenue,,Denver,CO, 80206,United States,(720) 398-9837,,,"Monday 10 AM to 6 PM, Tuesday 10 AM to 6 PM, Wednesday 10 AM to 6 PM, Thursday 10 AM to 6 PM, Friday 10 AM to 7 PM, Saturday 10 AM to 7 PM, Sunday 11 AM to 6 PM",,,
ALEX AND ANI Newark,,50 East Main Street,,Newark,DE, 19711,United States,(302) 737-6194,,,"Monday CLOSED, Tuesday CLOSED, Wednesday 12 PM to 5 PM, Thursday 12 PM to 5 PM, Friday 10 AM to 5 PM, Saturday 10 AM to 5 PM, Sunday 12 PM to 5 PM",,,
ALEX AND ANI Portland,,215 Commercial Street,,Portland,ME,04101,United States,(207) 899-4319,,,"Monday 10 AM to 6 PM, Tuesday 10 AM to 6 PM, Wednesday 10 AM to 6 PM, Thursday 10 AM to 6 PM, Friday 10 AM to 6 PM, Saturday 10 AM to 6 PM, Sunday 11 AM to 5 PM",,,
ALEX AND ANI Ridgewood,,134 East Ridgewood Avenue,,Ridgewood,NJ,07450,United States,(201) 857-0911,,,"Monday 10 AM to 7 PM, Tuesday 10 AM to 7 PM, Wednesday 10 AM to 7 PM, Thursday 10 AM to 7 PM, Friday 10 AM to 7 PM, Saturday 10 AM to 7 PM, Sunday 11 AM to 5 PM",,,
ALEX AND ANI Rye,,52 Purchase Street,,Rye,NY,10580,United States,(914) 481-1506,,,"Monday 10 AM to 6 PM, Tuesday 10 AM to 6 PM, Wednesday 10 AM to 6 PM, Thursday 10 AM to 6 PM, Friday 10 AM to 6 PM, Saturday 10 AM to 6 PM, Sunday 12 PM to 5 PM",,,
ALEX AND ANI Rochester,,145 Culver Road,,Rochester,NY,14620,United States,,,,"Monday 10 AM to 8 PM, Tuesday 10 AM to 8 PM, Wednesday 10 AM to 8 PM, Thursday 10 AM to 8 PM, Friday 10 AM to 7 PM, Saturday 10 AM to 7 PM, Sunday 11 AM to 5 PM",,,
ALEX AND ANI Burlington,,207 College Street,,Burlington,VT,05401,United States,(802) 497-3609,,,"Monday 12 PM to 5 PM, Tuesday CLOSED, Wednesday CLOSED, Thursday 12 PM to 5 PM, Friday 10 AM to 5 PM, Saturday 10 AM to 5 PM, Sunday 12 PM to 5 PM",,,
ALEX AND ANI Victor,,236 High Street Extension,,Victor,NY,14564,United States,(585) 598-3853,,,"Monday 10 AM to 7 PM, Tuesday 10 AM to 7 PM, Wednesday 10 AM to 7 PM, Thursday 10 AM to 7 PM, Friday 10 AM to 7 PM, Saturday 10 AM to 7 PM, Sunday 11 AM to 6 PM",,,
ALEX AND ANI Georgetown,,"3068 M Street, N.W.",,Georgetown,DC,20007,United States,(202) 333-4195,,,"Monday 12 PM to 8 PM, Tuesday 12 PM to 8 PM, Wednesday 12 PM to 8 PM, Thursday 12 PM to 8 PM, Friday 10 AM to 8 PM, Saturday 10 AM to 8 PM, Sunday 12 PM to 6 PM",,,
ALEX AND ANI Winter Park,,356 S Park Avenue,,Winter Park,FL,32789,United States,(321) 422-0841,,,"Monday 10 AM to 7 PM, Tuesday 10 AM to 7 PM, Wednesday 10 AM to 7 PM, Thursday 10 AM to 7 PM, Friday 10 AM to 9 PM, Saturday 10 AM to 9 PM, Sunday 11 AM to 6 PM",,,
ALEX AND ANI Salt Lake City,,51 South Main Street,,Salt Lake City,UT,84111,United States,(801) 355-3701,,,"Monday 10 AM to 9 PM, Tuesday 10 AM to 9 PM, Wednesday 10 AM to 9 PM, Thursday 10 AM to 9 PM, Friday 10 AM to 9 PM, Saturday 10 AM to 9 PM, Sunday CLOSED",,,
ALEX AND ANI Fairfax,,2905 District Avenue,,Fairfax,VA,22031,United States,(703) 992-9711,,,"Monday 11 AM to 8 PM, Tuesday 11 AM to 8 PM, Wednesday 11 AM to 8 PM, Thursday 11 AM to 8 PM, Friday 10 AM to 8 PM, Saturday 10 AM to 8 PM, Sunday 11 AM to 6 PM",,,
ALEX AND ANI Partridge Creek,,17420 Hall Road,,Clinton Township,MI,48038,United States,(586) 263-4123,,,"Monday 10 AM to 9 PM, Tuesday 10 AM to 9 PM, Wednesday 10 AM to 9 PM, Thursday 10 AM to 9 PM, Friday 10 AM to 9 PM, Saturday 10 AM to 9 PM, Sunday 11 AM to 6 PM",,,
ALEX AND ANI Patriot Place,,260 Patriot Place,,Foxboro,MA,02035,United States,(774) 215-0131,,,"Monday 10 AM to 9 PM, Tuesday 10 AM to 9 PM, Wednesday 10 AM to 9 PM, Thursday 10 AM to 9 PM, Friday 10 AM to 9 PM, Saturday 10 AM to 9 PM, Sunday 10 AM to 7 PM",,,
ALEX AND ANI Charlottesville,,2050 Bond Street,,Charlottesville,VA,22901,United States,(434) 964-9541,,,"Monday 10 AM to 7 PM, Tuesday 10 AM to 7 PM, Wednesday 10 AM to 7 PM, Thursday 10 AM to 7 PM, Friday 10 AM to 8 PM, Saturday 10 AM to 8 PM, Sunday 11 AM to 6 PM",,,
ALEX AND ANI Emeryville,,5619 Bay Street,,Emeryville,CA,94608,United States,(510) 338-3837,,,"Monday 10 AM to 8 PM, Tuesday 10 AM to 8 PM, Wednesday 10 AM to 8 PM, Thursday 10 AM to 9 PM, Friday 10 AM to 9 PM, Saturday 10 AM to 9 PM, Sunday 11 AM to 6 PM",,,
ALEX AND ANI Boulder,,1505 Pearl Street,,Boulder,CO,80302,United States,(720) 550-8834,,,"Monday 10 AM to 7 PM, Tuesday 10 AM to 7 PM, Wednesday 10 AM to 7 PM, Thursday 10 AM to 7 PM, Friday 10 AM to 7 PM, Saturday 10 AM to 7 PM, Sunday 11 AM to 6 PM",,,
ALEX AND ANI Westfield,,200 East Broad Street,,Westfield,NJ,07090,United States,(908) 264-8157,,,"Monday 10 AM to 7 PM, Tuesday 10 AM to 7 PM, Wednesday 10 AM to 7 PM, Thursday 10 AM to 7 PM, Friday 10 AM to 7 PM, Saturday 10 AM to 6 PM, Sunday 11 AM to 5 PM",,,
ALEX AND ANI Charleston,,346 King Street,,Charleston,SC,29401,United States,(843) 641-0910,,,"Monday 10 AM to 7 PM, Tuesday 10 AM to 7 PM, Wednesday 10 AM to 7 PM, Thursday 10 AM to 7 PM, Friday 10 AM to 7 PM, Saturday 10 AM to 8 PM, Sunday 11 AM to 6 PM",,,
ALEX AND ANI Miracle Mile,,3663 Las Vegas Blvd South,,Las Vegas,NV,89109,United States,(702) 823-5555,,,"Monday 10am to 11pm, Tuesday 10am to 11pm, Wednesday 10am to 11pm, Thursday 10am to 11pm, Friday 10am to 12am, Saturday 10am to 12am, Sunday 10am to 11pm",,,
ALEX AND ANI Annapolis,,161 Main Street,,Annapolis,MD,21401,United States,(443) 221-7158,,,"Monday 10 AM to 8 PM, Tuesday 10 AM to 8 PM, Wednesday 10 AM to 8 PM, Thursday 10 AM to 8 PM, Friday 10 AM to 8 PM, Saturday 10 AM to 8 PM, Sunday 11 AM to 7 PM",,,
ALEX AND ANI Buffalo,,5429 Main Street,,Williamsville,NY,14221,United States,(716) 204-8836,,,"Monday 10 AM to 7 PM, Tuesday 10 AM to 7 PM, Wednesday 10 AM to 7 PM, Thursday 10 AM to 7 PM, Friday 10 AM to 7 PM, Saturday 10 AM to 7 PM, Sunday 10 AM to 5 PM",,,
ALEX AND ANI Pittsburgh,,5505 Walnut Street,,Pittsburgh,PA,15232,United States,(412) 586-4006,,,"Monday 10 AM to 6 PM, Tuesday 10 AM to 6 PM, Wednesday 10 AM to 6 PM, Thursday 10 AM to 6 PM, Friday 10 AM to 6 PM, Saturday 10 AM to 6 PM, Sunday 12 PM to 5 PM",,,
ALEX AND ANI Birmingham,,150 West Maple Road,,Birmingham,MI,48009,United States,(248) 792-3916,,,"Monday 10 AM to 7 PM, Tuesday 10 AM to 7 PM, Wednesday 10 AM to 7 PM, Thursday 10 AM to 7 PM, Friday 10 AM to 7 PM, Saturday 10 AM to 7 PM, Sunday 11 AM to 6 PM",,,
ALEX AND ANI McCarran D Gates,,5757 Wayne Newton Blvd,,Las Vegas,NV,89119,United States,(702) 261-7428,,,"Monday 5:30 AM to 8 PM, Tuesday 5:30 AM to 8 PM, Wednesday 5:30 AM to 8 PM, Thursday 5:30 AM to 8 PM, Friday 5:30 AM to 8 PM, Saturday 5:30 AM to 8 PM, Sunday 5:30 AM to 8 PM",,,
ALEX AND ANI Venetian,,3377 Las Vegas Blvd.,,Las Vegas,NV,89109,United States,(702) 478-9180,,,"Monday 10AM to 11PM, Tuesday 10AM to 11PM, Wednesday 10AM to 11PM, Thursday 10AM to 11PM, Friday 10AM to 12AM, Saturday 10AM to 12AM, Sunday 10AM to 11PM",,,
ALEX AND ANI Grand Bazaar,,3641 Las Vegas Blvd. South,,Las Vegas,NV,89109,United States,(702) 749-9335,,,"Monday 10 AM to 10 PM, Tuesday 10 AM to 10 PM, Wednesday 10 AM to 10 PM, Thursday 10 AM to 10 PM, Friday 10 AM to 10 PM, Saturday 10 AM to 10 PM, Sunday 10 AM to 10 PM",,,
ALEX AND ANI Fort Lauderdale,,1012 Las Olas Boulevard,,Fort Lauderdale,FL,33301,United States,(954) 289-8142,,,"Monday 11 AM to 8 PM, Tuesday 11 AM to 8 PM, Wednesday 11 AM to 8 PM, Thursday 11 AM to 8 PM, Friday 11 AM to 8 PM, Saturday 10 AM to 9 PM, Sunday 11 AM to 7 PM",,,
ALEX AND ANI Outlet Rehoboth Beach,,36494 Seaside Outlet Dr,,Rehoboth Beach,DE,19971,United States,(302) 227-7360,,,"Monday 9 AM to 9 PM, Tuesday 9 AM to 9 PM, Wednesday 9 AM to 9 PM, Thursday 9 AM to 9 PM, Friday 9 AM to 9 PM, Saturday 9 AM to 9 PM, Sunday 10 AM to 7 PM",,,
ALEX AND ANI Multiplaza,,Via Israel,,Multiplaza Pacific Mall,#B,-281,United States,(507) 388-7533,,,"Monday 10 AM to 8 PM, Tuesday 10 AM to 8 PM, Wednesday 10 AM to 8 PM, Thursday 10 AM to 8 PM, Friday 10 AM to 8 PM, Saturday 10 AM to 8 PM, Sunday 10 AM to 8 PM",,,
ALEX AND ANI Lincoln Road,,541 Lincoln Road,,Miami Beach,FL,33139,United States,(305) 674-8912,,,"Monday 12 PM to 10 PM, Tuesday 12 PM to 10 PM, Wednesday 12 PM to 10 PM, Thursday 12 PM to 10 PM, Friday 12 PM to 10 PM, Saturday 12 PM to 10 PM, Sunday 12 PM to 9 PM",,,
ALEX AND ANI Short Pump,,11800 West Broad Street,,Richmond,VA,23233,United States,(804) 360-9056,,,"Monday 10 AM to 9 PM, Tuesday 10 AM to 9 PM, Wednesday 10 AM to 9 PM, Thursday 10 AM to 9 PM, Friday 10 AM to 9 PM, Saturday 10 AM to 9 PM, Sunday 11 AM to 6 PM",,,
ALEX AND ANI Roosevelt Field,,630 Old Country Road,,Garden City,NY,11530,United States,(516) 240-1980,,,"Monday 10 AM to 9:30 PM, Tuesday 10 AM to 9:30 PM, Wednesday 10 AM to 9:30 PM, Thursday 10 AM to 9:30 PM, Friday 10 AM to 9:30 PM, Saturday 10 AM to 9:30 PM, Sunday 11 AM to 7 PM",,,
ALEX AND ANI Albrook,,Albrook Mall,,Panama City,Pa,nama,United States,(507) 387-1474,,,"Monday 10 AM to 9 PM, Tuesday 10 AM to 9 PM, Wednesday 10 AM to 9 PM, Thursday 10 AM to 9 PM, Friday 10 AM to 9 PM, Saturday 10 AM to 9 PM, Sunday 10 AM to 6 PM",,,
ALEX AND ANI Baybrook,,700 Baybrook Mall,,Friendswood,TX,77546,United States,(281) 480-4847,,,"Monday 10 AM to 9 PM, Tuesday 10 AM to 9 PM, Wednesday 10 AM to 9 PM, Thursday 10 AM to 9 PM, Friday 10 AM to 9 PM, Saturday 10 AM to 9 PM, Sunday 12 PM to 6 PM",,,
ALEX AND ANI Market Street,,9595 Six Pines Drive,,Woodlands,TX,77380,United States,(281) 465-8480,,,"Monday 10am to 9pm, Tuesday 10am to 9pm, Wednesday 10am to 9pm, Thursday 10am to 9pm, Friday 10am to 9pm, Saturday 10am to 9pm, Sunday 12pm to 6pm",,,
ALEX AND ANI The Falls,,8888 SW 136th Street,,Miami,FL,33176,United States,(305) 238-4957,,,"Monday 10 AM to 9 PM, Tuesday 10 AM to 9 PM, Wednesday 10 AM to 9 PM, Thursday 10 AM to 9 PM, Friday 10 AM to 9 PM, Saturday 10 AM to 9 PM, Sunday 12 PM to 7 PM",,,
ALEX AND ANI Twelve Oaks,,27500 Novi Road,,Novi,MI,48377,United States,(248) 697-9468,,,"Monday 10 AM to 9 PM, Tuesday 10 AM to 9 PM, Wednesday 10 AM to 9 PM, Thursday 10 AM to 9 PM, Friday 10 AM to 9 PM, Saturday 10 AM to 9 PM, Sunday 11 AM to 6 PM",,,
ALEX AND ANI Montgomery Mall,,7101 Democracy Boulevard,,Bethesda,MD,20817,United States,(301) 365-0570,,,"Monday 10 AM to 9 PM, Tuesday 10 AM to 9 PM, Wednesday 10 AM to 9 PM, Thursday 10 AM to 9 PM, Friday 10 AM to 9 PM, Saturday 10 AM to 9 PM, Sunday 11 AM to 6 PM",,,
ALEX AND ANI Outlet Sevierville,,1645 Parkway,,Sevierville,TN,37862,United States,(865) 774-6161,,,"Monday 9 AM to 9 PM, Tuesday 9 AM to 9 PM, Wednesday 9 AM to 9 PM, Thursday 9 AM to 9 PM, Friday 9 AM to 9 PM, Saturday 9 AM to 9 PM, Sunday 10 AM to 7 PM",,,
ALEX AND ANI Plaza Las Americas,,525 Av. Franklin Delano Roosevelt,,San Juan,Pu,erto Rico00918,United States,(787) 705-3440,,,"Monday 9 AM to 9 PM, Tuesday 9 AM to 9 PM, Wednesday 9 AM to 9 PM, Thursday 9 AM to 9 PM, Friday 9 AM to 9 PM, Saturday 9 AM to 9 PM, Sunday 11 AM to 7 PM",,,
ALEX AND ANI Ponce City,,"675 Ponce de Leon Ave NE, W117",,Atlanta,GA,30308,United States,(404) 817-8089,,,"Monday 10 AM to 9 PM, Tuesday 10 AM to 9 PM, Wednesday 10 AM to 9 PM, Thursday 10 AM to 9 PM, Friday 10 AM to 9 PM, Saturday 10 AM to 9 PM, Sunday 12 PM to 6 PM",,,
ALEX AND ANI St. Thomas,,5124 Dronningens Gade,,St. Thomas,Ca,ribbean00802 USVI,United States,(340) 774-3636,,,"Monday 9 AM to 5:30 PM, Tuesday 9 AM to 5:30 PM, Wednesday 9 AM to 5:30 PM, Thursday 9 AM to 5:30 PM, Friday 9 AM to 5:30 PM, Saturday 9 AM to 5:30 PM, Sunday 9 AM to 5:30 PM",,,
ALEX AND ANI Lenox Square,,3393 Peachtree Road,,Atlanta,GA,30326,United States,(404) 479-3599,,,"Monday 8 AM to 9 PM, Tuesday 9 AM to 10 PM, Wednesday 9 AM to 10 PM, Thursday 9 AM to 10 PM, Friday 9 AM to 10 PM, Saturday 10 AM to 8 PM, Sunday 11 AM to 6 PM",,,
ALEX AND ANI Plaza Carolina,,Avenida Jesus M. Fragoso,,Carolina,Pu,erto Rico00983,United States,(787) 710-9588,,,"Monday 9 AM to 9 AM, Tuesday 9 AM to 9 AM, Wednesday 9 AM to 9 AM, Thursday 9 AM to 9 AM, Friday 9 AM to 9 AM, Saturday 9 AM to 9 AM, Sunday 11 AM to 6 PM",,,
ALEX AND ANI Metromall,,Metromall,,Panama City,Pa,nama,United States,(507) 388-6734,,,"Monday 10 AM to 9 PM, Tuesday 10 AM to 9 PM, Wednesday 10 AM to 9 PM, Thursday 10 AM to 9 PM, Friday 10 AM to 9 PM, Saturday 10 AM to 9 PM, Sunday 11 AM to 7 PM",,,
ALEX AND ANI Upper Canada,,17600 Yonge Street,,Newmarket,On,tario,United States,(905) 836-8175,,,"Monday 10 AM to 9 PM, Tuesday 10 AM to 9 PM, Wednesday 10 AM to 9 PM, Thursday 10 AM to 9 PM, Friday 10 AM to 9 PM, Saturday 9 AM to 6 PM, Sunday 11 AM to 6 PM",,,
ALEX AND ANI Yorkdale,,1 Yorkdale Road,,Toronto,On,tarioM6A3A1,United States,(416) 256-2811,,,"Monday 10 AM to 9 PM, Tuesday 10 AM to 9 PM, Wednesday 10 AM to 9 PM, Thursday 10 AM to 9 PM, Friday 10 AM to 9 PM, Saturday 9:30 AM to 9 PM, Sunday 10 AM to 7 PM",,,
ALEX AND ANI Plaza Del Caribe,,2050 Ponce By Pass,,Ponce,00,717,United States,(787) 973-7007,,,"Monday 9 AM to 9 PM, Tuesday 9 AM to 9 PM, Wednesday 9 AM to 9 PM, Thursday 9 AM to 9 PM, Friday 9 AM to 9 PM, Saturday 9 AM to 9 PM, Sunday 11 AM to 7 PM",,,
ALEX AND ANI Square One,,100 City Center Drive,,Mississauga,On,tario,United States,(905) 896-8555,,,"Monday 10 AM to 9 PM, Tuesday 10 AM to 9 PM, Wednesday 10 AM to 9 PM, Thursday 10 AM to 9 PM, Friday 10 AM to 9 PM, Saturday 9:30 AM to 9 PM, Sunday 11 AM to 7 PM",,,
ALEX AND ANI Disney Springs,,1668 East Buena Vista Boulevard,,Orlando,FL,32830,United States,(407) 560-0040,,,"Monday 10 AM to 11 PM, Tuesday 10 AM to 11 PM, Wednesday 10 AM to 11 PM, Thursday 10 AM to 11 PM, Friday 10 AM to 11:30 PM, Saturday 10 AM to 11:30 PM, Sunday 10 AM to 11 PM",,,
ALEX AND ANI Boca Raton,,6000 Glades Road,,Boca Raton,FL,33431,United States,(561) 362-0172,,,"Monday 10 AM to 9 PM, Tuesday 10 AM to 9 PM, Wednesday 10 AM to 9 PM, Thursday 10 AM to 9 PM, Friday 10 AM to 9 PM, Saturday 10 AM to 9 PM, Sunday 12 AM to 6 PM",,,
ALEX AND ANI Ala Moana,,1450 Ala Moana Boulevard,,Honolulu,HI,96814,United States,(808) 945-7910,,,"Monday 9:30 AM to 9 PM, Tuesday 9:30 AM to 9 PM, Wednesday 9:30 AM to 9 PM, Thursday 9:30 AM to 9 PM, Friday 9:30 AM to 9 PM, Saturday 9:30 AM to 9 PM, Sunday 10 AM to 7 PM",,,
ALEX AND ANI Fashion Show Mall,,3200 S Las Vegas Boulevard,,Las Vegas,NV,89109,United States,(702) 685-2991,,,"Monday 10 AM to 9 PM, Tuesday 10 AM to 9 PM, Wednesday 10 AM to 9 PM, Thursday 10 AM to 9 PM, Friday 10 AM to 9 PM, Saturday 10 AM to 9 PM, Sunday 11 AM to 7 PM",,,
ALEX AND ANI SouthPark,,4400 Sharon Road,,Charlotte,NC,28211,United States,(704) 366-6029,,,"Monday 10 AM to 9 PM, Tuesday 10 AM to 9 PM, Wednesday 10 AM to 9 PM, Thursday 10 AM to 9 PM, Friday 10 AM to 9 PM, Saturday 10 AM to 9 PM, Sunday 12:30 PM to 6 PM",,,
ALEX AND ANI AltaPlaza Mall,,Shop O-217,,Panama City,Pa,nama,United States,(507) 388-6734,,,"Monday 10:30AM to 9 PM, Tuesday 10:30AM to 9 PM, Wednesday 10:30AM to 9 PM, Thursday 10:30AM to 9 PM, Friday 10:30AM to 9 PM, Saturday 10:30AM to 9 PM, Sunday 11 AM to 6 PM",,,
ALEX AND ANI Tysons Corner,,1961 Chain Bridge Road,,McLean,VA,22102,United States,(703) 712-0059,,,"Monday 10 AM to 9:30 PM, Tuesday 10 AM to 9:30 PM, Wednesday 10 AM to 9:30 PM, Thursday 10 AM to 9:30 PM, Friday 10 AM to 9:30 PM, Saturday 10 AM to 9:30 PM, Sunday 11 AM to 7 PM",,,
ALEX AND ANI North Star,,7400 San Pedro Avenue,,San Antonio,TX,,United States,(210) 348-8377,,,"Monday 10 AM to 9 PM, Tuesday 10 AM to 9 PM, Wednesday 10 AM to 9 PM, Thursday 10 AM to 9 PM, Friday 10 AM to 9 PM, Saturday 10 AM to 9 PM, Sunday 12 PM to 6 PM",,,
ALEX AND ANI Christiana Mall,,132 Christiana Road,,Newark,DE,19702,United States,(302) 731-1420,,,"Monday 10 AM to 9 PM, Tuesday 10 AM to 9 PM, Wednesday 10 AM to 9 PM, Thursday 10 AM to 9 PM, Friday 10 AM to 9 PM, Saturday 10 AM to 9 PM, Sunday 11 AM to 6 PM",,,
ALEX AND ANI Carrefour Laval,,3003 Boulevard le Carrefour,,Laval,Qu,ebec,United States,(450) 231-0949,,,"Monday 10 AM to 9 PM, Tuesday 10 AM to 9 PM, Wednesday 10 AM to 9 PM, Thursday 10 AM to 9 PM, Friday 10 AM to 9 PM, Saturday 9 AM to 5 PM, Sunday 10 AM to 5 PM",,,
ALEX AND ANI Rideau Centre,,50 Rideau Street,,Ottawa,On,tario,United States,(613) 288-9089,,,"Monday 9:30 AM to 9 PM, Tuesday 9:30 AM to 9 PM, Wednesday 9:30 AM to 9 PM, Thursday 9:30 AM to 9 PM, Friday 9:30 AM to 9 PM, Saturday 9:30 AM to 9 PM, Sunday 11 AM to 6 PM",,,
ALEX AND ANI Oakbrook,,405 Oakbrook Center,,Oakbrook,IL,60523,United States,(630) 574-2329,,,"Monday 10 AM to 9 PM, Tuesday 10 AM to 9 PM, Wednesday 10 AM to 9 PM, Thursday 10 AM to 9 PM, Friday 10 AM to 9 PM, Saturday 10 AM to 9 PM, Sunday 11 AM to 6 PM",,,
ALEX AND ANI The Summit,,220 Summit Boulevard,,Birmingham,AL,35243,United States,(205) 977-8117,,,"Monday 10 AM to 9 PM, Tuesday 10 AM to 9 PM, Wednesday 10 AM to 9 PM, Thursday 10 AM to 9 PM, Friday 10 AM to 9 PM, Saturday 10 AM to 9 PM, Sunday 12 PM to 6 PM",,,
ALEX AND ANI Aruba,,J.E. Irasquin Boulevard,,Palm Beach,Ca,ribbean,United States,(297) 586-6333,,,"Monday 12 PM to 10 PM, Tuesday 12 PM to 10 PM, Wednesday 12 PM to 10 PM, Thursday 12 PM to 10 PM, Friday 12 PM to 10 PM, Saturday 12 PM to 10 PM, Sunday 6 PM to 10 PM",,,
ALEX AND ANI Fashion Island,,401 Newport Center Drive,,Newport Beach,CA,92660,United States,(949) 760-5411,,,"Monday 10 AM to 9 PM, Tuesday 10 AM to 9 PM, Wednesday 10 AM to 9 PM, Thursday 10 AM to 9 PM, Friday 10 AM to 9 PM, Saturday 10 AM to 8 PM, Sunday 11 AM to 6 PM",,,
ALEX AND ANI Beachwood,,26300 Cedar Road,,Beachwood,OH,44122,United States,(216) 378-2139,,,"Monday 10 AM to 9 PM, Tuesday 10 AM to 9 PM, Wednesday 10 AM to 9 PM, Thursday 10 AM to 9 PM, Friday 10 AM to 9 PM, Saturday 10 AM to 9 PM, Sunday 12 PM to 6 PM",,,
ALEX AND ANI Domain,,11700 Rock Rose Avenue,,Austin,TX,78758,United States,(737) 209-2867,,,"Monday 10 AM to 9 PM, Tuesday 10 AM to 9 PM, Wednesday 10 AM to 9 PM, Thursday 10 AM to 9 PM, Friday 10 AM to 9 PM, Saturday 10 AM to 9 PM, Sunday 12 PM to 6 PM",,,
ALEX AND ANI Orland Square,,544 Orland Square Drive,,Orland Park,IL,60462,United States,(708) 403-4450,,,"Monday 10 AM to 9 PM, Tuesday 10 AM to 9 PM, Wednesday 10 AM to 9 PM, Thursday 10 AM to 9 PM, Friday 10 AM to 9 PM, Saturday 10 AM to 9 PM, Sunday 11 AM to 6 PM",,,
ALEX AND ANI Cherry Hill,,2000 Route 38,,Cherry Hill,NJ,08002,United States,(856) 488-6214,,,"Monday 10 AM to 9:30 PM, Tuesday 10 AM to 9:30 PM, Wednesday 10 AM to 9:30 PM, Thursday 10 AM to 9:30 PM, Friday 10 AM to 9:30 PM, Saturday 10 AM to 6 PM, Sunday 11 AM to 6 PM",,,
ALEX AND ANI Stonebriar,,2601 Preston Road,,Frisco,TX,75034,United States,(469) 362-6771,,,"Monday 10 AM to 9 PM, Tuesday 10 AM to 9 PM, Wednesday 10 AM to 9 PM, Thursday 10 AM to 9 PM, Friday 10 AM to 9 PM, Saturday 10 AM to 9 PM, Sunday 12 PM to 6 PM",,,
ALEX AND ANI Stanford,,660 Stanford Shopping Center,,Palo Alto,CA,94304,United States,(650) 853-1933,,,"Monday 10 AM to 9 PM, Tuesday 10 AM to 9 PM, Wednesday 10 AM to 9 PM, Thursday 10 AM to 9 PM, Friday 10 AM to 9 PM, Saturday 10 AM to 7 PM, Sunday 11 AM to 6 PM",,,
ALEX AND ANI Irvine,,70 Spectrum Center Drive,,Irvine,CA,92618,United States,(949) 453-0141,,,"Monday 10 AM to 9 PM, Tuesday 10 AM to 9 PM, Wednesday 10 AM to 9 PM, Thursday 10 AM to 9 PM, Friday 10 AM to 10 PM, Saturday 10 AM to 10 PM, Sunday 10 AM to 9 PM",,,
ALEX AND ANI Mayfair,,2500 N Mayfair Road,,Wauwatosa,WI,53226,United States,(414) 257-0102,,,"Monday 10 AM to 9 PM, Tuesday 10 AM to 9 PM, Wednesday 10 AM to 9 PM, Thursday 10 AM to 9 PM, Friday 10 AM to 9 PM, Saturday 10 AM to 9 PM, Sunday 11 AM to 6 PM",,,
ALEX AND ANI Towson,,825 Dulaney Valley Road,,Towson,MD,21204,United States,(410) 296-0592,,,"Monday 10 AM to 9 PM, Tuesday 10 AM to 9 PM, Wednesday 10 AM to 9 PM, Thursday 10 AM to 9 PM, Friday 10 AM to 9 PM, Saturday 10 AM to 9 PM, Sunday 11 AM to 6 PM",,,
ALEX AND ANI Outlet Jersey Gardens,,651 Kapkowski Road,,Elizabeth,NJ,07201,United States,,,,"Monday 10 AM to 9 PM, Tuesday 10 AM to 9 PM, Wednesday 10 AM to 9 PM, Thursday 10 AM to 9 PM, Friday 10 AM to 9 PM, Saturday 10 AM to 9 PM, Sunday 11 AM to 7 PM",,,
ALEX AND ANI Whalers Villlage,,2435 Ka'anapali Parkway,,Lahaina,HI,96761,United States,(808) 868-2866,,,"Monday 9:30 AM to 10 PM, Tuesday 9:30 AM to 10 PM, Wednesday 9:30 AM to 10 PM, Thursday 9:30 AM to 10 PM, Friday 9:30 AM to 10 PM, Saturday 9:30 AM to 10 PM, Sunday 9:30 AM to 10 PM",,,
ALEX AND ANI McCarran C Gates,,5757 Wayne Newton Blvd,,Las Vegas,NV,89119,United States,(702) 790-4491,,,"Monday 6 AM to 10 PM, Tuesday 6 AM to 10 PM, Wednesday 6 AM to 10 PM, Thursday 6 AM to 10 PM, Friday 6 AM to 10 PM, Saturday 6 AM to 10 PM, Sunday 6 AM to 10 PM",,,
ALEX AND ANI Miami International Mall,,1455 NW 107th Ave,,Doral,FL,33172,United States,(305) 592-3169,,,"Monday 10am to 9pm, Tuesday 10am to 9pm, Wednesday 10am to 9pm, Thursday 10am to 9pm, Friday 10am to 9pm, Saturday 10am to 9pm, Sunday 11am to 7pm",,,
ALEX AND ANI Costa Rica,,Centro Comercial Multiplaza,,distrito 3,Sa,n Rafael; canton 2,United States,,,,"Monday 10am to 9pm, Tuesday 10am to 9pm, Wednesday 10am to 9pm, Thursday 10am to 9pm, Friday 10am to 9pm, Saturday 10am to 9pm, Sunday 10am to 8pm",,,
ALEX AND ANI Ross Park Mall,,1000 Ross Park Mall Dr,,Pittsburgh,PA,15237,United States,(412) 367-1362,,,"Monday 10 AM to 9 PM, Tuesday 10 AM to 9 PM, Wednesday 10 AM to 9 PM, Thursday 10 AM to 9 PM, Friday 10 AM to 9 PM, Saturday 10 AM to 9 PM, Sunday 11 AM to 6 PM",,,
ALEX AND ANI Green Hills,,2126 Abbot Martin Rd,,Nashville,TN,37215,United States,(615) 279-1926,,,"Monday 10am to 9pm, Tuesday 10am to 9pm, Wednesday 10am to 9pm, Thursday 10am to 9pm, Friday 10am to 9pm, Saturday 10am to 9pm, Sunday 12pm to 6pm",,,
ALEX AND ANI Somerset Collection,,2800 Big Beaver Rd,,Troy,MI,48084,United States,(248) 649-7352,,,"ALEX AND ANI Somerset Collection 2800 Big Beaver Rd, Space #M-144 Troy,MI48084, (248) 649-7352 somerset@alexandani.com, Get Directions 2800 Big Beaver RdSpace #M-144, ,Troy,MI4808",,,
ALEX AND ANI Eaton Centre: COMING SOON,,705 Rue Sainte-Catherine Quest,,Montreal,Qu,ebecH3B 4G5,United States,,,,"Monday 10 AM to 9 PM, Tuesday 10 AM to 9 PM, Wednesday 10 AM to 9 PM, Thursday 10 AM to 9 PM, Friday 10 AM to 9 PM, Saturday 10 AM to 6 PM, Sunday 11 AM to 5 PM",,,
The Paper Store,,Charles River Plaza,,257 Hartford Avenue,Sp,ace 206,United States,1(508)966-0847,,,"The Paper Store Charles River Plaza, 257 Hartford Avenue, Space 206 Bellingham,MA02019, 1(508)966-0847 Get Directions, Charles River Plaza257 Hartford Avenue, Space 206 ,Bellingham,MA02019",,,
The Paper Store,,53 Dodge Street,,Beverly,MA,01915,United States,1(978)232-9143,,,"The Paper Store 53 Dodge Street, Beverly,MA01915 1(978)232-9143, Get Directions 53 Dodge Street,Beverly,MA01915",,,
The Paper Store,,90 Drum Hill Road,,Chelmsford,MA,01824,United States,1(978)454-0049,,,"The Paper Store 90 Drum Hill Road, Chelmsford,MA01824 1(978)454-0049, Get Directions 90 Drum Hill Road,Chelmsford,MA01824",,,
The Paper Store,,Legacy Place,,Dedham,MA,02026,United States,1(781)326-1759,,,"The Paper Store Legacy Place, 950 Providence Highway Dedham,MA02026, 1(781)326-1759 Get Directions, Legacy Place950 Providence Highway ,Dedham,MA02026",,,
The Paper Store,,Shopper's World,,1 Worcester Road,Sp,ace 516,United States,1(508)879-3142,,,"The Paper Store Shopper's World, 1 Worcester Road, Space 516 Framingham,MA01701, 1(508)879-3142 Get Directions, Shopper's World1 Worcester Road, Space 516 ,Framingham,MA01701",,,
Edwin's,,341 West Central Street,,Franklin,MA,02038,United States,1(508)528-1477,,,"Edwin's 341 West Central Street, Franklin,MA02038 1(508)528-1477, Get Directions 341 West Central Street,Franklin,MA02038",,,
The Paper Store,,Derby Street Shoppes,,94 Derby Street,Su,ite 205,United States,1(781)749-1743,,,"The Paper Store Derby Street Shoppes, 94 Derby Street, Suite 205 Hingham,MA02043, 1(781)749-1743 Get Directions, Derby Street Shoppes94 Derby Street, Suite 205 ,Hingham,MA02043",,,
Gift-ology,,Longmeadow Shops,,Longmeadow,MA,01106,United States,1(413)567-6151,,,"Gift-ology Longmeadow Shops, 688 Bliss Road Longmeadow,MA01106, 1(413)567-6151 Get Directions, Longmeadow Shops688 Bliss Road ,Longmeadow,MA01106",,,
The Paper Store,,The Shoppes at Blackstone Valley,,70 Worcester-Providence Turnpike,Su,ite 600,United States,1(508)865-5291,,,"The Paper Store The Shoppes at Blackstone Valley, 70 Worcester-Providence Turnpike, Suite 600 Millbury,MA01527, 1(508)865-5291 Get Directions, The Shoppes at Blackstone Valley70 Worcester-Providence Turnpike, Suite 600 ,Millbury,MA01527",,,
The Paper Store,,Northborough Crossing,,Northborough,MA,01532,United States,1(508)393-6258,,,"The Paper Store Northborough Crossing, 9108 Shops Way Northborough,MA01532, 1(508)393-6258 Get Directions, Northborough Crossing9108 Shops Way ,Northborough,MA01532",,,
Eco Chic Boutique,,170 Water Street,,Plymouth,MA,02360,United States,1(774)773-9967,,,"Eco Chic Boutique 170 Water Street, Plymouth,MA02360 1(774)773-9967, Get Directions 170 Water Street,Plymouth,MA02360",,,
The Paper Store,,Walkers Brook Crossing,,Reading,MA,01867,United States,1(781)944-0998,,,"The Paper Store Walkers Brook Crossing, 40 Walkers Brook Drive Reading,MA01867, 1(781)944-0998 Get Directions, Walkers Brook Crossing40 Walkers Brook Drive ,Reading,MA01867",,,
The Paper Store,,Walnut Place Shopping Center,,Saugus,MA,01906,United States,1(781)231-1089,,,"The Paper Store Walnut Place Shopping Center, 214F Broadway (Route 1) Saugus,MA01906, 1(781)231-1089 Get Directions, Walnut Place Shopping Center214F Broadway (Route 1) ,Saugus,MA01906",,,
The Paper Store,,Vinnin Square Plaza,,Swampscott,MA,01907,United States,1(781)592-1492,,,"The Paper Store Vinnin Square Plaza, 425 Paradise Road Swampscott,MA01907, 1(781)592-1492 Get Directions, Vinnin Square Plaza425 Paradise Road ,Swampscott,MA01907",,,
Tickles,,2219 Gar Highway,,Swansea,MA,02777,United States,1(508)379-0717,,,"Tickles 2219 Gar Highway, Swansea,MA02777 1(508)379-0717, Get Directions 2219 Gar Highway,Swansea,MA02777",,,
The Paper Store,,Wareham Crossing,,Wareham,MA,02571,United States,1(508)273-0515,,,"The Paper Store Wareham Crossing, 2421 Cranberry Highway Building IC#450 Wareham,MA02571, 1(508)273-0515 Get Directions, Wareham Crossing 2421 Cranberry Highway Building IC#450 ,Wareham,MA02571",,,
Hannoush Jewelers,,Eastfield Mall,,1655 Boston Road,Un,it B7,United States,1(413)543-5225,,,"Hannoush Jewelers Eastfield Mall, 1655 Boston Road, Unit B7 Springfield,MA01129, 1(413)543-5225 Get Directions, Eastfield Mall1655 Boston Road, Unit B7 ,Springfield,MA01129",,,
The Paper Store,,Eddy Plaza,,Concord,NH,03301,United States,1(603)225-6767,,,"The Paper Store Eddy Plaza, 56 Fort Eddy Road Concord,NH03301, 1(603)225-6767 Get Directions, Eddy Plaza56 Fort Eddy Road ,Concord,NH03301",,,
The Paper Store,,Royal Ridge Center,,213 Daniel Webster Highway,Su,ite 1008,United States,1(603)897-1001,,,"The Paper Store Royal Ridge Center, 213 Daniel Webster Highway, Suite 1008 Nashua,NH03060, 1(603)897-1001 Get Directions, Royal Ridge Center213 Daniel Webster Highway, Suite 1008 ,Nashua,NH03060",,,
Periwinkle Boutique,,461 Broadway Mall,,Hicksville,NY,11801,United States,1(516)935-3200,,,"Periwinkle Boutique 461 Broadway Mall, Hicksville,NY11801 1(516)935-3200, Get Directions 461 Broadway Mall ,Hicksville,NY11801",,,
Maggie's Gift Shop,,521 Troy Schenectady Road,,Latham,NY,12110,United States,1(518)785-2629,,,"Maggie's Gift Shop 521 Troy Schenectady Road, Latham,NY12110 1(518)785-2629, Get Directions 521 Troy Schenectady Road,Latham,NY12110",,,
25 Silver Boutique,,1417 Central Avenue,,Albany,NY,12205,United States,1(518)459-5454,,,"25 Silver Boutique 1417 Central Avenue, Albany,NY12205 1(518)459-5454, Get Directions 1417 Central Avenue,Albany,NY12205",,,
The Peppered Cat,,226 Water Street,,Block Island,RI,02807,United States,1(401)466-5254,,,"The Peppered Cat 226 Water Street, Block Island,RI02807 1(401)466-5254, Get Directions 226 Water Street,Block Island,RI02807",,,
Simple Pleasures,,5000 South County Trail,,Charlestown,RI,02813,United States,1(401)364-9852,,,"Simple Pleasures 5000 South County Trail, Charlestown,RI02813 1(401)364-9852, Get Directions 5000 South County Trail,Charlestown,RI02813",,,
Green Roost,,141 East Davis Street,,Culpepper,VA,22701,United States,1(540)829-6378,,,"Green Roost 141 East Davis Street, Culpepper,VA22701 1(540)829-6378, Get Directions 141 East Davis Street,Culpepper,VA22701",,,
Periwinkle Boutique,,1290 Sunrise Mall,,Massapequa,NY,11758,United States,1(516)797-3200,,,"Periwinkle Boutique 1290 Sunrise Mall, Massapequa ,NY11758 1(516)797-3200, Get Directions 1290 Sunrise Mall,Massapequa ,NY11758",,,
Bloomingdale's,,59th Street & Lexington Avenue,,New York,NY,10022,United States,1(212)705-2000,,,"Bloomingdale's 59th Street & Lexington Avenue, 1000 Third Avenue New York,NY10022, 1(212)705-2000 Get Directions, 59th Street & Lexington Avenue1000 Third Avenue ,New York,NY10022",,,
Frick and Frack,,1470 Route 23 North,,North Wayne,NJ,07470,United States,1(973)696-8266,,,"Frick and Frack 1470 Route 23 North, North Wayne,NJ07470 1(973)696-8266, Get Directions 1470 Route 23 North ,North Wayne,NJ07470",,,
The Pink Bungalow,,617 Valley Road,,Montclair,NJ,07043,United States,1(973)337-5371,,,"The Pink Bungalow 617 Valley Road, Montclair,NJ07043 1(973)337-5371, Get Directions 617 Valley Road,Montclair,NJ07043",,,
Diann's Boutique,,970 US Highway 46,,Kenvil,NJ,07847,United States,1(973)584-3848,,,"Diann's Boutique 970 US Highway 46, Kenvil,NJ07847 1(973)584-3848, Get Directions 970 US Highway 46,Kenvil,NJ07847",,,
Sophy Jewelers,,400 Terry Rich Boulevard,,St. Claire,PA,17970,United States,1(570)429-2575,,,"Sophy Jewelers 400 Terry Rich Boulevard, Suite #6 St. Claire,PA17970, 1(570)429-2575 Get Directions, 400 Terry Rich BoulevardSuite #6 ,St. Claire,PA17970",,,
Gumbo Limbo Coastal Chic,,37 South West Osceola Street,,Historic Downtown Stuart,FL,34994,United States,1(772)283-1077,,,"Gumbo Limbo Coastal Chic 37 South West Osceola Street, Historic Downtown Stuart,FL34994 1(772)283-1077, Get Directions 37 South West Osceola Street,Historic Downtown Stuart,FL34994",,,
25 Silver Boutique,,Aviation Mall,,Queensbury,NY,12804,United States,1(518)798-0540,,,"25 Silver Boutique Aviation Mall, 578 Aviation Road Queensbury ,NY12804, 1(518)798-0540 Get Directions, Aviation Mall578 Aviation Road ,Queensbury ,NY12804",,,
Gerald Peters Goldmine,,Staten Island Mall,,Staten Island,NY,10314,United States,1(718)477-4000,,,"Gerald Peters Goldmine Staten Island Mall, 2655 Richmond Avenue Staten Island,NY10314, 1(718)477-4000 Get Directions, Staten Island Mall2655 Richmond Avenue ,Staten Island,NY10314",,,
Magnolia Lane,,2260 Village Walk Drive,,Henderson,NV,89052,United States,1(702)233-4438,,,"Magnolia Lane 2260 Village Walk Drive, Suite 100 Henderson,NV89052, 1(702)233-4438 Get Directions, 2260 Village Walk DriveSuite 100 ,Henderson,NV89052",,,
Blue Moon Artisans,,500 West Farms Mall,,Farmington,CT,06032,United States,1(860)313-0303,,,"Blue Moon Artisans 500 West Farms Mall, Farmington,CT06032 1(860)313-0303, Get Directions 500 West Farms Mall ,Farmington,CT06032",,,
The Paper Store,,291 Great Road,,Bedford,MA,01730,United States,1(781)275-3232,,,"The Paper Store 291 Great Road, Bedford,MA01730 1(781)275-3232, Get Directions 291 Great Road,Bedford,MA01730",,,
The Paper Store,,Treble Cove Plaza,,North Billerica,MA,01862,United States,1(978)663-4500,,,"The Paper Store Treble Cove Plaza, 199 Boston Road North Billerica ,MA01862, 1(978)663-4500 Get Directions, Treble Cove Plaza199 Boston Road ,North Billerica ,MA01862",,,
The Paper Store,,Middlesex Commons,,43 Middlesex Turnpike,Un,it # 20,United States,1(781)272-0585,,,"The Paper Store Middlesex Commons, 43 Middlesex Turnpike, Unit # 20 Burlington,MA01083, 1(781)272-0585 Get Directions, Middlesex Commons43 Middlesex Turnpike, Unit # 20 ,Burlington,MA01083",,,
The Paper Store,,Water Tower Plaza,,Leominster,MA,01453,United States,1(978)534-5340,,,"The Paper Store Water Tower Plaza, 90 Water Tower Place Leominster ,MA01453, 1(978)534-5340 Get Directions, Water Tower Plaza90 Water Tower Place ,Leominster ,MA01453",,,
The Paper Store,,Solomon Pond Mall,,Marlborough,MA, 01752,United States,1(508)303-6245,,,"The Paper Store Solomon Pond Mall, 601 Donald Lynch Boulevard Marlborough ,MA 01752, 1(508)303-6245 Get Directions, Solomon Pond Mall601 Donald Lynch Boulevard ,Marlborough ,MA 01752",,,
The Paper Store,,Wal-Lex Plaza,,Waltham,MA, 02452,United States,1(781)899-1353,,,"The Paper Store Wal-Lex Plaza, 848 Lexington Street Waltham ,MA 02452, 1(781)899-1353 Get Directions, Wal-Lex Plaza848 Lexington Street ,Waltham ,MA 02452",,,
The Paper Store,,Upper Valley Shopping Center,,Route 12A,25,0 Plainfield Road,United States,1(603)298-9989,,,"The Paper Store Upper Valley Shopping Center, Route 12A, 250 Plainfield Road West Lebanon ,NH03784, 1(603)298-9989 Get Directions, Upper Valley Shopping Center Route 12A, 250 Plainfield Road ,West Lebanon ,NH03784",,,
The Paper Store,,1804 Centre Street,,West Roxbury,MA, 02132,United States,1(617)325-1788,,,"The Paper Store 1804 Centre Street, West Roxbury ,MA 02132 1(617)325-1788, Get Directions 1804 Centre Street ,West Roxbury ,MA 02132",,,
The Paper Store,,Westford Valley Marketplace,,160 Littleton Road,St,ore #12,United States,1(978)392-3605,,,"The Paper Store Westford Valley Marketplace, 160 Littleton Road, Store #12 Westford,MA 01886, 1(978)392-3605 Get Directions, Westford Valley Marketplace160 Littleton Road, Store #12 ,Westford,MA 01886",,,
Hedges Designs,,13 North Franklin Street,,Chagrin Falls,OH,44022,United States,1(440)247-2344,,,"Hedges Designs 13 North Franklin Street, Chagrin Falls,OH44022 1(440)247-2344, Get Directions 13 North Franklin Street,Chagrin Falls,OH44022",,,
Henrys Ocean City,,1236 Boardwalk,,Ocean City,NJ,08226,United States,1(609)398-4238,,,"Henrys Ocean City 1236 Boardwalk, Ocean City,NJ08226 1(609)398-4238, Get Directions 1236 Boardwalk,Ocean City,NJ08226",,,
Silver Gallery,,615 Friendly Center Road,,Greensboro,NC,27408,United States,1(336)286-1414,,,"Silver Gallery 615 Friendly Center Road, Greensboro,NC27408 1(336)286-1414, Get Directions 615 Friendly Center Road ,Greensboro,NC27408",,,
Crockers Jewelers,,3908 Saint Michael Drive,,Texarkana,TX,75503,United States,1(903)832-8686,,,"Crockers Jewelers 3908 Saint Michael Drive, Texarkana ,TX75503 1(903)832-8686, Get Directions 3908 Saint Michael Drive,Texarkana ,TX75503",,,
Effie & Isabel's Giftique,,Rensselaer County Plaza,,Rensselaer,NY,12144,United States,1(518)283-5075,,,"Effie & Isabel's Giftique Rensselaer County Plaza, 279 Troy Road Rensselaer,NY12144, 1(518)283-5075 Get Directions, Rensselaer County Plaza279 Troy Road ,Rensselaer,NY12144",,,
Hannoush Jewelers,,Pheasant Lane,,Nashua,NH,03060,United States,1(603)888-4170,,,"Hannoush Jewelers Pheasant Lane, 310 Daniel Webster Highway Nashua,NH03060, 1(603)888-4170 Get Directions, Pheasant Lane310 Daniel Webster Highway ,Nashua,NH03060",,,
Hannoush Jewelers,,Fox Run Mall,,Newington,NH,03801,United States,1(603)431-9766,,,"Hannoush Jewelers Fox Run Mall, 50 Fox Run Road Newington,NH03801, 1(603)431-9766 Get Directions, Fox Run Mall50 Fox Run Road ,Newington,NH03801",,,
Hannoush Jewelers,,Chesterfield Mall,,Chesterfield,MO,63017,United States,1(636)536-2906,,,"Hannoush Jewelers Chesterfield Mall, 218 Chesterfield Mall Chesterfield,MO63017, 1(636)536-2906 Get Directions, Chesterfield Mall218 Chesterfield Mall ,Chesterfield,MO63017",,,
The Paper Store,,Ridgeway Shopping Center,,Stamford,CT,06905,United States,1(203)324-6907,,,"The Paper Store Ridgeway Shopping Center, 2215 Summer Street Stamford,CT06905, 1(203)324-6907 Get Directions, Ridgeway Shopping Center2215 Summer Street ,Stamford,CT06905",,,
The Paper Store,,652 Main Avenue,,Norwalk,CT,06851,United States,1(203)847-6077,,,"The Paper Store 652 Main Avenue, Norwalk,CT06851 1(203)847-6077, Get Directions 652 Main Avenue,Norwalk,CT06851",,,
The Paper Store,,Stratford Square Shopping Center,,Stratford,CT,06615,United States,1(203)377-1280,,,"The Paper Store Stratford Square Shopping Center, 411 Barnum Avenue Cutoff Stratford,CT06615, 1(203)377-1280 Get Directions, Stratford Square Shopping Center411 Barnum Avenue Cutoff ,Stratford,CT06615",,,
The Paper Store,,2255 Black Rock Turnpike,,Fairfield,CT,06825,United States,1(203)368-1778,,,"The Paper Store 2255 Black Rock Turnpike, Fairfield,CT06825 1(203)368-1778, Get Directions 2255 Black Rock Turnpike,Fairfield,CT06825",,,
Bloomingdale's,,504 Broadway,,New York,NY,10012,United States,1(212)729-5900,,,"Bloomingdale's 504 Broadway, New York,NY10012 1(212)729-5900, Get Directions 504 Broadway,New York,NY10012",,,
The Paper Store,,Brickyard Square,,11 Brickyard Square,Su,ite 3,United States,1(603)679-3356,,,"The Paper Store Brickyard Square, 11 Brickyard Square, Suite 3 Epping,NH03042, 1(603)679-3356 Get Directions, Brickyard Square11 Brickyard Square, Suite 3 ,Epping,NH03042",,,
Gift-ology,,Eastfield Mall,,Springfield,MA,01129,United States,1(413)543-1747,,,"Gift-ology Eastfield Mall, 1655 Boston Road Springfield,MA01129, 1(413)543-1747 Get Directions, Eastfield Mall1655 Boston Road ,Springfield,MA01129",,,
Sierra Lily,,1955 South Road,,Poughkeepsie,NY,12601,United States,1(845)297-1684,,,"Sierra Lily 1955 South Road, Suite 6 Poughkeepsie,NY12601, 1(845)297-1684 Get Directions, 1955 South RoadSuite 6 ,Poughkeepsie,NY12601",,,
Michaels Jewelers,,80 Main Street,,Torrington,CT,06790,United States,1(860)482-6553,,,"Michaels Jewelers 80 Main Street, Torrington,CT06790 1(860)482-6553, Get Directions 80 Main Street,Torrington,CT06790",,,
Michaels Jewelers,,Brass Mill Center,,Waterbury,CT,06706,United States,1(203)754-5154,,,"Michaels Jewelers Brass Mill Center, Waterbury,CT06706 1(203)754-5154, Get Directions Brass Mill Center,Waterbury,CT06706",,,
The Paper Store,,White City Shopping Center,,Shrewsbury,MA,01545,United States,1(508)831-7711,,,"The Paper Store White City Shopping Center, 50A Boston Turnpike Road Shrewsbury,MA01545, 1(508)831-7711 Get Directions, White City Shopping Center50A Boston Turnpike Road ,Shrewsbury,MA01545",,,
Markens Jewelers,,Roosevelt Field Mall,,Garden City,NY,11530,United States,1(516)873-0538,,,"Markens Jewelers Roosevelt Field Mall, 630 Old Country Road Garden City,NY11530, 1(516)873-0538 Get Directions, Roosevelt Field Mall630 Old Country Road ,Garden City,NY11530",,,
Coventry Corners,,Berkshire Mall,,Reading,PA,19610,United States,1(610)376-0445,,,"Coventry Corners Berkshire Mall, 1665 Statehill Road Reading,PA19610, 1(610)376-0445 Get Directions, Berkshire Mall 1665 Statehill Road ,Reading,PA19610",,,
Lucy's Gift Boutique,,Julington Village Shopping Center,,Jacksonville,FL, 32259,United States,1(904)287-4888,,,"Lucy's Gift Boutique Julington Village Shopping Center, 450 State Road 13 North Jacksonville,FL 32259, 1(904)287-4888 Get Directions, Julington Village Shopping Center 450 State Road 13 North ,Jacksonville,FL 32259",,,
Wish On Main,,8111 Lakewood Main Street,,Lakewood Ranch,FL, 34202,United States,,,,"Wish On Main 8111 Lakewood Main Street, Lakewood Ranch,FL 34202 Get Directions, 8111 Lakewood Main Street,Lakewood Ranch,FL 3420",,,
She Chester,,11884 Chester Village Circle,,Chester,VA,23831,United States,1(804)717-5305,,,"She Chester 11884 Chester Village Circle, Chester,VA23831 1(804)717-5305, Get Directions 11884 Chester Village Circle,Chester,VA23831",,,
Kay Cameron Jewelers,,48 Main Street,,Sayville,NY,11782,United States,1(631)567-1698,,,"Kay Cameron Jewelers 48 Main Street, Sayville,NY11782 1(631)567-1698, Get Directions 48 Main Street,Sayville,NY11782",,,
Cara's Boutique,,30179 Detroit Road,,Westlake,OH,44145,United States,1(440)899-0050,,,"Cara's Boutique 30179 Detroit Road, Westlake,OH44145 1(440)899-0050, Get Directions 30179 Detroit Road,Westlake,OH44145",,,
With Heart and Soul,,3751 Mendon Road,,Cumberland,RI, 02864,United States,1(401)658-3470,,,"With Heart and Soul 3751 Mendon Road, Cumberland,RI 02864 1(401)658-3470, Get Directions 3751 Mendon Road,Cumberland,RI 02864",,,
Occasionally Yours,,Easton Town Center,,Columbus,OH,43219,United States,1(614)454-3886,,,"Occasionally Yours Easton Town Center, 4018 Easton Station Columbus,OH43219, 1(614)454-3886 Get Directions, Easton Town Center4018 Easton Station ,Columbus,OH43219",,,
Occasionally Yours,,The Mall at Fairfield Commons,,Beavercreek,OH,43219,United States,1(937)427-3268,,,"Occasionally Yours The Mall at Fairfield Commons, 2727 Fairfield Commons Beavercreek,OH43219, 1(937)427-3268 Get Directions, The Mall at Fairfield Commons2727 Fairfield Commons ,Beavercreek,OH43219",,,
Occasionally Yours,,Hamilton Town Center,,13901 Town Center Boulevard,Su,ite 800,United States,1((317)565-1194,,,"Occasionally Yours Hamilton Town Center, 13901 Town Center Boulevard, Suite 800 Noblesville,IN46060, 1((317)565-1194 Get Directions, Hamilton Town Center13901 Town Center Boulevard, Suite 800 ,Noblesville,IN46060",,,
Carta Bella,,410 Peachtree Parkway,,Cumming,GA,30041,United States,1(770)886-0910,,,"Carta Bella 410 Peachtree Parkway, Suite 4156 Cumming,GA30041, 1(770)886-0910 Get Directions, 410 Peachtree ParkwaySuite 4156 ,Cumming,GA30041",,,
Bloomingdale's,,Chestnut Hill Mall,,Newton,MA,02467,United States,1(617)630-6000,,,"Bloomingdale's Chestnut Hill Mall, 225 Boylston Street Newton,MA02467, 1(617)630-6000 Get Directions, Chestnut Hill Mall225 Boylston Street ,Newton,MA02467",,,
Periwinkle Boutique,,Lake Success Shopping Center,,New Hyde Park,NY,11040,United States,1(516)352-3900,,,"Periwinkle Boutique Lake Success Shopping Center, 1520 Union Turnpike New Hyde Park,NY11040, 1(516)352-3900 Get Directions, Lake Success Shopping Center1520 Union Turnpike ,New Hyde Park,NY11040",,,
Mykonos,,493 Wilmington West Chester Pike,,Glen Mills,PA,19342,United States,1(610)558-8000,,,"Mykonos 493 Wilmington West Chester Pike, Glen Mills,PA19342 1(610)558-8000, Get Directions 493 Wilmington West Chester Pike,Glen Mills,PA19342",,,
Baldoria,,Market Basket Plaza,,Londonderry,NH,03053,United States,1(603)965-0020,,,"Baldoria Market Basket Plaza, 34 Nashua Road Londonderry,NH03053, 1(603)965-0020 Get Directions, Market Basket Plaza34 Nashua Road ,Londonderry,NH03053",,,
Magnolias on Main,,245 South Main Street,,Springboro,OH,45066,United States,1(937)748-4914,,,"Magnolias on Main 245 South Main Street, Springboro,OH45066 1(937)748-4914, Get Directions 245 South Main Street,Springboro,OH45066",,,
Willy Nilly Trading Co,,153 West Main Street,,Bay Shore,NY,11706,United States,1(631)666-4488,,,"Willy Nilly Trading Co 153 West Main Street, Bay Shore,NY11706 1(631)666-4488, Get Directions 153 West Main Street,Bay Shore,NY11706",,,
Baldoria,,203 South Broadway,,Salem,NH,03079,United States,1(603)898-1778,,,"Baldoria 203 South Broadway, Salem,NH03079 1(603)898-1778, Get Directions 203 South Broadway ,Salem,NH03079",,,
Navy Exchange,,Newport Naval Base,,Newport,RI,02841,United States,1(401)841-1023,,,"Navy Exchange Newport Naval Base, 1250 Hacker Avenue Newport,RI02841, 1(401)841-1023 (Must Show Valid Military ID), Get Directions Newport Naval Base1250 Hacker Avenue, ,Newport,RI0284",,,
Christopher Robert Gifts,,232 South Main Street,,New City,NY,10956,United States,1(845)634-5991,,,"Christopher Robert Gifts 232 South Main Street, New City,NY10956 1(845)634-5991, Get Directions 232 South Main Street,New City,NY10956",,,
JB Family Jewelers,,1883 Commerce Street,,Yorktown Heights,NY,10598,United States,1(914)245-2515,,,"JB Family Jewelers 1883 Commerce Street, Yorktown Heights,NY10598 1(914)245-2515, Get Directions 1883 Commerce Street,Yorktown Heights,NY10598",,,
American Candle,,216 Route 611,,Bartonsville,PA,18321,United States,1(570)629-3388,,,"American Candle 216 Route 611, Bartonsville,PA18321 1(570)629-3388, Get Directions 216 Route 611,Bartonsville,PA18321",,,
Insight,,14964 Max Leggett Parkway Suite 102,,Jacksonville,FL,32218,United States,1(904)757-9200,,,"Insight 14964 Max Leggett Parkway Suite 102, Jacksonville ,FL32218 1(904)757-9200, Get Directions 14964 Max Leggett Parkway Suite 102,Jacksonville ,FL32218",,,
The Pink Bungalow,,72 Main Street,,Madison,NJ,07940,United States,1(973)845-2940,,,"The Pink Bungalow 72 Main Street, Madison,NJ07940 1(973)845-2940, Get Directions 72 Main Street,Madison,NJ07940",,,
Gracylane,,7401 Market Street,,Youngstown,OH,44512,United States,1(330)758-4000,,,"Gracylane 7401 Market Street, Youngstown,OH44512 1(330)758-4000, Get Directions 7401 Market Street ,Youngstown,OH44512",,,
Markens Jewelers,,Queens Center Mall,,Elmhurst,NY,11373,United States,1(718)699-1340,,,"Markens Jewelers Queens Center Mall, 90-15 Queens Boulevard Elmhurst,NY11373, 1(718)699-1340 Get Directions, Queens Center Mall90-15 Queens Boulevard ,Elmhurst,NY11373",,,
Victorian Village,,6870 East Fowler Avenue,,Tampa,FL,33617,United States,1(813)989-0908,,,"Victorian Village 6870 East Fowler Avenue, Tampa,FL33617 1(813)989-0908, Get Directions 6870 East Fowler Avenue,Tampa,FL33617",,,
Something Different,,351 Town Center Boulevard,,Easton,PA,18040,United States,1(610)515-8006,,,"Something Different 351 Town Center Boulevard, Easton,PA18040 1(610)515-8006, Get Directions 351 Town Center Boulevard,Easton,PA18040",,,
The Paper Store,,Redstone Center,,Stoneham,MA,02180,United States,1(781)438-6488,,,"The Paper Store Redstone Center, 99C Main Street Stoneham,MA02180, 1(781)438-6488 Get Directions, Redstone Center99C Main Street ,Stoneham,MA02180",,,
Hannoush Jewelers,,Swansea Mall,,Swansea,MA,02777,United States,1(508)676-6733,,,"Hannoush Jewelers Swansea Mall, 262 Swansea Mall Drive Swansea,MA02777, 1(508)676-6733 Get Directions, Swansea Mall262 Swansea Mall Drive ,Swansea,MA02777",,,
Hannoush Jewelers,,Crystal Mall,,850 Hartford Turnpike,Su,ite M113,United States,1(860)447-1922,,,"Hannoush Jewelers Crystal Mall, 850 Hartford Turnpike, Suite M113 Waterford,CT06385, 1(860)447-1922 Get Directions, Crystal Mall850 Hartford Turnpike, Suite M113 ,Waterford,CT06385",,,
Hannoush Jewelers,,University Mall,,South Burlington,VT,05403,United States,1(802)658-0707,,,"Hannoush Jewelers University Mall, 155 Dorset Street South Burlington,VT05403, 1(802)658-0707 Get Directions, University Mall155 Dorset Street ,South Burlington,VT05403",,,
Hannoush Jewelers,,Holyoke Mall,,Holyoke,MA,01040,United States,1(413)536-7353,,,"Hannoush Jewelers Holyoke Mall, 50 Holyoke Street Holyoke,MA01040, 1(413)536-7353 Get Directions, Holyoke Mall50 Holyoke Street ,Holyoke,MA01040",,,
Hannoush Jewelers,,227 Main Street,,Northampton,MA,01060,United States,1(413)584-8056,,,"Hannoush Jewelers 227 Main Street, Northampton,MA01060 1(413)584-8056, Get Directions 227 Main Street,Northampton,MA01060",,,
Hannoush Jewelers,,355 South Broadway,,Salem,NH,03079,United States,1(603)893-7303,,,"Hannoush Jewelers 355 South Broadway, Route 28 Salem,NH03079, 1(603)893-7303 Get Directions, 355 South BroadwayRoute 28 ,Salem,NH03079",,,
Hannoush Jewelers,,Carousel Center,,Syracuse,NY,13290,United States,1(315)466-1301,,,"Hannoush Jewelers Carousel Center, 9501 Carousel Center Syracuse,NY13290, 1(315)466-1301 Get Directions, Carousel Center9501 Carousel Center ,Syracuse,NY13290",,,
Hannoush Jewelers,,Hampshire Mall,,Hadley,MA,01035,United States,1(413)586-8606,,,"Hannoush Jewelers Hampshire Mall, 367 Russell Street Hadley,MA01035, 1(413)586-8606 Get Directions, Hampshire Mall367 Russell Street ,Hadley,MA01035",,,
Hannoush Jewelers,,Tri County Mall,,Cincinnati,OH,45246,United States,1(513)671-1221,,,"Hannoush Jewelers Tri County Mall, 11700 Princeton Pike Cincinnati,OH45246, 1(513)671-1221 Get Directions, Tri County Mall11700 Princeton Pike ,Cincinnati,OH45246",,,
Hannoush Jewelers,,Kenwood Towne Center,,Cincinnati,OH,45236,United States,1(513)793-6161,,,"Hannoush Jewelers Kenwood Towne Center, 7875 Montgomery Road Cincinnati,OH45236, 1(513)793-6161 Get Directions, Kenwood Towne Center7875 Montgomery Road ,Cincinnati,OH45236",,,
Hannoush Jewelers,,Eastgate Mall,,Cincinnati,OH,45245,United States,1(513)752-6400,,,"Hannoush Jewelers Eastgate Mall, 4601 Eastgate Boulevard Cincinnati,OH45245, 1(513)752-6400 Get Directions, Eastgate Mall4601 Eastgate Boulevard ,Cincinnati,OH45245",,,
Hannoush Jewelers,,Northgate Mall,,Cincinnati,OH,45251,United States,1(513)385-2802,,,"Hannoush Jewelers Northgate Mall, 9513 Colerain Avenue Cincinnati,OH45251, 1(513)385-2802 Get Directions, Northgate Mall9513 Colerain Avenue ,Cincinnati,OH45251",,,
Hannoush Jewelers,,Florence Mall,,Florence,KY,41042,United States,1(859)283-5340,,,"Hannoush Jewelers Florence Mall, 2158 Florence Mall Florence,KY41042, 1(859)283-5340 Get Directions, Florence Mall2158 Florence Mall ,Florence,KY41042",,,
Hannoush Jewelers,,Oak Park Mall,,Overland Park,KS,66214,United States,1(913)888-1211,,,"Hannoush Jewelers Oak Park Mall, 11573 West 95th Street Overland Park,KS66214, 1(913)888-1211 Get Directions, Oak Park Mall11573 West 95th Street ,Overland Park,KS66214",,,
Hannoush Jewelers,,Port Charlotte Town Center,,Port Charlotte,FL,33948,United States,1(941)624-5428,,,"Hannoush Jewelers Port Charlotte Town Center, 1441 Tamiami Trail Port Charlotte,FL33948, 1(941)624-5428 Get Directions, Port Charlotte Town Center1441 Tamiami Trail ,Port Charlotte,FL33948",,,
Hannoush Jewelers,,Tyrone Square,,St. Petersburg,FL,33710,United States,1(727)345-9200,,,"Hannoush Jewelers Tyrone Square, 6757 Tyrone Square St. Petersburg,FL33710, 1(727)345-9200 Get Directions, Tyrone Square6757 Tyrone Square ,St. Petersburg,FL33710",,,
Hannoush Jewelers,,Mid Rivers Mall,,2118 Mid Rivers Mall,Su,ite 1268,United States,1(636)397-8878,,,"Hannoush Jewelers Mid Rivers Mall, 2118 Mid Rivers Mall, Suite 1268 St. Peters,MO63376, 1(636)397-8878 Get Directions, Mid Rivers Mall2118 Mid Rivers Mall, Suite 1268 ,St. Peters,MO63376",,,
Hannoush Jewelers,,Silver City Galleria,,Taunton,MA,02780,United States,1(508)824-3410,,,"Hannoush Jewelers Silver City Galleria, 2 Galleria Mall Drive Taunton,MA02780, 1(508)824-3410 Get Directions, Silver City Galleria2 Galleria Mall Drive ,Taunton,MA02780",,,
Hannoush Jewelers,,Auburn Mall,,Auburn,MA,01501,United States,1(508)832-9492,,,"Hannoush Jewelers Auburn Mall, 385 Southbridge Street Auburn,MA01501, 1(508)832-9492 Get Directions, Auburn Mall385 Southbridge Street ,Auburn,MA01501",,,
Hannoush Jewelers,,Emerald Square Mall,,North Attleboro,MA,02760,United States,1(508)643-9118,,,"Hannoush Jewelers Emerald Square Mall, 212 Emerald Square North Attleboro,MA02760, 1(508)643-9118 Get Directions, Emerald Square Mall212 Emerald Square ,North Attleboro,MA02760",,,
Hannoush Jewelers,,Square One Mall,,Saugus,MA,01906,United States,1(781)231-2622,,,"Hannoush Jewelers Square One Mall, 1277 Broadway Saugus,MA01906, 1(781)231-2622 Get Directions, Square One Mall1277 Broadway ,Saugus,MA01906",,,
Hannoush Jewelers,,Maine Mall,,South Portland,ME,04106,United States,1(207)879-0365,,,"Hannoush Jewelers Maine Mall, 364 Maine Mall Road South Portland,ME04106, 1(207)879-0365 Get Directions, Maine Mall364 Maine Mall Road ,South Portland,ME04106",,,
Hannoush Jewelers,,Berkshire Mall,,Lanesboro,MA,02137,United States,1(413)445-8895,,,"Hannoush Jewelers Berkshire Mall, 1 Berkshire Mall Lanesboro,MA02137, 1(413)445-8895 Get Directions, Berkshire Mall1 Berkshire Mall ,Lanesboro,MA02137",,,
Hannoush Jewelers,,Galleria at Crystal Run,,1 Galleria Drive,Su,ite 42,United States,1(845)692-3466,,,"Hannoush Jewelers Galleria at Crystal Run, 1 Galleria Drive, Suite 42 Middletown,NY10941, 1(845)692-3466 Get Directions, Galleria at Crystal Run1 Galleria Drive, Suite 42 ,Middletown,NY10941",,,
Hannoush Jewelers,,Sangertown Mall,,New Hartford,NY,13413,United States,1(315)732-5420,,,"Hannoush Jewelers Sangertown Mall, 1 Sangertown Square New Hartford,NY13413, 1(315)732-5420 Get Directions, Sangertown Mall1 Sangertown Square ,New Hartford,NY13413",,,
Hannoush Jewelers,,Liberty Square,,Falmouth,MA,02540,United States,1(508)548-9107,,,"Hannoush Jewelers Liberty Square, 352 Main Street Falmouth,MA02540, 1(508)548-9107 Get Directions, Liberty Square352 Main Street ,Falmouth,MA02540",,,
Hannoush Jewelers,,Capetown Plaza,,Hyannis,MA,02601,United States,1(508)771-8984,,,"Hannoush Jewelers Capetown Plaza, Route 132 Hyannis,MA02601, 1(508)771-8984 Get Directions, Capetown PlazaRoute 132 ,Hyannis,MA02601",,,
Hannoush Jewelers,,Greendale Mall,,Worcester,MA,01606,United States,1(508)852-3045,,,"Hannoush Jewelers Greendale Mall, 7 Neponset Street Worcester,MA01606, 1(508)852-3045 Get Directions, Greendale Mall7 Neponset Street ,Worcester,MA01606",,,
Hannoush Jewelers,,Whitney Field Mall,,100 Commercial Road,Su,ite 28,United States,1(978)840-6939,,,"Hannoush Jewelers Whitney Field Mall, 100 Commercial Road, Suite 28 Leominster,MA01453, 1(978)840-6939 Get Directions, Whitney Field Mall100 Commercial Road, Suite 28 ,Leominster,MA01453",,,
Hannoush Jewelers,,950 South Willow Street,,Manchester,NH,03103,United States,1(603)641-8888,,,"Hannoush Jewelers 950 South Willow Street, Manchester,NH03103 1(603)641-8888, Get Directions 950 South Willow Street,Manchester,NH03103",,,
Hannoush Jewelers,,North Dartmouth Mall,,North Dartmouth,MA,02747,United States,1(508)979-4686,,,"Hannoush Jewelers North Dartmouth Mall, 151 North Dartmouth Mall Road North Dartmouth,MA02747, 1(508)979-4686 Get Directions, North Dartmouth Mall151 North Dartmouth Mall Road ,North Dartmouth,MA02747",,,
Hannoush Jewelers,,Edison Mall,,Fort Myers,FL,33901,United States,1(239)332-2549,,,"Hannoush Jewelers Edison Mall, 4125 Cleveland Avenue Fort Myers,FL33901, 1(239)332-2549 Get Directions, Edison Mall4125 Cleveland Avenue ,Fort Myers,FL33901",,,
Diva Divine,,23425 North Scottsdale Road,,Scottsdale,AZ,85255,United States,1(480)585-2570,,,"Diva Divine 23425 North Scottsdale Road, A-1 Scottsdale,AZ85255, 1(480)585-2570 Get Directions, 23425 North Scottsdale RoadA-1 ,Scottsdale,AZ85255",,,
The Classic Duck,,2400 Sonoma Avenue,,Santa Rosa,CA,95405,United States,1(707)575-0755,,,"The Classic Duck 2400 Sonoma Avenue, Santa Rosa,CA95405 1(707)575-0755, Get Directions 2400 Sonoma Avenue,Santa Rosa,CA95405",,,
Artsy Abode at St. Johns Town Center,,4764 River City Drive,,Jacksonville,FL,32246,United States,1(904)807-9277,,,"Artsy Abode at St. Johns Town Center 4764 River City Drive, Suite 107 Jacksonville,FL32246, 1(904)807-9277 Get Directions, 4764 River City DriveSuite 107 ,Jacksonville,FL32246",,,
Malsons Jewelers,,464 86th Street,,Brooklyn,NY,11209,United States,1(718)491-6666,,,"Malsons Jewelers 464 86th Street, Brooklyn,NY11209 1(718)491-6666, Get Directions 464 86th Street,Brooklyn,NY11209",,,
Hannoush Jewelers,,"5065 Main Street, R263",,Trumbull,CT,06611,United States,1(203)374-3758,,,"Hannoush Jewelers 5065 Main Street, R263, Trumbull,CT06611 1(203)374-3758, Get Directions 5065 Main Street, R263,Trumbull,CT06611",,,
Hannoush Jewelers,,Solomon Pond Mall,,601 Donald Lynch Boulevard,Su,ite 232,United States,1(508)303-6595,,,"Hannoush Jewelers Solomon Pond Mall, 601 Donald Lynch Boulevard,Suite 232 Marlborough,MA01752, 1(508)303-6595 Get Directions, Solomon Pond Mall 601 Donald Lynch Boulevard,Suite 232 ,Marlborough,MA01752",,,
Navy Exchange,,New London Naval Base,,Groton,CT,06340,United States,1(860)446-5400,,,"Navy Exchange New London Naval Base, 1 Crystal Lake Road Groton,CT06340, 1(860)446-5400 (Must Show Valid Military ID), Get Directions New London Naval Base1 Crystal Lake Road, ,Groton,CT0634",,,
25 Silver Boutique,,168 Canada Street,,Lake George,NY,12845,United States,1(518)668-0400,,,"25 Silver Boutique 168 Canada Street, Lake George,NY12845 1(518)668-0400, Get Directions 168 Canada Street,Lake George,NY12845",,,
"Evergreen Framing Co & Gallery, Inc",,3295 South 2000 East,,Salt Lake City,UT,84109,United States,1(801)467-8770,,,"Evergreen Framing Co & Gallery, Inc 3295 South 2000 East, Salt Lake City,UT84109 1(801)467-8770, Get Directions 3295 South 2000 East,Salt Lake City,UT84109",,,
Hartville Collectibles,,1015 Edison Street,,Hartville,OH,44632,United States,1(330)877-2172,,,"Hartville Collectibles 1015 Edison Street, Hartville,OH44632 1(330)877-2172, Get Directions 1015 Edison Street,Hartville,OH44632",,,
Julia Vogue,,7973 North Blackstone Avenue,,Fresno,CA,93720,United States,1(559)432-3400,,,"Julia Vogue 7973 North Blackstone Avenue, Fresno,CA93720 1(559)432-3400, Get Directions 7973 North Blackstone Avenue,Fresno,CA93720",,,
Youve Been Framed,,5015 South Western Avenue,,Sioux Falls,SD,57108,United States,1(605)361-9229,,,"Youve Been Framed 5015 South Western Avenue, Suite 140 Sioux Falls,SD57108, 1(605)361-9229 Get Directions, 5015 South Western AvenueSuite 140 ,Sioux Falls,SD57108",,,
Bloomingdale's,,175 Bloomingdale Road,,White Plains,NY,10605,United States,1(914)684-6300,,,"Bloomingdale's 175 Bloomingdale Road, White Plains,NY10605 1(914)684-6300, Get Directions 175 Bloomingdale Road,White Plains,NY10605",,,
Bloomingdale's,,Bridgewater Commons,,Bridgewater,NJ,08807,United States,1(908)762-2400,,,"Bloomingdale's Bridgewater Commons, 410 Commons Way Bridgewater,NJ08807, 1(908)762-2400 Get Directions, Bridgewater Commons410 Commons Way ,Bridgewater,NJ08807",,,
Jeff Dennis Jewelers,,300 Fieldstown Road,,Gardendale,AL,35071,United States,1(205)631-4848,,,"Jeff Dennis Jewelers 300 Fieldstown Road, Gardendale,AL35071 1(205)631-4848, Get Directions 300 Fieldstown Road,Gardendale,AL35071",,,
Fond Memories,,200 Tuckerton Road,,Medford,NJ,08055,United States,1(856)596-6536,,,"Fond Memories 200 Tuckerton Road, Medford,NJ08055 1(856)596-6536, Get Directions 200 Tuckerton Road,Medford,NJ08055",,,
Occasionally Yours,,Polaris Fashion Place,,Columbus,OH,43240,United States,1(614)431-3662,,,"Occasionally Yours Polaris Fashion Place, 1500 Polaris Parkway Columbus,OH43240, 1(614)431-3662 Get Directions, Polaris Fashion Place1500 Polaris Parkway ,Columbus,OH43240",,,
Cooper & Binkley Jewelers,,105 West Main Street,,Brighton,MI,48116,United States,1(810)227-2221,,,"Cooper & Binkley Jewelers 105 West Main Street, Brighton,MI48116 1(810)227-2221, Get Directions 105 West Main Street,Brighton,MI48116",,,
Becky Beauchine Kulka,,Diamonds and Fine Jewelry,,3544 Meridian Crossing,Su,ite #150,United States,1(517)347-4000,,,"Becky Beauchine Kulka Diamonds and Fine Jewelry, 3544 Meridian Crossing, Suite #150 Okemos,MI48864, 1(517)347-4000 Get Directions, Diamonds and Fine Jewelry 3544 Meridian Crossing, Suite #150 ,Okemos,MI48864",,,
Estilo Interiors & Gifts,,The Vineyard Shopping Center,,San Antonio,TX,78258,United States,1(210)764-0100,,,"Estilo Interiors & Gifts The Vineyard Shopping Center, 1207 North Loop 1604 West Suite #104 San Antonio ,TX78258, 1(210)764-0100 Get Directions, The Vineyard Shopping Center1207 North Loop 1604 West Suite #104 ,San Antonio ,TX78258",,,
Artsy Abode at the Oaks Mall,,6223 West Newberry Road,,Gainesville,FL,32605,United States,1(352)332-2127,,,"Artsy Abode at the Oaks Mall 6223 West Newberry Road, Suite H-10 Gainesville ,FL32605, 1(352)332-2127 Get Directions, 6223 West Newberry Road Suite H-10 ,Gainesville ,FL32605",,,
Artsy Abode at St. Augustine,,41 King Street,,St. Augustine,FL,32084,United States,1(904)460-2436,,,"Artsy Abode at St. Augustine 41 King Street, St. Augustine ,FL32084 1(904)460-2436, Get Directions 41 King Street,St. Augustine ,FL32084",,,
Artsy Abode at the Avenues Mall,,10300 Southside Boulevard,,Jacksonville,FL,32256,United States,1(904)363-0502,,,"Artsy Abode at the Avenues Mall 10300 Southside Boulevard, Suite 1440B Jacksonville ,FL32256, 1(904)363-0502 Get Directions, 10300 Southside BoulevardSuite 1440B ,Jacksonville ,FL32256",,,
Artsy Abode at Daytona Beach,,1700 West International Speedway,,Daytona Beach,FL,32114,United States,1(386)238-0509,,,"Artsy Abode at Daytona Beach 1700 West International Speedway, Suite 570 Daytona Beach ,FL32114, 1(386)238-0509 Get Directions, 1700 West International Speedway Suite 570 ,Daytona Beach ,FL32114",,,
Artsy Abode at Ocala,,4414 South West College Road,,Ocala,FL,34474,United States,1(352)237-9771,,,"Artsy Abode at Ocala 4414 South West College Road, Suite 2100 Ocala,FL34474, 1(352)237-9771 Get Directions, 4414 South West College Road Suite 2100 ,Ocala,FL34474",,,
Artsy Abode at Fleming Island,,5000 US Highway 17 South,,Fleming Island,FL,32003,United States,1(904)278-8400,,,"Artsy Abode at Fleming Island 5000 US Highway 17 South, Suite 5 Fleming Island ,FL32003, 1(904)278-8400 Get Directions, 5000 US Highway 17 South Suite 5 ,Fleming Island ,FL32003",,,
Bel Boutique,,28 West Loockerman Street,,Dover,DE,19904,United States,1(302)741-2340,,,"Bel Boutique 28 West Loockerman Street, Dover,DE19904 1(302)741-2340, Get Directions 28 West Loockerman Street,Dover,DE19904",,,
Touche,,116 South Main Street,,Bountiful,UT,84010,United States,1(801)299-8372,,,"Touche 116 South Main Street, Suite 1 Bountiful,UT84010, 1(801)299-8372 Get Directions, 116 South Main StreetSuite 1 ,Bountiful,UT84010",,,
Eco Chic,,117 Main Street,,Kingston,MA,02364,United States,1(781)422-3188,,,"Eco Chic 117 Main Street, Kingston,MA02364 1(781)422-3188, Get Directions 117 Main Street,Kingston,MA02364",,,
Gift-ology,,Eastern Hills Mall,,Williamsville,NY,14221,United States,1(716)633-1600,,,"Gift-ology Eastern Hills Mall, 4545 Transit Road Williamsville,NY14221, 1(716)633-1600 Get Directions, Eastern Hills Mall4545 Transit Road ,Williamsville,NY14221",,,
The Paper Store,,The Maine Mall,,South Portland,ME,04106,United States,1(207)209-4511,,,"The Paper Store The Maine Mall, 364 Maine Mall Road South Portland,ME04106, 1(207)209-4511 Get Directions, The Maine Mall364 Maine Mall Road ,South Portland,ME04106",,,
La Vie Boutique,,"8306 Tamarack Village, #401",,Woodbury,MN,55125,United States,1(651)738-8351,,,"La Vie Boutique 8306 Tamarack Village, #401, Woodbury,MN55125 1(651)738-8351, Get Directions 8306 Tamarack Village, #401,Woodbury,MN55125",,,
Venice Jewelers,,240 Page Avenue,,Staten Island,NY,10307,United States,1(718)605-6838,,,"Venice Jewelers 240 Page Avenue, Staten Island,NY10307 1(718)605-6838, Get Directions 240 Page Avenue,Staten Island,NY10307",,,
Lucy's Gift Boutique,,Oakleaf Town Center,,Jacksonville,FL,32222,United States,1(860)227-5971,,,"Lucy's Gift Boutique Oakleaf Town Center, 9640 Crosshill Boulevard Jacksonville,FL32222, 1(860)227-5971 Get Directions, Oakleaf Town Center 9640 Crosshill Boulevard ,Jacksonville,FL32222",,,
Eclections,,495 North Fenway Drive,,Fenton,MI,48430,United States,1(810)629-2019,,,"Eclections 495 North Fenway Drive, Fenton,MI48430 1(810)629-2019, Get Directions 495 North Fenway Drive,Fenton,MI48430",,,
Pizazz,,4425 Lyons Road Suite F112,,Coconut Creek,FL,33073,United States,1(954)970-5151,,,"Pizazz 4425 Lyons Road Suite F112, Coconut Creek,FL33073 1(954)970-5151, Get Directions 4425 Lyons Road Suite F112,Coconut Creek,FL33073",,,
EMBELLAS,,Colonial Park Mall,,Harrisburg,PA,17109,United States,1(717)652-5909,,,"EMBELLAS Colonial Park Mall, 4600 Jonestown Road Harrisburg,PA17109, 1(717)652-5909 Get Directions, Colonial Park Mall4600 Jonestown Road ,Harrisburg,PA17109",,,
Vernon Powell Shoe Co.,,2401 East Naylor Mill Road,,Salisbury,MD,21804,United States,1(410)749-4561,,,"Vernon Powell Shoe Co. 2401 East Naylor Mill Road, Salisbury,MD21804 1(410)749-4561, Get Directions 2401 East Naylor Mill Road,Salisbury,MD21804",,,
The Paper Store,,14 Stephen King Drive,,Augusta,ME,04330,United States,,,,"The Paper Store 14 Stephen King Drive, Suite 3 Augusta,ME04330, Get Directions 14 Stephen King DriveSuite 3, ,Augusta,ME0433",,,
Insight at Jacksonville International Airport,,2400 Yankee Clipper Drive,,Jacksonville,FL,32218,United States,1(904)741-3770,,,"Insight at Jacksonville International Airport 2400 Yankee Clipper Drive, Jacksonville,FL32218 1(904)741-3770, Get Directions 2400 Yankee Clipper Drive,Jacksonville,FL32218",,,
Details for the Home,,6590 Jefferson Street,,Haymarket,VA,20169,United States,1(703)754-0000,,,"Details for the Home 6590 Jefferson Street, Haymarket,VA20169 1(703)754-0000, Get Directions 6590 Jefferson Street,Haymarket,VA20169",,,
Gift-ology,,Walden Galleria Mall,,Cheektowaga,NY,14225,United States,1(716)685-7494,,,"Gift-ology Walden Galleria Mall, One Walden Galleria Cheektowaga,NY14225, 1(716)685-7494 Get Directions, Walden Galleria MallOne Walden Galleria ,Cheektowaga,NY14225",,,
Uptown Gifts and Accessories,,114 North Street,,Normal,IL,61761,United States,1(309)452-7999,,,"Uptown Gifts and Accessories 114 North Street, Suite D Normal,IL61761, 1(309)452-7999 Get Directions, 114 North Street Suite D ,Normal,IL61761",,,
LavenderBlue,,44 Manchester Avenue,,Forked River,NJ,08731,United States,1(609)971-8880,,,"LavenderBlue 44 Manchester Avenue, Unit 6 Forked River ,NJ08731, 1(609)971-8880 Get Directions, 44 Manchester Avenue Unit 6 ,Forked River ,NJ08731",,,
Gift-ology,,Hampshire Mall,,Hadley,MA,01035,United States,,,,"Gift-ology Hampshire Mall, 367 Russell Street Hadley,MA01035, 1(413)5868606 Get Directions, Hampshire Mall367 Russell Street ,Hadley,MA01035",,,
Navy Exchange,,Norfolk Naval Base,,Norfolk,VA,23511,United States,,,,"Navy Exchange Norfolk Naval Base, 1560 Mall Drive Norfolk,VA23511, (Must Show Valid Military ID) Get Directions, Norfolk Naval Base1560 Mall Drive ,Norfolk,VA23511",,,
The Paper Store,,MarketStreet,,Lynnfield,MA,01940,United States,1(781)334-8700,,,"The Paper Store MarketStreet, 427 Walnut Street Lynnfield,MA01940, 1(781)334-8700 Get Directions, MarketStreet427 Walnut Street ,Lynnfield,MA01940",,,
The Paper Store,,Branhaven Plaza,,Branford,CT,06405,United States,1(203)488-8994,,,"The Paper Store Branhaven Plaza, 1060 West Main Street Branford,CT06405, 1(203)488-8994 Get Directions, Branhaven Plaza1060 West Main Street ,Branford,CT06405",,,
Purse Strings at Clay Terrace,,14300 Clay Terrace Boulevard #130,,Carmel,IN,46032,United States,1(317)846-8372,,,"Purse Strings at Clay Terrace 14300 Clay Terrace Boulevard #130, Carmel,IN46032 1(317)846-8372, Get Directions 14300 Clay Terrace Boulevard #130,Carmel,IN46032",,,
Purse Strings at Metropolis,,"351 Metropolis Mile, #100",,Plainfield,IN,46168,United States,1(317)839-5700,,,"Purse Strings at Metropolis 351 Metropolis Mile, #100, Plainfield,IN46168 1(317)839-5700, Get Directions 351 Metropolis Mile, #100,Plainfield,IN46168",,,
Chelsea's #3,,Tippecanoe Mall #F02 A,,Lafayette,IN,47905,United States,1(765)446-8100,,,"Chelsea's #3 Tippecanoe Mall #F02 A, 2415 Sagamore Parkway South Lafayette,IN47905, 1(765)446-8100 Get Directions, Tippecanoe Mall #F02 A2415 Sagamore Parkway South ,Lafayette,IN47905",,,
Occasionally Yours,,The Greene Town Center,,Beavercreek,OH,45440,United States,1(937)320-0200,,,"Occasionally Yours The Greene Town Center, 4469 Cedar Park Drive Beavercreek,OH45440, 1(937)320-0200 Get Directions, The Greene Town Center4469 Cedar Park Drive ,Beavercreek,OH45440",,,
Gift-ology,,Salmon Run Mall,,Watertown,NY,13601,United States,1(315)782-0000,,,"Gift-ology Salmon Run Mall, 21182 Salmon Run Mall Loop West Watertown,NY13601, 1(315)782-0000 Get Directions, Salmon Run Mall21182 Salmon Run Mall Loop West ,Watertown,NY13601",,,
Warren Jewelers,,1490 Harrisburg Pike,,Lancaster,PA,17601,United States,1(717)299-3088,,,"Warren Jewelers 1490 Harrisburg Pike, Lancaster,PA17601 1(717)299-3088, Get Directions 1490 Harrisburg Pike,Lancaster,PA17601",,,
Marlee's by Tapper's,,2800 West Big Beaver Road,,Troy,MI,48084,United States,1(248)380-9900,,,"Marlee's by Tapper's 2800 West Big Beaver Road, Troy,MI48084 1(248)380-9900, Get Directions 2800 West Big Beaver Road,Troy,MI48084",,,
Artsy Abode at Orange Park,,280 Blanding Boulevard,,Orange Park,FL,32073,United States,1(904)458-4961,,,"Artsy Abode at Orange Park 280 Blanding Boulevard, Orange Park,FL32073 1(904)458-4961, Get Directions 280 Blanding Boulevard,Orange Park,FL32073",,,
Artsy Abode at Ponte Vedra,,"330 A1A North, Suite 304",,Ponte Vedra Beach,FL,32082,United States,1(904)834-2804,,,"Artsy Abode at Ponte Vedra 330 A1A North, Suite 304, Ponte Vedra Beach,FL32082 1(904)834-2804, Get Directions 330 A1A North, Suite 304,Ponte Vedra Beach,FL32082",,,
Artsy Abode at Orange City,,1039 Harley Strickland Boulevard,,Orange City,FL,32763,United States,1(386)456-0400,,,"Artsy Abode at Orange City 1039 Harley Strickland Boulevard, Suite 600 Orange City,FL32763, 1(386)456-0400 Get Directions, 1039 Harley Strickland BoulevardSuite 600 ,Orange City,FL32763",,,
Gift-ology,,Blue Back Square,,West Hartford,CT,06107,United States,1(860)257-5700,,,"Gift-ology Blue Back Square, 55 Memorial Blvd West Hartford,CT06107, 1(860)257-5700 Get Directions, Blue Back Square55 Memorial Blvd ,West Hartford,CT06107",,,
Gift-ology,,Crossgates Mall,,Albany,NY,12203,United States,1(518)456-4646,,,"Gift-ology Crossgates Mall, 1 Crossgates Mall Road Albany,NY12203, 1(518)456-4646 Get Directions, Crossgates Mall1 Crossgates Mall Road ,Albany,NY12203",,,
Gift-ology,,Marketplace Mall,,Rochester,NY,14623,United States,1(585)292-1900,,,"Gift-ology Marketplace Mall, 1 Miracle Mile Drive Rochester,NY14623, 1(585)292-1900 Get Directions, Marketplace Mall1 Miracle Mile Drive ,Rochester,NY14623",,,
Navy Exchange,,San Diego Naval Base,,San Diego,CA,92136,United States,1(619)544-2100,,,"Navy Exchange San Diego Naval Base, 2260 Callagan Highway San Diego,CA92136, 1(619)544-2100 (Must Show Valid Military ID), Get Directions San Diego Naval Base2260 Callagan Highway, ,San Diego,CA9213",,,
Navy Exchange,,Pearl Harbor Naval Base,,Honolulu,HI,96818,United States,1(808)423-3344,,,"Navy Exchange Pearl Harbor Naval Base, 4725 Bougainville Drive Honolulu,HI96818, 1(808)423-3344 (Must Show Valid Military ID), Get Directions Pearl Harbor Naval Base4725 Bougainville Drive, ,Honolulu,HI9681",,,
Reeds Jewelers,,Melbourne Square,,1700 West New Haven Avenue,Un,it 309A,United States,1(321)728-7997,,,"Reeds Jewelers Melbourne Square, 1700 West New Haven Avenue, Unit 309A Melbourne,FL32904, 1(321)728-7997 Get Directions, Melbourne Square1700 West New Haven Avenue, Unit 309A ,Melbourne,FL32904",,,
Reeds Jewelers,,Southpark Mall,,186 South Park Circle,Sp,ace F-5,United States,1(804) 520-2948,,,"Reeds Jewelers Southpark Mall, 186 South Park Circle, Space F-5 Colonial Heights,VA23834, 1(804) 520-2948 Get Directions, Southpark Mall186 South Park Circle, Space F-5 ,Colonial Heights,VA23834",,,
Reeds Jewelers,,Magnolia Mall,,Florence,SC,29501,United States,1(843)667-0861,,,"Reeds Jewelers Magnolia Mall, 2701 David H. McLeod Boulevard Florence,SC29501, 1(843)667-0861 Get Directions, Magnolia Mall2701 David H. McLeod Boulevard ,Florence,SC29501",,,
Reeds Jewelers,,The Village at Sandhill,,Columbia,SC,29229,United States,1(803)699-9693,,,"Reeds Jewelers The Village at Sandhill, 630-7 Promenade Place Columbia,SC29229, 1(803)699-9693 Get Directions, The Village at Sandhill630-7 Promenade Place ,Columbia,SC29229",,,
Reeds Jewelers,,Jacksonville Mall,,Jacksonville,NC,28546,United States,1(910)353-7333,,,"Reeds Jewelers Jacksonville Mall, 375 Western Boulevard Jacksonville,NC28546, 1(910)353-7333 Get Directions, Jacksonville Mall375 Western Boulevard ,Jacksonville,NC28546",,,
Reeds Jewelers,,Westfield Shoppingtown at Eastridge,,Gastonia,NC,28054,United States,1(704)864-7797,,,"Reeds Jewelers Westfield Shoppingtown at Eastridge, Space 245-B Gastonia,NC28054, 1(704)864-7797 Get Directions, Westfield Shoppingtown at EastridgeSpace 245-B ,Gastonia,NC28054",,,
Reeds Jewelers,,Coastal Grand Mall,,2000 Coastal Grand Circle,Sp,ace 195,United States,1(843)626-3588,,,"Reeds Jewelers Coastal Grand Mall, 2000 Coastal Grand Circle, Space 195 Myrtle Beach,SC29577, 1(843)626-3588 Get Directions, Coastal Grand Mall2000 Coastal Grand Circle, Space 195 ,Myrtle Beach,SC29577",,,
Reeds Jewelers,,Greenville Mall,,Greenville,NC,27858,United States,1(252)756-6683,,,"Reeds Jewelers Greenville Mall, 714 South East Greenville Boulevard Greenville,NC27858, 1(252)756-6683 Get Directions, Greenville Mall714 South East Greenville Boulevard ,Greenville,NC27858",,,
Reeds Jewelers,,Santa Rosa Mall,,Mary Esther,FL,32569,United States,1(850)244-2416,,,"Reeds Jewelers Santa Rosa Mall, 300 Mary Esther Boulevard Suite 17 Mary Esther,FL32569, 1(850)244-2416 Get Directions, Santa Rosa Mall300 Mary Esther Boulevard Suite 17 ,Mary Esther,FL32569",,,
Reeds Jewelers,,Carolina Place Mall,,11025 Carolina Place Parkway,Su,ite D23,United States,1(704)543-9394,,,"Reeds Jewelers Carolina Place Mall, 11025 Carolina Place Parkway, Suite D23 Pineville,NC28134, 1(704)543-9394 Get Directions, Carolina Place Mall11025 Carolina Place Parkway, Suite D23 ,Pineville,NC28134",,,
Reeds Jewelers,,Northlake Mall,,6801 North Lake Mall Boulevard,Su,ite 155,United States,1(704)509-1697,,,"Reeds Jewelers Northlake Mall, 6801 North Lake Mall Boulevard, Suite 155 Charlotte,NC28216, 1(704)509-1697 Get Directions, Northlake Mall6801 North Lake Mall Boulevard, Suite 155 ,Charlotte,NC28216",,,
Reeds Jewelers,,Valley Mall,,Hagerstown,MD,21740,United States,1(301)582-0570,,,"Reeds Jewelers Valley Mall, 17301 Valley Mall Road Hagerstown,MD21740, 1(301)582-0570 Get Directions, Valley Mall17301 Valley Mall Road ,Hagerstown,MD21740",,,
Reeds Jewelers,,White Marsh Mall,,8200 Perry Hall Boulevard,Sp,ace 1132,United States,1(410)931-7222,,,"Reeds Jewelers White Marsh Mall, 8200 Perry Hall Boulevard, Space 1132 Baltimore,MD21236, 1(410)931-7222 Get Directions, White Marsh Mall8200 Perry Hall Boulevard, Space 1132 ,Baltimore,MD21236",,,
Reeds Jewelers,,Mayfaire Town Center,,Wilmington,NC,28405,United States,1(910)256-2962,,,"Reeds Jewelers Mayfaire Town Center, 926 Inspiration Drive Wilmington,NC28405, 1(910)256-2962 Get Directions, Mayfaire Town Center926 Inspiration Drive ,Wilmington,NC28405",,,
Reeds Jewelers,,Arundel Mills,,7000 Arundel Mills Circle,Sp,ace 473,United States,1(410)799-0858,,,"Reeds Jewelers Arundel Mills, 7000 Arundel Mills Circle, Space 473 Hanover,MD21076, 1(410)799-0858 Get Directions, Arundel Mills7000 Arundel Mills Circle, Space 473 ,Hanover,MD21076",,,
Reeds Jewelers,,The Streets at Southpoint,,6910 Fayetteville Road,Su,ite 114,United States,1(919)544-1174,,,"Reeds Jewelers The Streets at Southpoint, 6910 Fayetteville Road, Suite 114 Durham,NC27713, 1(919)544-1174 Get Directions, The Streets at Southpoint6910 Fayetteville Road, Suite 114 ,Durham,NC27713",,,
Reeds Jewelers,,Destin Commons,,4240 Legendary Drive,Su,ite 101-B,United States,1(850)269-0133,,,"Reeds Jewelers Destin Commons, 4240 Legendary Drive, Suite 101-B Destin,FL32541, 1(850)269-0133 Get Directions, Destin Commons4240 Legendary Drive, Suite 101-B ,Destin,FL32541",,,
Reeds Jewelers,,Greenbrier Mall,,1401 Greenbrier Parkway South,Sp,ace 1184,United States,1(757) 420-1367,,,"Reeds Jewelers Greenbrier Mall, 1401 Greenbrier Parkway South, Space 1184 Chesapeake,VA23320, 1(757) 420-1367 Get Directions, Greenbrier Mall1401 Greenbrier Parkway South, Space 1184 ,Chesapeake,VA23320",,,
Reeds Jewelers,,Chesapeake Square,,4200 Portsmouth Boulevard,Un,it 10,United States,1(757) 488-6964,,,"Reeds Jewelers Chesapeake Square, 4200 Portsmouth Boulevard, Unit 10 Chesapeake,VA23321, 1(757) 488-6964 Get Directions, Chesapeake Square4200 Portsmouth Boulevard, Unit 10 ,Chesapeake,VA23321",,,
Gift-ology,,Monroeville Mall,,Monroeville,PA,15146,United States,1(412)666-0663,,,"Gift-ology Monroeville Mall, 200 Mall Circle Drive Monroeville,PA15146, 1(412)666-0663 Get Directions, Monroeville Mall200 Mall Circle Drive ,Monroeville,PA15146",,,
Gift-ology,,Brandon Mall,,Brandon,FL,33511,United States,1(813)438-5939,,,"Gift-ology Brandon Mall, 459 Brandon Town Center Mall Brandon,FL33511, 1(813)438-5939 Get Directions, Brandon Mall459 Brandon Town Center Mall ,Brandon,FL33511",,,
The Paper Store,,37 Commerce Way,,Seekonk,MA,02771,United States,1(508)343-8181,,,"The Paper Store 37 Commerce Way, Seekonk,MA02771 1(508)343-8181, Get Directions 37 Commerce Way,Seekonk,MA02771",,,
Gift Gallery of Vienna,,"1515 Grand Central Avenue, Suite 6",,Vienna,WV,26106,United States,1(412)953-0675,,,"Gift Gallery of Vienna 1515 Grand Central Avenue, Suite 6, Vienna,WV26106 1(412)953-0675, Get Directions 1515 Grand Central Avenue, Suite 6,Vienna,WV26106",,,
Her Hide Out,,Providence Town Center,,Collegeville,PA,19426,United States,1(484)973-6333,,,"Her Hide Out Providence Town Center, 141 Market Street Collegeville,PA19426, 1(484)973-6333 Get Directions, Providence Town Center 141 Market Street ,Collegeville,PA19426",,,
Calvin Broyles Jewelers,,4708 MacCorkle Avenue,,Charleston,WV,25309,United States,1(304)768-8821,,,"Calvin Broyles Jewelers 4708 MacCorkle Avenue, Charleston,WV25309 1(304)768-8821, Get Directions 4708 MacCorkle Avenue,Charleston,WV25309",,,
The Green Boutique,,1032 Bloomingdale Avenue,,Valrico,FL,33596,United States,1(813)685-9494,,,"The Green Boutique 1032 Bloomingdale Avenue, Valrico,FL33596 1(813)685-9494, Get Directions 1032 Bloomingdale Avenue,Valrico,FL33596",,,
Shimmering Seas,,"820 Pier Park Drive, Suite 100",,Panama City Beach,FL,32413,United States,1(850)234-6200,,,"Shimmering Seas 820 Pier Park Drive, Suite 100, Panama City Beach,FL32413 1(850)234-6200, Get Directions 820 Pier Park Drive, Suite 100,Panama City Beach,FL32413",,,
Gift-ology,,Northwoods Mall,,North Charleston,SC,29406,United States,,,,"Gift-ology Northwoods Mall, 2150 Northwoods Boulevard North Charleston,SC29406, Get Directions Northwoods Mall2150 Northwoods Boulevard, ,North Charleston,SC2940",,,
Yankee Candle,,25 Greenfield Road,,South Deerfield,MA,01373,United States,1(877)636-7707,,,"Yankee Candle 25 Greenfield Road, South Deerfield,MA01373 1(877)636-7707, Get Directions 25 Greenfield Road,South Deerfield,MA01373",,,
Gift-ology,,Destiny USA,,Syracuse,NY,13204,United States,,,,"Gift-ology Destiny USA, 9090 Destiny USA Drive Syracuse,NY13204, Get Directions Destiny USA9090 Destiny USA Drive, ,Syracuse,NY1320",,,
Lord and Taylor,,424 Fifth Avenue,,New York,NY,10018,United States,1(212)391-3344,,,"Lord and Taylor 424 Fifth Avenue, New York,NY10018 1(212)391-3344, Get Directions 424 Fifth Avenue,New York,NY10018",,,
Yankee Candle,,2200 Richmond Road,,Williamsburg,VA,23185,United States,1(757)258-1002,,,"Yankee Candle 2200 Richmond Road, Williamsburg,VA23185 1(757)258-1002, Get Directions 2200 Richmond Road,Williamsburg,VA23185",,,
Gift-ology,,Trumbull Mall,,Trumbull,CT,06611,United States,1(203)371-4438,,,"Gift-ology Trumbull Mall, 5065 Main Street Trumbull,CT06611, 1(203)371-4438 Get Directions, Trumbull Mall5065 Main Street ,Trumbull,CT06611",,,
Artisan's Jewelry and Gifts,,406 Duval Street,,Key West,FL,33040,United States,1(305)600-0937,,,"Artisan's Jewelry and Gifts 406 Duval Street, Key West,FL33040 1(305)600-0937, Get Directions 406 Duval Street,Key West,FL33040",,,
Delores Jewelers,,464 N. Alafaya Trail Ste 110,,Orlando,FL,32828,United States,1(407)737-0192,,,"Delores Jewelers 464 N. Alafaya Trail Ste 110, Orlando,FL32828 1(407)737-0192, Get Directions 464 N. Alafaya Trail Ste 110,Orlando,FL32828",,,
Attachments,,138 Main Street,,Flemington,NJ,08822,United States,1(908)782-3155,,,"Attachments 138 Main Street, Flemington,NJ08822 1(908)782-3155, Get Directions 138 Main Street,Flemington,NJ08822",,,
Gliks,,124 South Buchanan Street,,Edwardsville,IL,62025,United States,1(618)655-0084,,,"Gliks 124 South Buchanan Street, Edwardsville,IL62025 1(618)655-0084, Get Directions 124 South Buchanan Street, ,Edwardsville,IL6202",,,
Avanni,,307 Park City Center,,Lancaster,PA,17601,United States,1(717) 209-7055,,,"Avanni 307 Park City Center, Lancaster,PA17601 1(717) 209-7055, Get Directions 307 Park City Center,Lancaster,PA17601",,,
Adorn Me,,32 South State Street,,Newtown,PA,18940,United States,,,,"Adorn Me 32 South State Street, Newtown,PA18940 Get Directions, 32 South State Street,Newtown,PA1894",,,
Calvin Broyles Jewelers,,4144 State Route 34,,Hurricane,WV,25526,United States,1(304)757-3920,,,"Calvin Broyles Jewelers 4144 State Route 34, Hurricane,WV25526 1(304)757-3920, Get Directions 4144 State Route 34,Hurricane,WV25526",,,
My Secret Garden,,600 Saginaw Street,,Bay City,MI,48708,United States,1(989)891-2000,,,"My Secret Garden 600 Saginaw Street, Bay City,MI48708 1(989)891-2000, Get Directions 600 Saginaw Street,Bay City,MI48708",,,
Dillard's,,Park Plaza Center,,Little Rock,AR,72205,United States,1(501)661-0053,,,"Dillard's Park Plaza Center, 6000 West Markham Little Rock,AR72205, 1(501)661-0053 Get Directions, Park Plaza Center6000 West Markham ,Little Rock,AR72205",,,
Floyd & Green Jewelers,,515 Silver Bluff Road,,Aiken,SC,29803,United States,1(803)649-6005,,,"Floyd & Green Jewelers 515 Silver Bluff Road, Aiken,SC29803 1(803)649-6005, Get Directions 515 Silver Bluff Road,Aiken,SC29803",,,
The Diamond Galleria,,6245 Vogel Road,,Evansville,IN,47715,United States,1(812)477-1388,,,"The Diamond Galleria 6245 Vogel Road, Evansville,IN47715 1(812)477-1388, Get Directions 6245 Vogel Road ,Evansville,IN47715",,,
Lily Mae's,,1839 South Main Street Suite 100,,Wake Forest,NC,27587,United States,1(919)453-0113,,,"Lily Mae's 1839 South Main Street Suite 100, Wake Forest ,NC27587 1(919)453-0113, Get Directions 1839 South Main Street Suite 100,Wake Forest ,NC27587",,,
The Paper Store,,Candlewood Lake Shopping Center,,Brookfield,CT,06804,United States,1(203)663-6173,,,"The Paper Store Candlewood Lake Shopping Center, 14 Candlewood Lake Road Brookfield,CT06804, 1(203)663-6173 Get Directions, Candlewood Lake Shopping Center14 Candlewood Lake Road ,Brookfield,CT06804",,,
Trends & Traditions,,1917 Dutton Drive,,San Marcos,TX,78666,United States,1(512)392-7236,,,"Trends & Traditions 1917 Dutton Drive, Suite 100 San Marcos,TX78666, 1(512)392-7236 Get Directions, 1917 Dutton DriveSuite 100 ,San Marcos,TX78666",,,
Gold Heart Boutique,,30-28 Steinway Street,,Astoria,NY,11103,United States,1(718)685-2926,,,"Gold Heart Boutique 30-28 Steinway Street, Astoria,NY11103 1(718)685-2926, Get Directions 30-28 Steinway Street,Astoria,NY11103",,,
The Crown Shop,,Park Plaza,,Little Rock,AR,72205,United States,1(501)664-8442,,,"The Crown Shop Park Plaza, 6000 West Markham Little Rock,AR72205, 1(501)664-8442 Get Directions, Park Plaza6000 West Markham ,Little Rock,AR72205",,,
The Paper Store,,Pleasant Shops Shopping Center,,South Weymouth,MA,02190,United States,1(781)331-5528,,,"The Paper Store Pleasant Shops Shopping Center, 35 Pleasant Street Suite 3111 South Weymouth,MA02190, 1(781)331-5528 Get Directions, Pleasant Shops Shopping Center35 Pleasant Street Suite 3111 ,South Weymouth,MA02190",,,
Seven Oaks Fine Jewelers,,466 North 1680 East Suite #1325,,St. George,UT,84790,United States,1(435)319-6892,,,"Seven Oaks Fine Jewelers 466 North 1680 East Suite #1325, St. George,UT84790 1(435)319-6892, Get Directions 466 North 1680 East Suite #1325,St. George,UT84790",,,
XO by Saxon's,,3473 Merchant Boulevard,,Abingdon,MD,21009,United States,1(443)402-0807,,,"XO by Saxon's 3473 Merchant Boulevard, Abingdon,MD21009 1(443)402-0807, Get Directions 3473 Merchant Boulevard,Abingdon,MD21009",,,
Dillard's,,Mall at Green Hills,,2126 Abbott Martin Road,Su,ite 500,United States,1(615)297-0971,,,"Dillard's Mall at Green Hills, 2126 Abbott Martin Road, Suite 500 Nashville,TN37215, 1(615)297-0971 Get Directions, Mall at Green Hills2126 Abbott Martin Road, Suite 500 ,Nashville,TN37215",,,
Dillard's,,1796 Galleria Boulevard,,Franklin,TN,37067,United States,1(615)771-7101,,,"Dillard's 1796 Galleria Boulevard, Franklin,TN37067 1(615)771-7101, Get Directions 1796 Galleria Boulevard,Franklin,TN37067",,,
The Paper Store,,Oakhill Plaza Shopping Center,,Scarborough,ME,04074,United States,1(207)885-5671,,,"The Paper Store Oakhill Plaza Shopping Center, 11 Hannaford Drive Scarborough,ME04074, 1(207)885-5671 Get Directions, Oakhill Plaza Shopping Center11 Hannaford Drive ,Scarborough,ME04074",,,
The Quilted Bear,,111 East 12300 South Street,,Draper,UT,84020,United States,1(801)566-9382,,,"The Quilted Bear 111 East 12300 South Street, Draper,UT84020 1(801)566-9382, Get Directions 111 East 12300 South Street,Draper,UT84020",,,
Dorothy Mays by Alspaughs,,2111 Strand Street,,Galveston,TX,77550,United States,1(409)762-0224,,,"Dorothy Mays by Alspaughs 2111 Strand Street, Galveston,TX77550 1(409)762-0224, Get Directions 2111 Strand Street,Galveston,TX77550",,,
Artsy Abode at Lake City,,313 North West Commons Loop Suite 119,,Lake City,FL,32055,United States,1(386)719-2126,,,"Artsy Abode at Lake City 313 North West Commons Loop Suite 119, Lake City,FL32055 1(386)719-2126, Get Directions 313 North West Commons Loop Suite 119,Lake City,FL32055",,,
Dynasty Gallery & Gifts,,1067 South Clarke Road,,Ocoee,FL,34761,United States,1(407)522-4400,,,"Dynasty Gallery & Gifts 1067 South Clarke Road, Ocoee,FL34761 1(407)522-4400, Get Directions 1067 South Clarke Road,Ocoee,FL34761",,,
Motif Jewelers,,Southland Mall (Near Macy's),,Taylor,MI,48180,United States,1(734)287-2142,,,"Motif Jewelers Southland Mall (Near Macy's), 23000 Eureka Road Taylor,MI48180, 1(734)287-2142 Get Directions, Southland Mall (Near Macy's)23000 Eureka Road ,Taylor,MI48180",,,
Lotions and Potions,,420 South Mill Avenue Suite 105,,Tempe,AZ,85281,United States,1(480)968-4652,,,"Lotions and Potions 420 South Mill Avenue Suite 105, Tempe,AZ85281 1(480)968-4652, Get Directions 420 South Mill Avenue Suite 105,Tempe,AZ85281",,,
Gift-ology,,Eastgate Mall,,Cincinnati,OH,45245,United States,1(513)752-4438,,,"Gift-ology Eastgate Mall, 4601 Eastgate Blvd Cincinnati,OH45245, 1(513)752-4438 Get Directions, Eastgate Mall4601 Eastgate Blvd ,Cincinnati,OH45245",,,
Lord and Taylor,,Garden State Plaza,,Paramus,NJ,07652,United States,1(201)909-0400,,,"Lord and Taylor Garden State Plaza, 504 Garden State Plaza Paramus,NJ07652, 1(201)909-0400 Get Directions, Garden State Plaza504 Garden State Plaza ,Paramus,NJ07652",,,
Signatures,,20211 N 67th Ave,,Glendale,AZ,85308,United States,1 (623) 572-6820,,,"Signatures 20211 N 67th Ave, Glendale ,AZ85308 1 (623) 572-6820, Get Directions 20211 N 67th Ave ,Glendale ,AZ85308",,,
Calvin Broyles Jewelers,,1032 North Eisenhower Drive,,Beckley,WV,25801,United States,1(304)252-7701,,,"Calvin Broyles Jewelers 1032 North Eisenhower Drive, Beckley,WV25801 1(304)252-7701, Get Directions 1032 North Eisenhower Drive,Beckley,WV25801",,,
Sophy Jewelers,,115 Laurel Mall Boulevard,,Hazelton,PA,18202,United States,1(570)454-1872,,,"Sophy Jewelers 115 Laurel Mall Boulevard, Hazelton,PA18202 1(570)454-1872, Get Directions 115 Laurel Mall Boulevard,Hazelton,PA18202",,,
The Paper Store,,Rockaway Mall,,Rockaway,NJ,07801,United States,1(973)366-0051,,,"The Paper Store Rockaway Mall, 301 Mount Hope Avenue Suite 1039 Rockaway ,NJ07801, 1(973)366-0051 Get Directions, Rockaway Mall301 Mount Hope Avenue Suite 1039 ,Rockaway ,NJ07801",,,
Dillard's,,West Towne Mall,,Knoxville,TN,37919,United States,1(865)531-1931,,,"Dillard's West Towne Mall, 7600 Kingston Pike Knoxville,TN37919, 1(865)531-1931 Get Directions, West Towne Mall7600 Kingston Pike ,Knoxville,TN37919",,,
Dillard's,,Columbiana Centre,,Columbia,SC,29212,United States,1(803)732-7037,,,"Dillard's Columbiana Centre, 100 Columbiana Circle Columbia,SC29212, 1(803)732-7037 Get Directions, Columbiana Centre100 Columbiana Circle ,Columbia,SC29212",,,
The Bay,,Rideau Centre,,Ottawa,On,tarioK1N 5W8,United States,,,,"The Bay Rideau Centre, 73 Rideau Street Ottawa,OntarioK1N 5W8, 613-241-7511 Get Directions, Rideau Centre73 Rideau Street ,Ottawa,OntarioK1N 5W8",,,
Dillard's,,Cordova Mall,,Pensacola,FL,32504,United States,1(850)476-3011,,,"Dillard's Cordova Mall, 5100 North 9th Avenue Pensacola,FL32504, 1(850)476-3011 Get Directions, Cordova Mall5100 North 9th Avenue ,Pensacola,FL32504",,,
Lucy's Gift Boutique,,Brooklyn Station,,Jacksonville,FL,32202,United States,,,,"Lucy's Gift Boutique Brooklyn Station, 150 Riverside Avenue Unit 301 Jacksonville,FL32202, Get Directions Brooklyn Station150 Riverside Avenue Unit 301, ,Jacksonville,FL3220",,,
Reeds Jewelers,,315 The Bridge St #107,,Huntsville,AL,35806,United States,,,,"Reeds Jewelers 315 The Bridge St #107, Huntsville,AL35806 Get Directions, 315 The Bridge St #107,Huntsville,AL3580",,,
The Paper Store,,Morris Hill Shopping Center,,Parsippany,NJ,07054,United States,,,,"The Paper Store Morris Hill Shopping Center, 3197 US Highway 46 Parsippany,NJ07054, Get Directions Morris Hill Shopping Center 3197 US Highway 46, ,Parsippany,NJ0705",,,
The Paper Store,,Town Square Mall,,Pompton,NJ,07442,United States,,,,"The Paper Store Town Square Mall, 57 Wanaque Ave Pompton,NJ07442, Get Directions Town Square Mall 57 Wanaque Ave, ,Pompton,NJ0744",,,
Bloomingdales,,Roosevelt Field Mall,,Garden City,NY,11530,United States,,,,"Bloomingdales Roosevelt Field Mall, 630 Old Country Road Garden City ,NY11530, Get Directions Roosevelt Field Mall 630 Old Country Road, ,Garden City ,NY1153",,,
Bloomingdales,,"The Shops at Riverside,",,Hackensack,NJ,07601,United States,,,,"Bloomingdales The Shops at Riverside,, 400 Hackensack Avenue Hackensack,NJ07601, Get Directions The Shops at Riverside, 400 Hackensack Avenue, ,Hackensack,NJ0760",,,
The Bronze Lady,,12957 Village Boulevard,,Madeira Beach,FL,33708,United States,1(727)398-5994,,,"The Bronze Lady 12957 Village Boulevard, Madeira Beach,FL33708 1(727)398-5994, Get Directions 12957 Village Boulevard,Madeira Beach,FL33708",,,
Smyth Jewelers,,2020 York Rd,,Timonium,MD,21093,United States,1(410)252-6666,,,"Smyth Jewelers 2020 York Rd, Timonium,MD21093 1(410)252-6666, Get Directions 2020 York Rd,Timonium,MD21093",,,
Camlon,,31 Washington St,,Ellicottville,NY,14731,United States,1(716)699-5055,,,"Camlon 31 Washington St, Ellicottville,NY14731 1(716)699-5055, Get Directions 31 Washington St,Ellicottville,NY14731",,,
Cameleon,,650 Main St,,East Aurora,NY,14052,United States,,,,"Cameleon 650 Main St, East Aurora ,NY14052 Get Directions, 650 Main St,East Aurora ,NY1405",,,
Artsy Abode at Ormond Beach,,243 East Granada Boulevard,,Ormond Beach,FL,32176,United States,1(386)256-7266,,,"Artsy Abode at Ormond Beach 243 East Granada Boulevard, Ormond Beach,FL32176 1(386)256-7266, Get Directions 243 East Granada Boulevard,Ormond Beach,FL32176",,,
Riddle's Jewelry,,Northpark Mall,,Davenport,IA,52806,United States,1(563)445-0558,,,"Riddle's Jewelry Northpark Mall, 320 West Kimberly Road Suite 44A Davenport,IA52806, 1(563)445-0558 Get Directions, Northpark Mall320 West Kimberly Road Suite 44A ,Davenport,IA52806",,,
Artsy Abode at Mandarin,,11111 San Jose Boulevard,,Jacksonville,FL,32223,United States,1(904)232-8600,,,"Artsy Abode at Mandarin 11111 San Jose Boulevard, Jacksonville,FL32223 1(904)232-8600, Get Directions 11111 San Jose Boulevard,Jacksonville,FL32223",,,
Martinique Jewelers,,750 7th Avenue,,New York,NY,10019,United States,1(212)262-7600,,,"Martinique Jewelers 750 7th Avenue, New York,NY10019 1(212)262-7600, Get Directions 750 7th Avenue,New York,NY10019",,,
The Paper Store,,Bristol Commons,,Bristol,CT,06010,United States,,,,"The Paper Store Bristol Commons, 99 Farmington Avenue Bristol,CT06010, Get Directions Bristol Commons99 Farmington Avenue, ,Bristol,CT0601",,,
Silver Moon Jewelery & Accessories,,Congressional Plaza,,Rockville,MD,20852,United States,1(301)468-1122,,,"Silver Moon Jewelery & Accessories Congressional Plaza, 1659 Rockville Pike Rockville,MD20852, 1(301)468-1122 Get Directions, Congressional Plaza 1659 Rockville Pike ,Rockville,MD20852",,,
Reeds Jewelers,,The Mall in Columbia,,Columbia,MD,21044,United States,1(410) 740-4922,,,"Reeds Jewelers The Mall in Columbia, 10300 Little Patuxent Pkwy Columbia ,MD21044, 1(410) 740-4922 Get Directions, The Mall in Columbia 10300 Little Patuxent Pkwy ,Columbia ,MD21044",,,
Centerpiece Boutique and Design,,406 Charles Street Suite 100,,La Plata,MD,20646,United States,1(301)934-3333,,,"Centerpiece Boutique and Design 406 Charles Street Suite 100, La Plata,MD20646 1(301)934-3333, Get Directions 406 Charles Street Suite 100,La Plata,MD20646",,,
Classic Boutique,,2678 Bayshore Boulevard,,Dunedin,FL, 34698,United States,1(727)736-1444,,,"Classic Boutique 2678 Bayshore Boulevard, Dunedin,FL 34698 1(727)736-1444, Get Directions 2678 Bayshore Boulevard,Dunedin,FL 34698",,,
The Paper Store,,The Shoppes at Farmington Valley,,Canton,CT,06019,United States,,,,"The Paper Store The Shoppes at Farmington Valley, 110 Albany Turnpike Canton,CT06019, Get Directions The Shoppes at Farmington Valley110 Albany Turnpike, ,Canton,CT0601",,,
25 Silver Boutique,,Yorktown Center,,Lombard,IL,60148,United States,1(630)495-3238,,,"25 Silver Boutique Yorktown Center, 203 Yorktown Center Lombard,IL60148, 1(630)495-3238 Get Directions, Yorktown Center203 Yorktown Center ,Lombard,IL60148",,,
Heart and Home,,4770 Limestone Road,,Wilmington,DE,19808,United States,1(302)999-8980,,,"Heart and Home 4770 Limestone Road, Wilmington,DE19808 1(302)999-8980, Get Directions 4770 Limestone Road,Wilmington,DE19808",,,
The Graceful Lady,,805 East Park Street,,Fort Branch,IN,47648,United States,1(812)753-3595,,,"The Graceful Lady 805 East Park Street, Fort Branch,IN47648 1(812)753-3595, Get Directions 805 East Park Street,Fort Branch,IN47648",,,
Her Hide Out,,141 Market Street,,PA,19,426,United States,,,,"Her Hide Out 141 Market Street, Collegeville PA ,19426, Get Directions 141 Market StreetCollegeville, ,PA ,1942",,,
Adorn Me,,4349 Swamp Road,,Doylestown,PA, 18901,United States,,,,"Adorn Me 4349 Swamp Road, Doylestown,PA 18901 Get Directions, 4349 Swamp Road,Doylestown,PA 1890",,,
Reeds Jewelers,,Springfield Town Center,,Springfield,VA,22150,United States,1(703) 921-1089,,,"Reeds Jewelers Springfield Town Center, 6500 Springfield Mall Suite 6717 Springfield,VA22150, 1(703) 921-1089 Get Directions, Springfield Town Center6500 Springfield Mall Suite 6717 ,Springfield,VA22150",,,
Sanctuary Marthas Vineyard,,42 Circuit Avenue,,Oak Bluffs,MA,02557,United States,1(508)693-9600,,,"Sanctuary Marthas Vineyard 42 Circuit Avenue, Oak Bluffs,MA02557 1(508)693-9600, Get Directions 42 Circuit Avenue,Oak Bluffs,MA02557",,,
Serendipity,,Coastland Center,,Naples,FL,34102,United States,1(239)263-3430,,,"Serendipity Coastland Center, 1976 Tamiami Trail North Naples,FL34102, 1(239)263-3430 Get Directions, Coastland Center1976 Tamiami Trail North ,Naples,FL34102",,,
The Paper Store,,Fellsway Plaza,,Medford,MA,02155,United States,1(339)674-1800,,,"The Paper Store Fellsway Plaza, 710 Fellsway Medford,MA02155, 1(339)674-1800 Get Directions, Fellsway Plaza710 Fellsway ,Medford,MA02155",,,
Flair,,172 North Hemlock Street,,Cannon Beach,OR,97110,United States,1(503)436-2271,,,"Flair 172 North Hemlock Street, Cannon Beach,OR97110 1(503)436-2271, Get Directions 172 North Hemlock Street,Cannon Beach,OR97110",,,
Dillard's,,Southpark Center,,Strongsville,OH,44136,United States,,,,"Dillard's Southpark Center, 16996 South Park Center Strongsville,OH44136, Get Directions Southpark Center16996 South Park Center, ,Strongsville,OH4413",,,
The Paper Store,,495 Great Road,,Littleton,MA,01460,United States,,,,"The Paper Store 495 Great Road, Littleton,MA01460 Get Directions, 495 Great Road,Littleton,MA0146",,,
Madison Jewelers,,1166 Avenue of the Americas,,New York,NY,10036,United States,1(212) 221-3711,,,"Madison Jewelers 1166 Avenue of the Americas, New York,NY10036 1(212) 221-3711, Get Directions 1166 Avenue of the Americas ,New York,NY10036",,,
Maui Ocean Center,,192 Maalaea Road,,Wailuku,HI,96793,United States,1(808)270-7061,,,"Maui Ocean Center 192 Maalaea Road, Wailuku,HI96793 1(808)270-7061, Get Directions 192 Maalaea Road,Wailuku,HI96793",,,
James Martin Jewelers,,1640 John F. Kennedy Road,,Dubuque,IA,52002,United States,1(563) 556-5661,,,"James Martin Jewelers 1640 John F. Kennedy Road, Dubuque,IA52002 1(563) 556-5661, Get Directions 1640 John F. Kennedy Road,Dubuque,IA52002",,,
University of Southern California Bookstore,,840 Childs Way Suite 401,,Los Angeles,CA,90089,United States,,,,"University of Southern California Bookstore 840 Childs Way Suite 401, Los Angeles,CA90089 Get Directions, 840 Childs Way Suite 401,Los Angeles,CA9008",,,
Alspaughs Sterling Events,,2720 West Lake Houston Parkway,,Kingwood,TX,77339,United States,1(281)361-6550,,,"Alspaughs Sterling Events 2720 West Lake Houston Parkway, Kingwood,TX77339 1(281)361-6550, Get Directions 2720 West Lake Houston Parkway,Kingwood,TX77339",,,
Glatz Jewelers,,2699 Brodhead Road,,Aliquippa,PA,15001,United States,1(724)375-7464,,,"Glatz Jewelers 2699 Brodhead Road, Aliquippa,PA15001 1(724)375-7464, Get Directions 2699 Brodhead Road,Aliquippa,PA15001",,,
Wolf Fine Jewelers,,Brunswick Square Mall,,East Brunswick,NJ, 08816,United States,1(732) 257-1007,,,"Wolf Fine Jewelers Brunswick Square Mall, 755 State Highway 18 East Brunswick,NJ 08816, 1(732) 257-1007 Get Directions, Brunswick Square Mall755 State Highway 18 ,East Brunswick,NJ 08816",,,
Delores Jewelers,,Florida Mall,,Orlando,FL,32809,United States,1(407) 812-7143,,,"Delores Jewelers Florida Mall, 8001 South Orange Blossom Trail Suite 192 Orlando,FL32809, 1(407) 812-7143 Get Directions, Florida Mall8001 South Orange Blossom Trail Suite 192 ,Orlando,FL32809",,,
Blue Jasmine,,3045 Columbia Boulevard Suite A106,,Titusville,FL,32780,United States,1(321) 383-7474,,,"Blue Jasmine 3045 Columbia Boulevard Suite A106, Titusville,FL32780 1(321) 383-7474, Get Directions 3045 Columbia Boulevard Suite A106,Titusville,FL32780",,,
Blue Jasmine,,1635 Oviedo Mall Boulevard,,Oviedo,FL,32765,United States,1(407) 971-0590,,,"Blue Jasmine 1635 Oviedo Mall Boulevard, Oviedo,FL32765 1(407) 971-0590, Get Directions 1635 Oviedo Mall Boulevard,Oviedo,FL32765",,,
ts Dobbins,,204 Saint Charles Way,,York,PA,17402,United States,1(717) 741-3042,,,"ts Dobbins 204 Saint Charles Way, York,PA17402 1(717) 741-3042, Get Directions 204 Saint Charles Way,York,PA17402",,,
Henebry's Jewelers,,New River Valley Mall,,Christiansburg,VA,24073,United States,1(540)381-6008,,,"Henebry's Jewelers New River Valley Mall, 748 New River Road Christiansburg,VA24073, 1(540)381-6008 Get Directions, New River Valley Mall748 New River Road ,Christiansburg,VA24073",,,
Shimmering Seas,,30 Avenue,,Inlet Beach,FL,32461,United States,1(850)231-5100,,,"Shimmering Seas 30 Avenue, 12805 US Highway 98 East Suite M101 Inlet Beach,FL32461, 1(850)231-5100 Get Directions, 30 Avenue12805 US Highway 98 East Suite M101 ,Inlet Beach,FL32461",,,
Time After Time,,Deptford Mall,,Deptford Township,NJ,08096,United States,1(856) 213-2300,,,"Time After Time Deptford Mall, 1750 Deptford Center Road Deptford Township,NJ08096, 1(856) 213-2300 Get Directions, Deptford Mall1750 Deptford Center Road ,Deptford Township,NJ08096",,,
McNeill Jewelers Lumberton,,Briggs Park Mall,,Lumberton,NC,28358,United States,1(910) 739-6337,,,"McNeill Jewelers Lumberton Briggs Park Mall, 2800 North Elm Street Lumberton,NC28358, 1(910) 739-6337 Get Directions, Briggs Park Mall2800 North Elm Street ,Lumberton,NC28358",,,
Riddle's Jewelry,,Empire Mall,,Sioux Falls,SD,57106,United States,,,,"Riddle's Jewelry Empire Mall, 5000 West Empire Place #602B Sioux Falls,SD57106, Get Directions Empire Mall5000 West Empire Place #602B, ,Sioux Falls,SD5710",,,
Delores Jewelers,,Fashion Square Mall,,Orlando,FL,32803,United States,,,,"Delores Jewelers Fashion Square Mall, 3201 East Colonial Drive Orlando,FL32803, Get Directions Fashion Square Mall3201 East Colonial Drive, ,Orlando,FL3280",,,
Estilo Interiors & Gifts,,Alamo Ranch Plaza,,San Antonio,TX,78253,United States,,,,"Estilo Interiors & Gifts Alamo Ranch Plaza, 5535 West Loop 1604 North Suite 105 San Antonio,TX78253, Get Directions Alamo Ranch Plaza 5535 West Loop 1604 North Suite 105, ,San Antonio,TX7825",,,
Lucys Gift Boutique,,13170 Atlantic Boulevard,,Jacksonville,FL,32225,United States,,,,"Lucys Gift Boutique 13170 Atlantic Boulevard, Jacksonville,FL32225 Get Directions, 13170 Atlantic Boulevard,Jacksonville,FL3222",,,
Time After Time,,Oxford Valley Mall,,Langhorne,PA,19047,United States,1(215)752-3902,,,"Time After Time Oxford Valley Mall, 2300 East Lincoln Highway Langhorne,PA19047, 1(215)752-3902 Get Directions, Oxford Valley Mall2300 East Lincoln Highway ,Langhorne,PA19047",,,
Beethoven Wraps,,106 East Lancaster Avenue,,Wayne,PA,19087,United States,1(610)995-9550,,,"Beethoven Wraps 106 East Lancaster Avenue, Wayne,PA19087 1(610)995-9550, Get Directions 106 East Lancaster Avenue ,Wayne,PA19087",,,
EMBELLAS,,Shoppes at Hershey Plaza,,Hershey,PA,17033,United States,1(717)652-5909,,,"EMBELLAS Shoppes at Hershey Plaza, 247 West Chocolate Avenue Hershey,PA17033, 1(717)652-5909 Get Directions, Shoppes at Hershey Plaza247 West Chocolate Avenue ,Hershey,PA17033",,,
Gift-ology,,16495 North Scottsdale Road,,Scottsdale,AZ,85254,United States,1(480)878-4192,,,"Gift-ology 16495 North Scottsdale Road, Scottsdale,AZ85254 1(480)878-4192, Get Directions 16495 North Scottsdale Road,Scottsdale,AZ85254",,,
Dillard's,,4000 Newgate Mall,,Ogden,UT,84405,United States,,,,"Dillard's 4000 Newgate Mall, Ogden ,UT84405 Get Directions, 4000 Newgate Mall,Ogden ,UT8440",,,
Dillard's,,Provo Town Centre,,Provo,UT,84601,United States,,,,"Dillard's Provo Town Centre, 1200 South Towne Centre Boulevard Provo,UT84601, Get Directions Provo Town Centre 1200 South Towne Centre Boulevard, ,Provo,UT8460",,,
La-de-da,,6058 North West 63rd Terrace,,Kansas City,MO,64151,United States,1(816)741-5354,,,"La-de-da 6058 North West 63rd Terrace, Kansas City,MO64151 1(816)741-5354, Get Directions 6058 North West 63rd Terrace,Kansas City,MO64151",,,
Mahtani Jewelers,,1425 Paramus Park Mall,,Paramus,NJ,07652,United States,1(201) 261-0647,,,"Mahtani Jewelers 1425 Paramus Park Mall, Paramus,NJ07652 1(201) 261-0647, Get Directions 1425 Paramus Park Mall,Paramus,NJ07652",,,
Michele's Boutique & Gifts,,600 West Northfield Drive #2060,,Brownsburg,IN,46112,United States,1(317) 852-0046,,,"Michele's Boutique & Gifts 600 West Northfield Drive #2060, Brownsburg,IN46112 1(317) 852-0046, Get Directions 600 West Northfield Drive #2060,Brownsburg,IN46112",,,
Camlon Orchard Park,,3402 Orchard Park Road,,Orchard Park,NY,14127,United States,1(716)675-9050,,,"Camlon Orchard Park 3402 Orchard Park Road, Orchard Park,NY14127 1(716)675-9050, Get Directions 3402 Orchard Park Road,Orchard Park,NY14127",,,
Reeds Jewelers,,1612 Highwoods Boulevard,,Greensboro,NC,27410,United States,1(336)292 - 2737,,,"Reeds Jewelers 1612 Highwoods Boulevard, Greensboro,NC27410 1(336)292 - 2737, Get Directions 1612 Highwoods Boulevard,Greensboro,NC27410",,,
Kays Gift Boutique,,665 Boston Post Road,,Old Saybrook,CT,06475,United States,1((860)388-1000.,,,"Kays Gift Boutique 665 Boston Post Road, Old Saybrook,CT06475 1((860)388-1000., Get Directions 665 Boston Post Road,Old Saybrook,CT06475",,,
Patrick's Fine Gifts,,629 Broadway,,Bangor,ME,04401,United States,,,,"Patrick's Fine Gifts 629 Broadway, Bangor,ME04401 Get Directions, 629 Broadway,Bangor,ME0440",,,
Artisan's,,203 West Venice Avenue,,Venice,FL,34285,United States,1(941)488-8666,,,"Artisan's 203 West Venice Avenue, Venice,FL34285 1(941)488-8666, Get Directions 203 West Venice Avenue,Venice,FL34285",,,
Kreations,,11401 Pines Boulevard #124,,Pembroke Pines,FL,33026,United States,,,,"Kreations 11401 Pines Boulevard #124, Pembroke Pines,FL33026 Get Directions, 11401 Pines Boulevard #124,Pembroke Pines,FL3302",,,
NCH Galleries,,440 McKinley Street Suite #104,,Corona,CA,92879,United States,1(951)734-5989,,,"NCH Galleries 440 McKinley Street Suite #104, Corona,CA92879 1(951)734-5989, Get Directions 440 McKinley Street Suite #104 ,Corona,CA92879",,,
Bonnie's Chic Boutique,,34121 North US Highway 45,,Grayslake,IL,60030,United States,1(847)752-8429,,,"Bonnie's Chic Boutique 34121 North US Highway 45, Grayslake,IL60030 1(847)752-8429, Get Directions 34121 North US Highway 45,Grayslake,IL60030",,,
Precision Jewelers,,35147 Warren Road,,Westland,MI,48185,United States,1(734)725-5176,,,"Precision Jewelers 35147 Warren Road, Westland,MI48185 1(734)725-5176, Get Directions 35147 Warren Road ,Westland,MI48185",,,
Precision Jewelers,,32350 Gratiot Avenue,,Roseville,MI,48066,United States,1(586)294-7020,,,"Precision Jewelers 32350 Gratiot Avenue, Roseville,MI48066 1(586)294-7020, Get Directions 32350 Gratiot Avenue,Roseville,MI48066",,,
Artsy Abode at World Golf Village,,105 Murabella Parkway Suite #6,,St. Augustine,FL,32092,United States,,,,"Artsy Abode at World Golf Village 105 Murabella Parkway Suite #6, St. Augustine,FL32092 Get Directions, 105 Murabella Parkway Suite #6,St. Augustine,FL3209",,,
Whistle Britches,,206 Broad Street Suite 100,,Rome,GA,30161,United States,1(706)936-3534,,,"Whistle Britches 206 Broad Street Suite 100, Rome,GA30161 1(706)936-3534, Get Directions 206 Broad Street Suite 100,Rome,GA30161",,,
Reeds Jewelers,,2700 Potomac Mills Circle,,Woodbridge,VA,22192,United States,,,,"Reeds Jewelers 2700 Potomac Mills Circle, Woodbridge,VA22192 Get Directions, 2700 Potomac Mills Circle,Woodbridge,VA2219",,,
Occasionally Yours,,Liberty Center,,Liberty Township,OH,45069,United States,1(513)755-2607,,,"Occasionally Yours Liberty Center, 7557 Bales Street Liberty Township,OH45069, 1(513)755-2607 Get Directions, Liberty Center7557 Bales Street ,Liberty Township,OH45069",,,
Country Cottage,,325 North Mayo Trail,,Paintsville,KY,41240,United States,1(606)789-6520,,,"Country Cottage 325 North Mayo Trail, Paintsville,KY41240 1(606)789-6520, Get Directions 325 North Mayo Trail,Paintsville,KY41240",,,
Boutique by Barry,,865 Queen Street,,Southington,CT,06489,United States,,,,"Boutique by Barry 865 Queen Street, Southington ,CT06489 Get Directions, 865 Queen Street,Southington ,CT0648",,,
Boutique by Barry,,850 North Colony Road,,Wallingford,CT,06492,United States,,,,"Boutique by Barry 850 North Colony Road, Wallingford ,CT06492 Get Directions, 850 North Colony Road,Wallingford ,CT0649",,,
Belongings,,The Mall at Robinson,,Pittsburgh,PA,15205,United States,1(412)787-5107,,,"Belongings The Mall at Robinson, 1790 Robinson Center Drive Pittsburgh,PA15205, 1(412)787-5107 Get Directions, The Mall at Robinson1790 Robinson Center Drive ,Pittsburgh,PA15205",,,
Trudy's Pflugerville,,1513 Stone Hill Drive #400,,Pflugerville,TX,78660,United States,1(512)251-3224,,,"Trudy's Pflugerville 1513 Stone Hill Drive #400, Pflugerville,TX78660 1(512)251-3224, Get Directions 1513 Stone Hill Drive #400,Pflugerville,TX78660",,,
Trudy's Colony Lakes,,6144 TX-6,,Missouri City,TX,77459,United States,1(281)208-2994,,,"Trudy's Colony Lakes 6144 TX-6, Missouri City,TX77459 1(281)208-2994, Get Directions 6144 TX-6,Missouri City,TX77459",,,
Footprints,,240 South University Drive,,Plantation,FL,33324,United States,,,,"Footprints 240 South University Drive, Plantation,FL33324 Get Directions, 240 South University Drive,Plantation,FL3332",,,
Polka Dotz Chic,,3025 Daniels Road,,Winter Garden,FL,34787,United States,1(407)877-2222,,,"Polka Dotz Chic 3025 Daniels Road, Winter Garden,FL34787 1(407)877-2222, Get Directions 3025 Daniels Road,Winter Garden,FL34787",,,
Banner's Gifts and Accesories,,41 West Lee Highway #65A,,Warrenton,VA,20186,United States,,,,"Banner's Gifts and Accesories 41 West Lee Highway #65A, Warrenton,VA20186 Get Directions, 41 West Lee Highway #65A,Warrenton,VA2018",,,
Banner's Gifts and Accesories,,3670 King Street #3666,,Alexandria,VA,22302,United States,,,,"Banner's Gifts and Accesories 3670 King Street #3666, Alexandria,VA22302 Get Directions, 3670 King Street #3666,Alexandria,VA2230",,,
Twin Jewelers,,5 Mill Road,,Eastchester,NY,10709,United States,1(914)961-8946,,,"Twin Jewelers 5 Mill Road, Eastchester,NY10709 1(914)961-8946, Get Directions 5 Mill Road,Eastchester,NY10709",,,
Effie & Isabel's,,950 Hold Road,,Webster,NY,14580,United States,,,,"Effie & Isabel's 950 Hold Road, Webster,NY14580 Get Directions, 950 Hold Road,Webster,NY1458",,,
Effie & Isabel's,,525 Titus Avenue,,Rochester,NY,14617,United States,,,,"Effie & Isabel's 525 Titus Avenue, Rochester,NY14617 Get Directions, 525 Titus Avenue,Rochester,NY1461",,,
Effie & Isabel's,,1100 Jefferson Road,,Rochester,NY,14623,United States,,,,"Effie & Isabel's 1100 Jefferson Road, Rochester,NY14623 Get Directions, 1100 Jefferson Road,Rochester,NY1462",,,
Accent's,,1408 North loop 336 West,,Conroe,TX,77304,United States,1(281)858-1700,,,"Accent's 1408 North loop 336 West, Conroe,TX77304 1(281)858-1700, Get Directions 1408 North loop 336 West,Conroe,TX77304",,,
Diamonds and Co.,,3333 Buford Drive,,Buford,GA,30519,United States,1(770)932-5511,,,"Diamonds and Co. 3333 Buford Drive, Buford,GA30519 1(770)932-5511, Get Directions 3333 Buford Drive,Buford,GA30519",,,
Rome Jewelers,,64 West Main Street,,Wilmington,OH,45177,United States,1(937)382-3646,,,"Rome Jewelers 64 West Main Street, Wilmington,OH45177 1(937)382-3646, Get Directions 64 West Main Street,Wilmington,OH45177",,,
25 Silver Boutique,,Fox Valley Mall,,Aurora,IL,60504,United States,1(630)898-4110,,,"25 Silver Boutique Fox Valley Mall, 195 Fox Valley Center Aurora,IL60504, 1(630)898-4110 Get Directions, Fox Valley Mall195 Fox Valley Center ,Aurora,IL60504",,,
Michael Eller Diamonds,,2129 Tiffin Avenue #1,,Findlay,OH,45840,United States,1(419)425-4999,,,"Michael Eller Diamonds 2129 Tiffin Avenue #1, Findlay,OH45840 1(419)425-4999, Get Directions 2129 Tiffin Avenue #1,Findlay,OH45840",,,
Michael Eller Diamonds,,2240 US Highway 68 South,,Bellefontaine,OH,43311,United States,1(937)599-9900,,,"Michael Eller Diamonds 2240 US Highway 68 South, Bellefontaine,OH43311 1(937)599-9900, Get Directions 2240 US Highway 68 South,Bellefontaine,OH43311",,,
Fionas,,1051 Spring Lane,,Sanford,NC,27330,United States,1(919)774-8912,,,"Fionas 1051 Spring Lane, Sanford,NC27330 1(919)774-8912, Get Directions 1051 Spring Lane,Sanford,NC27330",,,
Quality Jewelers,,248 State Street Suite 6,,Ellsworth,ME,04605,United States,1(207)610-1735,,,"Quality Jewelers 248 State Street Suite 6, Ellsworth,ME04605 1(207)610-1735, Get Directions 248 State Street Suite 6,Ellsworth,ME04605",,,
Time After Time,,Montgomery Mall,,North Wales,PA,19454,United States,1(215)362-1663,,,"Time After Time Montgomery Mall, 230 Montgomery Mall North Wales,PA19454, 1(215)362-1663 Get Directions, Montgomery Mall230 Montgomery Mall ,North Wales,PA19454",,,
Audrey's,,300 South Hills Village,,Pittsburgh,PA,15241,United States,1(412)835-4559,,,"Audrey's 300 South Hills Village, Pittsburgh,PA15241 1(412)835-4559, Get Directions 300 South Hills Village, ,Pittsburgh,PA1524",,,
Carats,,260 Lincoln Center,,Stockton,CA,95207,United States,1(209)955-0715,,,"Carats 260 Lincoln Center, Stockton,CA95207 1(209)955-0715, Get Directions 260 Lincoln Center,Stockton,CA95207",,,
Stambaugh Jewelers,,512 Clinton Street,,Defiance,OH,43512,United States,1(419)782-4061,,,"Stambaugh Jewelers 512 Clinton Street, Defiance,OH43512 1(419)782-4061, Get Directions 512 Clinton Street,Defiance,OH43512",,,
The Jewelry Center,,7477 West Layton Avenue,,Greenfield,WI,53220,United States,1(414)282-7241,,,"The Jewelry Center 7477 West Layton Avenue, Greenfield,WI53220 1(414)282-7241, Get Directions 7477 West Layton Avenue,Greenfield,WI53220",,,
Kreations,,10300 West Forest Hill Boulevard,,Wellington,FL,33414,United States,,,,"Kreations 10300 West Forest Hill Boulevard, Wellington,FL33414 Get Directions, 10300 West Forest Hill Boulevard,Wellington,FL3341",,,
Robbins Brothers,,3775 Tyler Street Space 1A,,Riverside,CA,92503,United States,1(951)785-9064,,,"Robbins Brothers 3775 Tyler Street Space 1A, Riverside,CA92503 1(951)785-9064, Get Directions 3775 Tyler Street Space 1A,Riverside,CA92503",,,
Robbins Brothers,,21200 Hawthorne Boulevard,,Torrance,CA,90503,United States,1(310)540-5659,,,"Robbins Brothers 21200 Hawthorne Boulevard, Torrance,CA90503 1(310)540-5659, Get Directions 21200 Hawthorne Boulevard,Torrance,CA90503",,,
Artsy Abode at Orange Park Mall,,1910 Wells Road Suite 92 D,,Orange Park,FL,32073,United States,,,,"Artsy Abode at Orange Park Mall 1910 Wells Road Suite 92 D, Orange Park,FL32073 Get Directions, 1910 Wells Road Suite 92 D,Orange Park,FL3207",,,
Artsy Abode at Ocala,,Paddock Mall,,Ocala,FL,34474,United States,,,,"Artsy Abode at Ocala Paddock Mall, 3100 South West College Road Suite 486 Ocala,FL34474, Get Directions Paddock Mall3100 South West College Road Suite 486, ,Ocala,FL3447",,,
The Paper Store,,51 Newport Avenue,,Quincy,MA,02171,United States,,,,"The Paper Store 51 Newport Avenue, Quincy,MA02171 Get Directions, 51 Newport Avenue,Quincy,MA0217",,,
The Paper Store,,160 Old Tower Hill Road,,Wakefield,RI,02879,United States,,,,"The Paper Store 160 Old Tower Hill Road, Wakefield,RI02879 Get Directions, 160 Old Tower Hill Road,Wakefield,RI0287",,,
The Paper Store,,95 Washington Street,,Canton,MA,02021,United States,,,,"The Paper Store 95 Washington Street, Canton,MA02021 Get Directions, 95 Washington Street,Canton,MA0202",,,
I.M. Jewelers,,905 North Homestead Boulevard,,Homestead,FL,33030,United States,1(305)248-4340,,,"I.M. Jewelers 905 North Homestead Boulevard, Homestead,FL33030 1(305)248-4340, Get Directions 905 North Homestead Boulevard,Homestead,FL33030",,,
Blue River Diamonds,,Northshore Mall,,Peabody,MA,01960,United States,,,,"Blue River Diamonds Northshore Mall, 210 Andover Street Peabody,MA01960, Get Directions Northshore Mall210 Andover Street, ,Peabody,MA0196",,,
Dillard's,,Park Meadows,,Littleton,CO,80124,United States,,,,"Dillard's Park Meadows, 8415 Park Meadows Center Littleton ,CO80124, Get Directions Park Meadows8415 Park Meadows Center, ,Littleton ,CO8012",,,
Trudy's Boutique,,Copperfield Crossing,,Houston,TX,77095,United States,1(281)463-0593,,,"Trudy's Boutique Copperfield Crossing, 7053 Highway 6 North Houston,TX77095, 1(281)463-0593 Get Directions, Copperfield Crossing7053 Highway 6 North ,Houston,TX77095",,,
The Paper Store,,9 Mozzone Boulevard,,Taunton,MA,02780,United States,,,,"The Paper Store 9 Mozzone Boulevard, Taunton,MA02780 Get Directions, 9 Mozzone Boulevard,Taunton,MA0278",,,
Bling Box,,3600 Delaware Avenue,,Buffalo,NY,14217,United States,,,,"Bling Box 3600 Delaware Avenue, Buffalo,NY14217 Get Directions, 3600 Delaware Avenue,Buffalo,NY1421",,,
Lucy's Gift Boutique,,Lakewood Promenade,,Jacksonville,FL,32217,United States,1(904)448-3177,,,"Lucy's Gift Boutique Lakewood Promenade, 1541 University Boulevard West Jacksonville,FL32217, 1(904)448-3177 Get Directions, Lakewood Promenade1541 University Boulevard West ,Jacksonville,FL32217",,,
Julia Vogue,,9000 Ming Avenue Suite 12,,Bakersfield,CA,93311,United States,,,,"Julia Vogue 9000 Ming Avenue Suite 12, Bakersfield ,CA93311 Get Directions, 9000 Ming Avenue Suite 12,Bakersfield ,CA9331",,,
