store_name,store_number,address,address2,city,state,zip_code,country,phone_number,latitude,longitude,store_hours,store_type,other_fields,coming_soon
Deep Cove Pharmacy,550956,4322 Gallant Avenue,,North Vancouver,BC,V7G 1K8,Canada,(604) 985-3539,49.326894,-122.951342,,,,
11TH AVENUE GUARDIAN DRUGS,566584,1410 11TH AVE,,CALGARY,AB,T3C 0M8,Canada,(587) 356-4191,51.043446,-114.094132,,,,
Lakewood Guardian Pharmacy,539908,2075 Loch Lomond Road,,Saint John,NB,E2N 1A1,Canada,(506) 693-7979,45.314233,-65.964978,,,,
NORTHSIDE DISPENSARY,550361,414 13 ST N,,LETHBRIDGE,AB,T1H 2S2,Canada,(403) 942-0044,49.704978,-112.824316,,,,
Prince Edward Guardian Pharmacy,551125,100 Prince Edward Street,,Saint John,NB,E2L 4M5,Canada,(506) 657-9200,45.277164,-66.054687,,,,
Young's Pharmacy & Home Care,508285,47 Main Street S,,Georgetown,ON,L7G 3G2,Canada,(905) 877-2711,43.650128,-79.926817,,,,
Tsawwassen Pharmacy,544048,"104, 1077 - 56 Street",,Delta,BC,V4L 2A2,Canada,(604) 943-9341,49.004054,-123.068674,,,,
BEAUMONT CENTRE PHARMACY,564230,5003 50 AVE,,BEAUMONT,AB,T4X 1E7,Canada,(780) 929-9299,53.352178,-113.415795,,,,
Bossons Pharmacy,516598,35 Front Street West,,Strathroy,ON,N7G 1X5,Canada,(519) 245-3810,42.958022,-81.625485,,,,
Life Care Pharmacy,565154,23 C VICTORIA RD N,,GUELPH,ON,N1E 5G6,Canada,(519) 823-5355,43.557525,-80.23164,,,,
Matheson Guardian Pharmacy,551531,14 - 801 Matheson Blvd West,,Mississauga,ON,L5V 2N6,Canada,(905) 502-1616,43.606242,-79.691437,,,,
Chelmsford Pharmacy,558565,46 Main Street East,,Chelmsford,ON,P0M 1L0,Canada,(705) 855-2371,46.583178,-81.195802,,,,
BONAVISTA PHARMACY,566188,360 QUEENSTON RD,,HAMILTON,ON,L8K 1H8,Canada,(289) 389-3131,43.233281,-79.788319,,,,
PHARMACY FOR LIFE,565561,554 MAIN ST,,HARTLAND,NB,E7P 2N5,Canada,(506) 375-8177,46.305425,-67.530521,,,,
St. Mary's Pharmacy,553140,150 Cliffe Street,,Fredericton,NB,E3A 0A1,Canada,(506) 206-7700,45.972073,-66.632263,,,,
Oxford Medical Pharmacy,500692,205 Oxford Street East,,London,ON,N6A 5G6,Canada,(519) 433-3666,42.994951,-81.25408,,,,
Shane's Guardian Pharmacy,502402,4926 49 Street,,Redwater,AB,T0A 2W0,Canada,(780) 942-3615,53.951244,-113.108737,,,,
Stirling Pharmacy,516442,9D Tuftsville Road,,Stirling,ON,K0K 3E0,Canada,(613) 395-2110,44.297398,-77.542191,,,,
Maple Guardian Drugs,543925,402 Maple Avenue,,MEDICINE HAT,AB,T1A 0J3,Canada,(403) 580-8948,50.037703,-110.678135,,,,
Kennetcook Pharmacy,535230,6202 Highway 354,,Kennetcook,NS,B0N 1P0,Canada,(902) 362-2211,45.176941,-63.722252,,,,
Wray's Pharmacy,504652,33 Victoria Street W,,Alliston,ON,L9R 1V5,Canada,(705) 435-6011,44.153656,-79.870362,,,,
ARBORG PHARMACY,563273,275 MAIN ST,,ARBORG,MB,R0C 0A0,Canada,(204) 376-5153,50.907528,-97.218423,,,,
Valley Pharmacy,564758,10 Millennium Drive,,Quispamsis,NB,E2E 4B1,Canada,(506) 849-7030,45.417816,-65.943793,,,,
Murphy's Cornwall Pharmacy,539076,401 Trans Canada Highway,,Cornwall,PE,C0A 1H0,Canada,(902) 566-2292,46.230829,-63.215085,,,,
Hogan Guardian Pharmacy,560259,4177 PETROLIA LINE,,PETROLIA,ON,N0N 1R0,Canada,(519) 882-1840,42.881781,-82.148132,,,,
MacDonnell Pharmacy,515823,10024 Grenville St,,St. Peter's,NS,B0E 3B0,Canada,(902) 535-3196,45.656942,-60.872559,,,,
CENTENNIAL PHARMACY,563768,81 EXHIBITION ST,,KENTVILLE,NS,B4N 1C2,Canada,(902) 678-2799,45.084346,-64.497283,,,,
Popular Choice Pharmacy,552464,"682  Kennedy Road, Unit 1A",,Scarborough,ON,M1K 2B5,Canada,(647) 247-2600,43.723987,-79.264458,,,,
Breakwater Pharmacy,552892,1604 Portugal Cove Road,,Portugal Cove,NL,A1M 3G7,Canada,(709) 895-6500,47.620136,-52.833229,,,,
Bowmanville Pharmacy,555028,"133 King Street East, Unit 4",,Bowmanville,ON,L1C 1N6,Canada,(905) 419-7000,43.910829,-78.683657,,,,
Corporate Pharmacy,532866,7 - 78 Corporate Drive,,Scarborough,ON,M1H 3G4,Canada,(416) 279-0828,43.780067,-79.249314,,,,
WILSON HOME HEALTH CARE,554578,2185 WILSON AVE UNIT 5,,PORT COQUITLAM,BC,V3C 6C1,Canada,(604) 942-4611,49.261152,-122.777295,,,,
MODEL GUARDIAN DRUG STORE,561403,32 BIRCH ST E,,CHAPLEAU,ON,P0M 1K0,Canada,(705) 864-0472,47.84317,-83.4008,,,,
Guardian Hillside Pharmacy,553724,"556 Montreal Road, Unit 12",,Ottawa,ON,K1K 0T9,Canada,(613) 741-9900,45.441786,-75.64474,,,,
NOTRE DAME PHARMACY,566826,1034 NOTRE DAME AVE,,WINNIPEG,MB,R3E 0N5,Canada,(204) 612-5324,49.905576,-97.173076,,,,
GUARDIAN DRUGS ELK POINT,560413,4831- 50th Street,,ELK POINT,AB,T0A 1A0,Canada,(780) 724-3331,53.896249,-110.899693,,,,
Guardian Drugs Medicine Chest,557166,10013 100 Street,,Morinville,AB,T8R 1R5,Canada,(780) 939-2898,53.802789,-113.644555,,,,
Martin's Pharmacy St. Jacobs,534396,10 Parkside Drive,,St. Jacobs,ON,N0B 2N0,Canada,(519) 664-3785,43.544566,-80.550856,,,,
ERINGATE DRUGS,566837,120 ERINGATE DR,,ETOBICOKE,ON,M9C 3Z8,Canada,(416) 621-3111,43.659908,-79.583308,,,,
U & C Pharmacy,546208,"700 University Ave, Unit 1, Shopping Concourse 112",,Toronto,ON,M5G 1Z5,Canada,(416) 850-9989,43.655368,-79.388383,,,,
Theodore Pharmacy,559214,1450 O'Connor Drive,,Toronto,ON,M4B 2T8,Canada,(416) 701-1001,43.714282,-79.308415,,,,
Dartmouth Gate Pharmacy,551193,375 Pleasant Street,,Dartmouth,NS,B2Y 4N4,Canada,(902) 469-2009,44.648967,-63.545752,,,,
Plaster Rock Pharmacy,535432,282 Main Street,,Plaster Rock,NB,E7G 4G9,Canada,(506) 356-2671,46.912114,-67.393432,,,,
Kingsbridge Pharmacy,511773,20 Kingsbridge Garden Circle,,Mississauga,ON,L5R 3K7,Canada,(905) 568-0022,43.602545,-79.648815,,,,
C.W. Fraser Pharmacy,517623,8 Pictou Road,,Truro,NS,B2N 2R8,Canada,(902) 895-4456,45.372132,-63.269727,,,,
Murphy's Tyne Valley Pharmacy,548785,7033 Route 12,,Tyne Valley,PE,C0B 1J0,Canada,(902) 831-2444,46.5737,-63.904689,,,,
Shamrock Pharmacy,534677,9831-100 Avenue ( Inside the Co-Op Food store ),,Grande Prairie,AB,T8V 0T7,Canada,(780) 532-2652,55.170605,-118.790024,,,,
Vardhman's Guardian Pharmacy,550912,"2980 Drew Road, PO Box 126",,Mississauga,ON,L4T 0A7,Canada,(905) 673-3784,43.7103,-79.652272,,,,
Sunderland Pharmacy,516835,103 River Street PO Box 186,,Sunderland,ON,L0C 1H0,Canada,(705) 357-3300,44.262493,-79.067494,,,,
Mountain Park Pharmacy,553320,47 Main Street,,Erickson,MB,R0J 0P0,Canada,(204) 636-2361,50.669536,-100.810813,,,,
Fairway River Pharmacy,559181,1401 River Road,,Kitchener,ON,N2A 3X9,Canada,(519) 896-6666,43.434352,-80.428073,,,,
Beaverbank Pharmacy,558389,309 Beaver Bank Road,,Beaverbank,NS,B4E 1K1,Canada,(902) 865-6694,44.799384,-63.68795,,,,
Steinbach Primary Care Pharmacy,559995,"333 Loewen Boulevard, Suite 20",,Steinbach,MB,R5G 0C3,Canada,(204) 326-6400,49.532794,-96.680203,,,,
WHITES DRUG STORE,563504,700 MAIN ST,,SWAN RIVER,MB,R0L 1Z0,Canada,(204) 734-3151,52.105794,-101.267306,,,,
COAST NATURALS,561040,104 641 MAHAN RD,,GIBSONS,BC,V0N 1V8,Canada,(604) 840-9550,49.406557,-123.524925,,,,
Pharmakeio Guardian,558301,1260 Kennedy Road,,Scarborough,ON,M1P 2L3,Canada,(416) 285-3339,43.757017,-79.278337,,,,
EXETER GUARDIAN,560292,38-44 THAMES RD,,EXETER,ON,N0M 1S3,Canada,(519) 235-1570,43.36199,-81.4815,,,,
MEDIPLUS PHARMACY-005,565649,777 DUNDAS ST W,,MISSISSAUGA,ON,L5C 4S8,Canada,(905) 279-6970,43.564233,-79.636165,,,,
Wally's Guardian Drugs,553173,68 Breynat Street PO Box 167,,Fort Smith,NT,X0E 0P0,Canada,(867) 872-2134,60.00431,-111.881177,,,,
Hamilton Drugs,546118,364 Hamilton River Road PO Box 478 Stn C,,Goose Bay,NL,A0P 1C0,Canada,(709) 896-8418,53.307504,-60.374664,,,,
Morningside Guardian Pharmacy,552240,"1265 Morningside Avenue, Unit 109",,Scarborough,ON,M1B 3V9,Canada,(416) 287-9450,43.802747,-79.200028,,,,
Welcome Guardian Pharmacy,553814,837 Danforth Ave,,Toronto,ON,M4J 1L2,Canada,(416) 466-8787,43.679808,-79.340642,,,,
Arcade & Jory Guardian Pharmacy,544994,286 King Street,,Midland,ON,L4R 3M6,Canada,(705) 526-8011,44.749503,-79.885038,,,,
Lukes Drug Mart,548177,112 4 Street NE,,Calgary,AB,T2E 3R9,Canada,(403) 266-4142,51.053263,-114.051693,,,,
Victoria Pharmacy,509512,304 Victoria Avenue N,,Hamilton,ON,L8L 5G4,Canada,(905) 526-1500,43.26219,-79.852608,,,,
Orton Park Pharmacy,522213,136 Orton Park Road,,Scarborough,ON,M1G 3H1,Canada,(416) 439-7222,43.7715,-79.208763,,,,
Wonderland Pharmacy,542632,"1061 Wonderland Road S., Unit 2",,London,ON,N6K 3X4,Canada,(519) 649-2520,42.939092,-81.281516,,,,
Parent Avenue Medical,553465,860 Tecumseh Road East,,Windsor,ON,N8X 2S5,Canada,(519) 977-7700,42.298936,-83.012169,,,,
Morelli's Guardian Pharmacy,557652,338 Dundas Street East,,Oakville,ON,L6H 6Z9,Canada,(905) 257-1277,43.488833,-79.718266,,,,
Enderby Pharmacy  and Wellness Centre,551417,513 Cliff Street,,Enderby,BC,V0E 1V0,Canada,(250) 838-0502,50.550408,-119.138268,,,,
Macleod Guardian Pharmacy,541901,1018 Macleod Trail S.E.,,Calgary,AB,T2G 2M7,Canada,(403) 276-8829,51.042668,-114.058334,,,,
C.G. Fulton Pharmacy,516982,255 Main Street,,Tatamagouche,NS,B0K 1V0,Canada,(902) 657-2545,45.712013,-63.291563,,,,
Dundalk Village Pharmacy,507554,1 Main Street E,,Dundalk,ON,N0C 1B0,Canada,(519) 923-2215,44.168545,-80.392458,,,,
Whitehaven Pharmacy,513775,"2255 Carling Avenue, Unit 103",,Ottawa,ON,K2B 7Z5,Canada,(613) 828-6566,45.368466,-75.774728,,,,
Murphy's Rustico Pharmacy,551812,7379 Cavendish Road,,North Rustico,PE,C0A 1X0,Canada,(902) 963-2899,46.464704,-63.318189,,,,
Stewart Pharmacy,538637,31 Simcoe Plaza PO Box 670,,Terrace Bay,ON,P0T 2W0,Canada,(807) 825-3666,48.782864,-87.100195,,,,
Scotia Pharmacy,554400,2151 Gottingen Street,,Halifax,NS,B3K 3B5,Canada,(902) 429-5777,44.652422,-63.583979,,,,
ORCHARDVIEW PHARMACY,565462,107-155 MAIN ST E,,GRIMSBY,ON,L8G 1A7,Canada,(905) 945-6088,43.18859,-79.544247,,,,
Health First Pharmacy,553386,42 Glen Allan Drive,,Bridgewater,NS,B4V 3N2,Canada,(902) 530-3501,44.382074,-64.511993,,,,
CHATHAM CENTRE PHARMACY,559247,100 KING ST WEST,,CHATHAM,ON,N7M 6A9,Canada,(519) 380-9000,42.404949,-82.183779,,,,
JOHNSON DRUG STORE,562052,16 TRIBE ROAD,,PERTH ANDOVER,NB,E7H 3R6,Canada,(506) 273-2882,46.736536,-67.702788,,,,
Glace Bay Pharmacy,549562,3 Sterling Road Sterling Mall,,Glace Bay,NS,B1A 3X2,Canada,(902) 849-1895,46.201092,-59.958363,,,,
Paisley Pharmacy,514350,514 Queen Street S,,Paisley,ON,N0G 2N0,Canada,(519) 353-5707,44.305551,-81.272769,,,,
Fournier Drugs,502828,1306 Shoppers Park Mall PO Box 56,,Grand Cache,AB,T0E 0Y0,Canada,(780) 827-3230,53.916944,-118.874444,,,,
Marcos Pharmacy,550337,374 Lakeshore Road East,,Mississauga,ON,L5G 1H5,Canada,(905) 271-6699,43.563563,-79.572881,,,,
PRESTON MEDICAL PHARMACY,565374,225 PRESTON ST,,OTTAWA,ON,K1R 7R1,Canada,(613) 233-3636,45.405698,-75.712005,,,,
Pharma Center Pharmacy,547086,105 - 164 Queen Street E.,,Brampton,ON,L6V 1B4,Canada,(905) 454-3200,43.692292,-79.753185,,,,
Hamilton Care Pharmacy,555827,969 Upper Ottawa Street,,Hamilton,ON,L8T 4V9,Canada,(289) 755-0142,43.211188,-79.834751,,,,
Sauble Pharmacy,516036,329 Main Street,,Sauble Beach,ON,N0H 2G0,Canada,(519) 422-2584,44.629594,-81.265725,,,,
Medical Centre Guardian Pharmacy,549663,5959 Anderson Street,,Brooklin,ON,L1M 2E9,Canada,(905) 655-4242,43.956213,-78.946953,,,,
Hythe Guardian Prescription Center,531753,"10404C - 100 Street, PO Box 306",,Hythe,AB,T0H 2C0,Canada,(780) 356-3990,55.327581,-119.55183,,,,
Tuscany Guardian Pharmacy,553263,Unit 16 - 9100 Jane Street,,Vaughan,ON,L4K 0A4,Canada,(905) 760-1044,43.829659,-79.532924,,,,
Keewatin Pharmacy,555737,912 Ottawa Street,,Keewatin,ON,P0X 1C0,Canada,(807) 547-3346,49.761013,-94.553171,,,,
Tellier Pharmacy,559764,5015 50 Avenue,,Bonnyville,AB,T9N 2J5,Canada,(780) 826-3789,54.26797,-110.741596,,,,
Southgate Pharmacy,505901,11C - 700 Balmoral Drive,,Brampton,ON,L6T 1X2,Canada,(905) 790-8860,43.721147,-79.698952,,,,
Cura Pharmacy,539346,265 Enfield Place R210,,Mississauga,ON,L5B 3Y6,Canada,(905) 276-9488,43.591246,-79.635646,,,,
Glencoe Pharmacy,555783,253 Main Street,,Glencoe,ON,N0L 1M0,Canada,(519) 287-2731,42.749161,-81.712305,,,,
MOUNTAINVIEW PHARMACY,562525,11 378 MOUNTAIN VIEW RD S,,GEORGETOWN,ON,L7G 0L5,Canada,(905) 877-0700,43.64829,-79.900666,,,,
Sandalwood Care Pharmacy,555491,10510 Torbram Road,,Brampton,ON,L6R 2N3,Canada,(905) 791-6080,43.765289,-79.748711,,,,
Wilson Pharmacy,544162,"3, 2185 Wilson Avenue",,Port Coquitlam,BC,V3C 6C1,Canada,(604) 942-4611,49.261013,-122.777504,,,,
HEALTH CARE GUARDIAN PHARMACY,563867,27 CEDAR ST S,,TIMMINS,ON,P4N 2G5,Canada,(705) 267-2048,48.475574,-81.329934,,,,
NEWTON PHARMACY,560479,1750 LAWRENCE AVE E,,SCARBOROUGH,ON,M1R2Y1,Canada,(416) 757-5121,43.742575,-79.307943,,,,
Leggett & Smith Pharmacy,545286,"18 King Street East., Unit M1",,Bolton,ON,L7E 1E8,Canada,(905) 857-1474,43.879731,-79.737444,,,,
Romana Discount Pharmacy,522641,851 St. Clair Avenue W,,Toronto,ON,M6C 1C3,Canada,(416) 651-2804,43.680134,-79.43228,,,,
HEALTH CENTRAL PHARMACY,563152,489 ST MARY'S ROAD,,WINNIPEG,MB,R2M 3L1,Canada,(204) 231-0603,49.86851,-97.110415,,,,
Nesters Market Pharmacy,539640,7019 Nesters Road,,Whistler,BC,V0N 1B7,Canada,(604) 932-3545,50.128796,-122.954521,,,,
Hutchin's Pharmacy,556694,310 Saint George Street,,Annapolis Royal,NS,B0S 1A0,Canada,(902) 532-2356,44.743423,-65.518018,,,,
Glenda Morton,556413,4902 Hankin Street,,Thorsby,AB,T0C 2P0,Canada,(780) 789-3686,53.226614,-114.047876,,,,
Eston Pharmacy,551024,103 Main Street,,Eston,SK,S0L 1A0,Canada,(306) 962-3243,51.466786,-109.153543,,,,
Silver Creek Guardian Pharmacy,552802,"325 Winterberry Drive, Suite 104, Heritage Greene Professional Arts Bldg",,Hamilton,ON,L8J 0B6,Canada,(905) 667-4640,43.192419,-79.806233,,,,
Vitacare Pharmacy,557839,198 Barton Street East,,Stoney Creek,ON,L8E 2K2,Canada,(905) 930-9877,43.231854,-79.736702,,,,
Essex Guardian Prescription Centre,507802,169 Talbot Street S,,Essex,ON,N8M 1B7,Canada,(519) 776-5131,42.169245,-82.814924,,,,
ALDERSHOT PHARMACY,562448,"185 PLAINS ROAD EAST, UNITS 2&3",,BURLINGTON,ON,L7T 2C4,Canada,(905) 681-7100,43.311568,-79.847217,,,,
Grand Isle Drug Store,515788,28 Durant Drive,,Grand Manan,NB,E5G 2A4,Canada,(506) 662-3188,44.766685,-66.744163,,,,
MCGREGOR MEDICAL PHARMACY,560402,9558 COUNTY ROAD 11,,MCGREGOR,ON,N0R 1J0,Canada,(519) 726-6337,42.144856,-82.969824,,,,
Nova Pharmacy and Convenience,559423,6199 Coburg Road,,Halifax,NS,B3H 1Z8,Canada,(902) 423-8000,44.639058,-63.591309,,,,
Rockingham Ridge Pharmacy,556582,30 Farnham Gate Road,,Halifax,NS,B3M 3W8,Canada,(902) 457-1515,44.672764,-63.664206,,,,
Nesters Market and Pharmacy SFU,550563,9000 University High Street,,Burnaby,BC,V5A 0C1,Canada,(604) 298-1566,49.278137,-122.911274,,,,
Sutherland Pharmacy Limited,509466,180 James Street S,,Hamilton,ON,L8P 4V1,Canada,(905) 527-4561,43.251315,-79.871411,,,,
Life Med Pharmacy #2,557289,218 Centre Street,,Vulcan,AB,T0L 2B0,Canada,(403) 485-2552,50.403468,-113.262809,,,,
Springhill Community Pharmacy,540448,64 Main Street,,Springhill,NS,B0M 1X0,Canada,(902) 597-7979,45.65028,-64.058801,,,,
Rutherford Guardian Pharmacy,534486,5283 Rutherford Road Unit 2,,Woodbridge,ON,L4H 2T2,Canada,(905) 850-9666,43.814855,-79.60689,,,,
Havelock Pharmacy,509692,44 Ottawa Street W PO Box 570,,Havelock,ON,K0L 1Z0,Canada,(705) 778-3851,44.43319,-77.891717,,,,
MODERN PHARMACY,563625,551 ONTARIO STREET,,ST CATHARINES,ON,L2N 4N4,Canada,(905) 935-0550,43.191206,-79.262238,,,,
MCGAFFEY MEDICAL PHARMACY,558675,3955 TECUMSEH RD E,,WINDSOR,ON,N8W 1J5,Canada,(519) 944-1717,42.305604,-82.97642,,,,
Newnham & Slipp Pharmacy,518927,604 Main Street,,Woodstock,NB,E7M 2C4,Canada,(506) 325-2000,46.149361,-67.573784,,,,
360 Pharmacy,556255,360 Highway #7,,Richmond Hill,ON,L4B 3Y7,Canada,(905) 889-1360,43.841239,-79.396378,,,,
Shubenacadie Pharmacy,556661,2815 Main Street,,Shubenacadie,NS,B0N 2H0,Canada,(902) 758-2228,45.1371,-63.374385,,,,
Southland Pharmacy,533722,1 - 3554 W 41 Avenue,,Vancouver,BC,V6N 3E6,Canada,(604) 266-2882,49.234647,-123.183536,,,,
Guardian Medical Pharmacy,561172,580 RIDEAU ST,,OTTAWA,ON,K1N 5Z8,Canada,(613) 789-1151,45.432737,-75.676201,,,,
Central Pharmacy,508421,45 Meredith Street,,Gore Bay,ON,P0P 1H0,Canada,(705) 282-2409,45.917257,-82.46452,,,,
Hurst Pharmacy,538255,419 Donlands Avenue,,Toronto,ON,M4J 3S2,Canada,(416) 421-3131,43.694437,-79.342816,,,,
Parkdale Pharmacy,506766,24 St. Peters Rd.,,Charlottetown,PE,C1A 5N4,Canada,(902) 894-4449,46.248361,-63.122381,,,,
Gallery Pharmacy,541866,201 Humber Avenue,,Labrador City,NL,A2V 2Y3,Canada,(709) 944-5332,52.942942,-66.909275,,,,
Morelli's Guardian Pharmacy,557586,469 Cornwall Road,,Oakville,ON,L6J 7S8,Canada,(905) 338-1255,43.461196,-79.673908,,,,
Dooley's Pharmacy,504832,2374 Highway #206,,Arichat,NS,B0E 1A0,Canada,(902) 226-3133,45.510968,-61.026053,,,,
Mountainside Pharmacy,506294,1900 Walkers Line,,Burlington,ON,L7M 4W5,Canada,(905) 336-2212,43.378188,-79.805726,,,,
Marina Pharmacyâ€™s,564780,1120 - 100th ST BOX 1270,,TISDALE,SK,S0E 1T0,Canada,(306) 873-2144,52.847396,-104.048984,,,,
Crowell's Pharmacy,556637,205 Herring Cove Road,,Halifax,NS,B3P 1L1,Canada,(902) 477-4650,44.623376,-63.617916,,,,
Murphy's Stratford Pharmacy,506755,13 Stratford Road,,Stratford,PE,C1B 1T4,Canada,(902) 569-1807,46.228038,-63.100849,,,,
Strandherd Guardian Pharmacy,558147,3091 Strandherd Drive,,Nepean,ON,K2G 4R9,Canada,(613) 825-7400,45.27588,-75.71665,,,,
Morelli's Pharmacy,543071,1225 Fairview Street,,Burlington,ON,L7S 1Y3,Canada,(905) 333-5537,43.329448,-79.819898,,,,
Kent Pharmacy,557223,424 Columbia Street,,New Westminster,BC,V3L 1B1,Canada,(604) 522-3400,49.20423,-122.905945,,,,
A & W PHARMACY,562921,505 YONGE ST,,BARRIE,ON,L4N 4E1,Canada,(705) 722-3343,44.361478,-79.656006,,,,
Bloorcourt Pharmacy,522494,936 Bloor Street W,,Toronto,ON,M6H 1L4,Canada,(416) 588-3100,43.66154,-79.427657,,,,
Bob's Pharmacy,517173,248 Philip Street,,Tignish,PE,C0B 2B0,Canada,(902) 882-2580,46.947976,-64.043014,,,,
Etobicoke First Pharmacy,555423,5468 Dundas Street West,,Toronto,ON,M9B 6E3,Canada,(647) 725-5143,43.632253,-79.544471,,,,
Cumberland Health Centre Pharmacy,533171,2696 Windermere Avenue Box 400,,Cumberland,BC,V0R 1S0,Canada,(250) 331-8510,49.621802,-125.031072,,,,
Centennial Pharmacy,513123,2375 County Road #45,,Norwood,ON,K0L 2V0,Canada,(705) 639-5535,44.382293,-77.979675,,,,
Suncoast Pharmacy,554040,"5531 Inlet Avenue, Unit 103, PO Box 1549",,Sechelt,BC,V0N 3A3,Canada,(604) 885-2899,49.473241,-123.756348,,,,
Caledon East Pharmacy,506496,"15771 Airport Road, Unit 1",,Caledon,ON,L7C 1K2,Canada,(905) 584-2238,43.865551,-79.86087,,,,
Manhattan Guardian Pharmacy,558345,411 Manhattan Street,,Markham,ON,L3P 7P4,Canada,(905) 477-1414,43.881274,-79.288523,,,,
NORTHEAST MEDICAL PHARMACY,562162,3557 ERRINGTON AVE,,CHELMSFORD,ON,P0M 1L0,Canada,(705) 855-0444,46.582143,-81.197589,,,,
Mindemoya Medical Guardian Pharmacy,511738,11 Yonge Street,,Mindemoya,ON,P0P 1S0,Canada,(705) 377-5411,45.731777,-82.167197,,,,
Wallace's Drug Store,512638,"27 Dundas Street E,",,Napanee,ON,K7R 3M3,Canada,(613) 354-3321,44.247837,-76.949547,,,,
Hope Pharmacy,554938,224 Wallace Street,,Hope,BC,V0X 1L2,Canada,(604) 860-2144,49.378837,-121.443346,,,,
Clinic Pharmacy,511637,240 Penetang Road PO Box 790,,Midland,ON,L4R 4P4,Canada,(705) 526-4269,44.739844,-79.909358,,,,
Newmarket Pharmacy,535623,130 Davis Drive Unit 24,,Newmarket,ON,L3Y 2N1,Canada,(905) 895-8631,44.054417,-79.474707,,,,
Thomson Guardian Drugs,510761,20 Talbot Street E,,Leamington,ON,N8H 1L2,Canada,(519) 326-5778,42.053145,-82.599198,,,,
Lukes Drug Mart - Killarney,551158,3407 - 26th Avenue SW,,Calgary,AB,T3E 0N3,Canada,(403) 242-1566,51.030043,-114.135879,,,,
Anderson's Pharmacy,533845,3rd Street,,North Vancouver,BC,V7M 1E7,Canada,(604) 988-5271,49.313478,-123.077056,,,,
O'Leary Guardian Drug,549033,536 Main St,,O'Leary,PE,C0B 1V0,Canada,(902) 859-2606,46.707218,-64.223796,,,,
NORTHCLIFF PHARMACY,564373,1751 EGLINTON AVE W,,TORONTO,ON,M6E 2H7,Canada,(416) 256-7888,43.696093,-79.447877,,,,
Angus Borden Pharmacy,504786,"6 River Drive, Unit#1",,Angus,ON,L0M 1B2,Canada,(705) 424-5931,44.322099,-79.88689,,,,
Brown's Guardian Pharmacy,517847,331 Durham Street PO Box 969,,Walkerton,ON,N0G 2V0,Canada,(519) 881-2420,44.13292,-81.14791,,,,
Stewiacke Pharmacy,556672,49 Riverside Avenue,,Stewiacke,NS,B0N 2J0,Canada,(902) 639-2271,45.138883,-63.351895,,,,
MARKHAM GUARDIAN PHARMACY,562219,102 MAIN ST N,,MARKHAM,ON,L3P 1X8,Canada,(905) 294-0444,43.877846,-79.260814,,,,
BIG BAY POINT GUARDIAN PHARMACY,559643,"750 BIG BAY POINT RD, Unit 7",,BARRIE,ON,L4M 4S6,Canada,(705) 252-5061,44.362956,-79.623815,,,,
Clinik Pharmacy,554095,7980 Kennedy Road South,,Brampton,ON,L6W 0A2,Canada,(905) 457-5252,43.675674,-79.722691,,,,
BAY PHARMACY,562151,5447 RR 117,,BAIE STE-ANNE,NB,E9A 1E5,Canada,(506) 228-3880,47.043383,-64.974255,,,,
LYMBURN GUARDIAN PHARMACY,561832,"7528, 178th  Street NW",,EDMONTON,AB,T5T 2Y5,Canada,(780) 487-9515,53.508902,-113.631366,,,,
Guardian Restigouche Pharmacy (2002) Inc.,536938,53 Mack Street,,Belledune,NB,E8G 2R3,Canada,(506) 237-5200,47.914291,-66.006396,,,,
Salisbury Pharmacy,545106,3154 Main Street,,Salisbury,NB,E4J 2L8,Canada,(506) 372-4760,46.026457,-65.042373,,,,
Sheppard Community Pharmacy,555221,5818 Sheppard Avenue East,,Scarborough,ON,M1B 4Z6,Canada,(647) 799-0669,43.795877,-79.230125,,,,
MEDIPARK PHARMACY,565682,780 BURNHAMTHORPE RD W,,MISSISSAUGA,ON,L5C 3X3,Canada,(905) 273-5666,43.576968,-79.65284,,,,
BESTKARE PHARMACY,565671,4 720 BURNHAMTHORPE RD W,,MISSISSAUGA,ON,L5C 3G1,Canada,(905) 615-7777,43.577428,-79.652343,,,,
LAMBETH DRUGS,560204,2530 MAIN ST BOX 969,,LONDON,ON,N6P 1R2,Canada,(519) 652-3306,42.909835,-81.297473,,,,
Davenport Pharmacy,519838,"219 Davenport Road, Unit 115",,Toronto,ON,M5R 1J3,Canada,(416) 925-6700,43.674895,-79.39568,,,,
TAYLOR PHARMACY LTD,563493,50 CENTRE ST,,GIMLI,MB,R0C 1B0,Canada,(204) 642-8170,50.632023,-96.990226,,,,
Jackson's Pharmacy,515834,32 Wellington Street S PO Box 448,,St. Marys,ON,N4X 1B2,Canada,(519) 284-1491,43.258453,-81.141883,,,,
LENDRUM GUARDIAN PHARMACY,564351,5720 111 ST  NW,,EDMONTON,AB,T6H 3G1,Canada,(587) 759-0708,53.494701,-113.517761,,,,
Rasha Pharmacy,555480,15 - 584 Pembina Highway,,Winnipeg,MB,R3M 3X7,Canada,(204) 505-0550,49.8647,-97.14715,,,,
Midland Eglinton Pharmacy,554411,"2555 Eglinton Avenue East, Unit 14",,Toronto,ON,M1K 5J1,Canada,(416) 266-0555,43.734809,-79.256887,,,,
Millerdale Pharmacy,547391,5201 43 Street,,Red Deer,AB,T4N 1C7,Canada,(403) 342-1434,52.262309,-113.819867,,,,
Cims Pharmacy,557344,1235 Trafalgar Road,,Oakville,ON,L6H 3P1,Canada,(905) 845-0800,43.466832,-79.69031,,,,
STORYBROOK PHARMACY & MEDICAL CLINIC,560303,"611 WANLESS DR, Unit 1",,BRAMPTON,ON,L7A 3Y6,Canada,(905) 840-9994,43.713308,-79.827257,,,,
Inter Pharmacy Inc.,512357,9 - 295 Eglinton Avenue E,,Mississauga,ON,L4Z 3K6,Canada,(905) 712-4231,43.612794,-79.646276,,,,
Sprucewood Pharmacy & Homecare,553612,"2, 5114 46 Street",,Lloydminster,AB,T9V 0C6,Canada,(780) 875-7283,53.279796,-110.009573,,,,
Fall River Guardian,549382,3084 Highway # 2,,Fall River,NS,B2T 1J5,Canada,(902) 861-2020,44.810394,-63.607379,,,,
Roseville Pharmacy,552600,2525 Rose Ville Garden Drive,,Windsor,ON,N8T 3J8,Canada,(519) 944-6333,42.307437,-82.946762,,,,
Mann's Prescription Phcy,501928,325 Jubilee Street,,Duncan,BC,V9L 1W9,Canada,(250) 746-7168,48.779353,-123.710696,,,,
Murphy's East Royalty Pharmacy,558444,266 St. Peters Road,,Charlottetown,PE,C1C 1K7,Canada,(902) 566-2266,46.269349,-63.112635,,,,
Burlington St. Joseph's Pharmacy,553217,906 Brant Street,,Burlington,ON,L7R 2J5,Canada,(905) 639-0906,43.33611,-79.813159,,,,
Hillcroft Pharmacy,520615,5 Hillcroft Drive,,Markham,ON,L3S 1R7,Canada,(905) 479-6161,43.829898,-79.280382,,,,
GLADSTONE PHARMACY,563449,"25 DENIS STREET WEST, Box 280",,GLADSTONE,MB,R0J 0T0,Canada,(204) 385-2051,50.225843,-98.952165,,,,
Kortright Pharmacy,508656,570 Kortright Road W,,Guelph,ON,N1G 3W8,Canada,(519) 763-1118,43.508186,-80.231887,,,,
McDonald's  Pharmacy,516330,67 Bruce Avenue PO Box 158,,South Porcupine,ON,P0N 1H0,Canada,(705) 235-3941,48.477906,-81.211594,,,,
Morell Pharmacy,539065,Sunset Crescent,,Morell,PE,C0A 1S0,Canada,(902) 961-3240,46.414982,-62.706032,,,,
Uptown Pharmacy,556007,243 Eglinton Avenue West,,Toronto,ON,M4R 1B1,Canada,(416) 485-5005,43.704903,-79.406554,,,,
MacKeigan's Pharmacy,518308,"25 MacKeigan's Lane, PO Box 190",,Whycocomagh,NS,B0E 3M0,Canada,(902) 756-2314,45.975176,-61.123949,,,,
South River Pharmacy,516341,22 Marie Street PO Box 38,,South River,ON,P0A 1X0,Canada,(705) 386-0636,45.84224,-79.37964,,,,
Becher Pharmacy,502053,10400 110 Street PO Box 2110,,Fairview,AB,T0H 1L0,Canada,(780) 835-4078,56.068603,-118.384554,,,,
Unicare B Pharmacy,558455,1880 O'Connor Drive,,Toronto,ON,M4A 1W9,Canada,(416) 901-7002,43.722714,-79.303213,,,,
SHAMROCK PHARMACY WEST,553206,11460 104 AVE,,GRANDE PRAIRIE,AB,T8V 3G9,Canada,(780) 538-4222,55.17387,-118.839739,,,,
BAYSIDE PHARMACY,560699,6044 HWY 2,,BASS RIVER,NS,B0M 1B0,Canada,(902) 647-2552,45.410732,-63.758886,,,,
Little Current Guardian Pharmacy,510928,41 Meredith Street E.,,Little Current,ON,P0P 1K0,Canada,(705) 368-2530,45.978037,-81.92263,,,,
Bedford Pharmacy,556683,535 Larry Utek Blvd,,Halifax,NS,B3M 0E3,Canada,(902) 407-4379,44.701195,-63.670158,,,,
Ultra Care Pharmacy,557212,105-9093 King George Blvd,,Surrey,BC,V3V 5V7,Canada,(604) 593-5322,49.16193,-122.846216,,,,
Springdale Pharmacy,505708,630 Peter Robertson Blvd,,Brampton,ON,L6R 1T4,Canada,(905) 790-6800,43.740534,-79.759986,,,,
Forbes Pharmacy #2 Goldstream,549202,111 755 Goldstream Ave,,Victoria,BC,V9B 2X4,Canada,(250) 478-7300,48.448359,-123.498411,,,,
Morelli's Pharmacy,549821,650 Wellington Street East,,Aurora,ON,L4G 0K3,Canada,(905) 713-1200,44.00465,-79.445199,,,,
Pharmacie Dieppe,556615,185 Acadie Avenue,,Dieppe,NB,E1A 1G6,Canada,(506) 384-6343,46.09183,-64.742521,,,,
SALUS PHARMACARE,561260,4963 FRONT ST SE,,CALGARY,AB,T3M 2M3,Canada,(587) 349-8498,50.881246,-113.949872,,,,
St. Stephen Prescription Centre,515856,101 King Street,,St. Stephen,NB,E3L 2C6,Canada,(506) 466-4447,45.195898,-67.274535,,,,
Harder's Drug Mart,503932,10013 100 Avenue PO Box 6836,,Peace River,AB,T8S 1S6,Canada,(780) 624-1200,56.233906,-117.288127,,,,
Guardian Pharmacy Trail South,548010,10415 - 51 Avenue,,Edmonton,AB,T6H 0K4,Canada,(780) 430-1995,53.488059,-113.497915,,,,
Cockburn's Corner Drug Store,560589,192 WATER ST,,ST ANDREWS,NB,E5B 1B2,Canada,(506) 529-3113,45.074013,-67.053185,,,,
Emerson Pharmacy,552363,21 Main Street,,Emerson,MB,R0A 0L0,Canada,(204) 373-2746,49.006914,-97.210347,,,,
Whitfield Drugs,548291,PO Box 100 33 Crescent Ave W,,Souris,MB,R0K 2C0,Canada,(204) 483-2155,49.616856,-100.260108,,,,
Morelli's Pharmacy,541675,2900 Walkers Line (Inside Longo's),,Burlington,ON,L7M 4M8,Canada,(905) 331-4554,43.388746,-79.819363,,,,
King City Pharmacy,546761,2075 King Road Unit 1,,King City,ON,L7B 1K2,Canada,(905) 833-5304,43.930132,-79.521767,,,,
West Royalty Pharmacy,506744,591 North River Road,,Charlottetown,PE,C1E 1J7,Canada,(902) 628-8899,46.262442,-63.156989,,,,
Adamson Guardian Drugs,518196,1 Talbot Street W PO Box 694,,Wheatley,ON,N0P 2P0,Canada,(519) 825-4111,42.095112,-82.463093,,,,
ONOWAY HEALTHCARE PHARMACY,565297,4927 LAC STE ANNE TRAIL S,,ONOWAY,AB,T0E 1V0,Canada,(780) 967-2241,53.703698,-114.193074,,,,
Laclie Pharmacy,513415,400 Laclie Street,,Orillia,ON,L3V 4P5,Canada,(705) 325-1111,44.624499,-79.422595,,,,
PALMYRA GUARDIAN PHARMACY,560666,1007 MERIVALE RD UNIT 1013,,OTTAWA,ON,K1Z 6A6,Canada,(613) 729-7007,45.379745,-75.732963,,,,
Morelli's Pharmacy,543508,202 - 7700 Hurontario Street,,Brampton,ON,L6Y 4M3,Canada,(905) 459-9667,43.661437,-79.727279,,,,
Maple Drug Mart,558510,2645 Lawrence Ave,,Scarborough,ON,M1P 2S2,Canada,(647) 427-5842,43.751767,-79.263485,,,,
Junction Pharmacy,520244,3006 Dundas Street W,,Toronto,ON,M6P 1Z3,Canada,(416) 763-2394,43.6656,-79.469916,,,,
McNeil Parkdale Pharmacy,555456,1077 Carling Avenue,,Ottawa,ON,K1Y 4K4,Canada,(613) 722-7679,45.390871,-75.723406,,,,
Harris Guardian Pharmacy,558092,111 Main Street West,,North Bay,ON,P1B 2T6,Canada,(705) 472-8280,46.310709,-79.464454,,,,
Sundridge Pharmacy,516802,107 Main Street,,Sundridge,ON,P0A 1Z0,Canada,(705) 384-5335,45.771483,-79.389595,,,,
Guardian Ross Drug,508252,1128 Smythe Street,,Fredericton,NB,E3B 3H5,Canada,(506) 458-1898,45.943736,-66.666561,,,,
FRIENDLY PHARMACY,565341,800 QUEENSTON RD UNIT 4,,STONEY CREEK,ON,L8G 1A7,Canada,(905) 662-8988,43.228226,-79.764884,,,,
Advantage Drug Mart,540900,4900 Wyandotte Street East,,Windsor,ON,N8Y 1H7,Canada,(519) 974-6991,42.326791,-82.978338,,,,
Londondale Guardian Pharmacy,558477,7606 144 Avenue,,Edmonton,AB,T5C 2R7,Canada,(780) 475-5575,53.607466,-113.458637,,,,
WELCOME GUARDIAN PHARMACY,562404,1881 YONGE ST,,TORONTO,ON,M4S 1Y6,Canada,(416) 480-1420,43.697732,-79.396149,,,,
Guardian Discount Pharmacy,559291,484 West Street,,Brantford,ON,N3R 3N7,Canada,(519) 752-3104,43.162453,-80.253073,,,,
Solarski Pharmacy,556020,149 Roncesville Ave.,,Toronto,ON,M6R 2L3,Canada,(416) 536-5452,43.643732,-79.448034,,,,
Grand Valley Drug Store,508476,23 Main Street South,,Grand Valley,ON,L9W 5S8,Canada,(519) 928-3303,43.89831,-80.315131,,,,
BRANT PHARMACY,563680,265 KING GEORGE RD,,BRANTFORD,ON,N3R 6Y1,Canada,,43.176491,-80.280039,,,,
MacArthur Drug Store,532372,21 Colborne Street,,Fenelon Falls,ON,K0M 1N0,Canada,(705) 887-2041,44.541342,-78.732975,,,,
PINE PHARMACY,563460,"22 Pine Street, P.O. BOX 520",,PINE FALLS,MB,R0E 1M0,Canada,(204) 367-2611,50.565446,-96.217763,,,,
Murphy's Summerside Pharmacy,552644,243 Harbour Drive,,Summerside,PE,C1N 5R1,Canada,(902) 888-2211,46.390162,-63.787823,,,,
Ryan's Pharmacy,512550,135 Otis Drive Unit 117,,Nackawic,NB,E6G 1H1,Canada,(506) 575-8409,45.996991,-67.23586,,,,
Peachland Pharmacy,553533,5848A Beach Avenue,,Peachland,BC,V0H 1X7,Canada,(250) 767-2611,49.77268,-119.73727,,,,
HILLSIDE FAMILY PHARMACY,565572,541 3RD AVE,,LADYSMITH,BC,,Canada,(250) 924-2288,48.992198,-123.820491,,,,
GUARDIAN PRAIRIE PHARMACY,562624,7- 1449 PRAIRIE AVE,,PORT COQUITLAM,BC,V3B 1S9,Canada,(604) 474-3050,49.271547,-122.753704,,,,
ISLAND PLAZA PHARMACY,560677,"540 KING ST W, Unit 1A",,OSHAWA,ON,L1J 7J1,Canada,(905) 579-6601,43.893299,-78.884129,,,,
Southwest Middlesex Health Centre,557927,22262 Mill Road,,Mount Brydges,ON,N0L 1W0,Canada,(519) 264-2023,42.897268,-81.471929,,,,
Reston Drugs,559907,209E 4th Street,,Reston,MB,R0M 1X0,Canada,(204) 877-3641,49.557427,-101.094505,,,,
Walden Family Drugstore,510941,135 Regional Road 24,,Lively,ON,P3Y 1J1,Canada,(705) 692-5868,46.422721,-81.142684,,,,
LEADER PHARMACY,560171,100 1st Avenue West,,LEADER,SK,S0N 1H0,Canada,(306) 628-4000,50.886026,-109.542405,,,,
LAKESHORE PHARMACY,565506,1303 COUNTY RD 22 UNIT 126,,LAKESHORE,ON,N0R 1A0,Canada,(226) 363-0930,42.296456,-82.750766,,,,
DOWNEY PHARAMACY,560842,3 KING ST,,COLBORNE,ON,K0K 1S0,Canada,(905) 355-2825,44.004717,-77.888444,,,,
Laurel Prescriptions,554196,102 - 888 West 8th Avenue,,Vancouver,BC,V5Z 3Y1,Canada,(604) 873-5511,49.264301,-123.123629,,,,
Ear Falls Pharmacy,555445,1273 Highway 105,,Ear Falls,ON,P0V 1T0,Canada,(807) 222-2038,50.643524,-93.242597,,,,
LUNA Rx,563559,130 THOMPSON RD,,LONDON,ON,N5Z 2Y6,Canada,(516) 601-5862,42.967952,-81.225636,,,,
Bouctouche Pharmacy Ltd.,556626,30 Irving Blvd.,,Bouctouche,NB,E4S 3L2,Canada,(506) 743-2434,46.472361,-64.720398,,,,
The Drive Pharmacy,554602,7875 Riverside Drive East,,Windsor,ON,N8S 3L6,Canada,(519) 974-7700,42.340125,-82.948248,,,,
Kellys Drug Store and Home Health Care,505247,411 Bridge Street E,,Belleville,ON,K8N 1P7,Canada,(613) 962-5387,44.169564,-77.358373,,,,
BRAMDALE PHARMACY,564450,945 PETER ROBERTSON RD,,BRAMPTON,ON,L6R 2R6,Canada,(905) 790-9393,43.746695,-79.745981,,,,
Yakimets Pharmacy & Care Ltd.,558202,10101 86th Avenue,,Fort Saskatchewan,AB,T8L 4P4,Canada,(780) 998-7722,53.698061,-113.201791,,,,
Wellington Pharmacy,547740,16 Pond Drive,,Wellington,PE,C0B 2E0,Canada,(902) 854-5000,46.452252,-64.001675,,,,
ARMSTRONG PHARMACY & WELLNESS CENTRE,561876,3300 SMITH DR 5,,ARMSTRONG,BC,V0E 1B0,Canada,(250) 546-3169,50.446766,-119.183836,,,,
Village Pharmacy,533823,13 East Main Street,,Port Elgin,NB,E4M 2X8,Canada,(506) 538-2334,46.049939,-64.087628,,,,
West Side Pharmacy & Compounding,555513,3079 Princess Street,,Kingston,ON,K7L 4V2,Canada,(613) 767-6611,44.268825,-76.648946,,,,
ROYAL CARE CLINIC PHARMACY,560182,635 SHAWCLIFFE GATE,,CALGARY,AB,T2Y 1W1,Canada,(403) 719-6601,50.911461,-114.075293,,,,
Delray Pharmacy,533316,1147 Lawrence Avenue W,,Toronto,ON,M6A 1E1,Canada,(416) 241-0109,43.708718,-79.477847,,,,
Albert County Pharmacy,550528,5883 King Street,,Riverside-Albert,NB,E4H 4B5,Canada,(506) 882-2226,45.746083,-64.742168,,,,
Red Lake Pharmacy,545556,51G Highway 105,,Red Lake,ON,P0V 2M0,Canada,(807) 727-2255,51.021588,-93.823298,,,,
Marina Pharmacy,532833,12887 Madeira Park Road,,Madeira Park,BC,V0N 2H0,Canada,(604) 883-2888,49.619872,-124.023169,,,,
Coulter's Pharmacy and Home Health Care,511356,1709 Dundas Street,,London,ON,N5W 3E1,Canada,(519) 451-0750,43.001664,-81.186244,,,,
BLUE SKIES PHARMACY GUARDIAN,560831,1298 KINGSTON RD UNIT 2,,PICKERING,ON,L1V 3M6,Canada,(905) 837-3301,43.835697,-79.090677,,,,
Eringate Drugs,553645,120 Eringate Drive,,Etobicoke,ON,M9C 3Z8,Canada,(416) 621-3111,43.660008,-79.583111,,,,
MOSTAR PHARMACY,562371,175 MOSTAR ST,,STOUFVILLE,ON,L4A 0Y2,Canada,(905) 640-3600,43.962608,-79.262509,,,,
Guardian Timberlea Pharmacy,556648,1800 St. Margaret's Bay Road,,Timberlea,NS,B3T 1B8,Canada,(902) 876-2833,44.645187,-63.711621,,,,
Guardian Ross Drug,508140,402 Queen Street,,Fredericton,NB,E3B 1B6,Canada,(506) 458-9951,45.962816,-66.643184,,,,
Pollett Drug Store,516971,203 Charlotte Street PO Box 1568,,Sydney,NS,B1P 6R8,Canada,(902) 564-8300,46.140328,-60.195318,,,,
MURPHY'S CENTRAL STREET PHARMACY,565594,434 CENTRAL ST,,SUMMERSIDE,PE,C1N 3N7,Canada,(902) 724-4900,46.410738,-63.787077,,,,
Prime Care Pharmacy Arboretum,540505,281 Stone Road East,,Guelph,ON,N1G 5J5,Canada,(519) 837-4594,43.519995,-80.233818,,,,
Valley Creek Pharmacy,549764,"1975 Cottrelle Blvd, Unit 5",,Brampton,ON,L6P 2Z8,Canada,(905) 794-1001,43.772374,-79.689339,,,,
Father Tobin Pharmacy,550416,105 Father Tobin Road,,Brampton,ON,L6R 0W9,Canada,(905) 793-3510,43.77116,-79.754912,,,,
Mount Uniacke Pharmacy,554477,"653 Highway One, PO Box 263",,Mount Uniacke,NS,B0N 1Z0,Canada,(902) 866-3848,44.894449,-63.832588,,,,
TOWER STREET PHARMACY GUARDIAN,561161,769 TOWER ST S,,FERGUS,ON,N1M 2R2,Canada,(519) 843-1800,43.698117,-80.37095,,,,
C.G. Fulton Pharmacy,514855,2747 River John Station Road,,River John,NS,B0K 1N0,Canada,(902) 351-2500,45.751526,-63.059028,,,,
Nobleton Guardian Pharmacy,558686,12931 Highway 27,,Nobleton,ON,L0G 1N0,Canada,(905) 859-2322,43.900558,-79.652298,,,,
Public Health Pharmacy,553950,"1285 Elgin Mills Road East, Unit 23",,Richmond Hill,ON,L4S 0B5,Canada,(905) 787-9828,43.896283,-79.40239,,,,
Main Exchange Pharmacy,529694,800 Steeles Avenue Unit B8,,Thornhill,ON,L4J 7L2,Canada,(905) 761-3345,43.792479,-79.44591,,,,
Bathurst-Dundas Pharmacy,534756,757 Dundas Street W,,Toronto,ON,M6J 1T9,Canada,(416) 703-2100,43.652159,-79.406698,,,,
Medi Place Pharmacy,522887,146 - 3300 Bloor St West,,Toronto,ON,M8X 2W8,Canada,(416) 236-1145,43.645325,-79.522756,,,,
Dalecliff Medical Pharmacy,549123,"Unit 2, 209 Ellesmere Road",,Toronto,ON,M1R 4E2,Canada,(416) 445-6978,43.760636,-79.302459,,,,
Manitowaning Guardian Pharmacy,511492,147 Arthur Street,,Manitowaning,ON,P0P 1N0,Canada,(705) 859-2323,45.743347,-81.806355,,,,
Morelli's Pharmacy (Inside Longo's),548842,98 Copper Creek Drive,,Markham,ON,L6B 0P2,Canada,(905) 209-8121,43.867767,-79.228171,,,,
Nathan's Pharmacy,555570,147 Clarence Street,,Brampton,ON,L6W 1T2,Canada,(905) 497-6500,43.68974,-79.741389,,,,
SUPER-CARE PHARMACY,561788,9225 MAIN ST,,CHILLIWACK,BC,V2P 4M8,Canada,(604) 792-6260,49.169349,-121.95678,,,,
Morelli's Guardian Pharmacy,555693,3085 Highway 7,,Markham,ON,L3R 0J5,Canada,(905) 479-0999,43.85012,-79.35518,,,,
Guardian Ross Drug,508241,206 Rookwood Avenue,,Fredericton,NB,E3B 2M3,Canada,(506) 458-1187,45.961018,-66.660735,,,,
Grand Bay Pharmacy,508443,114 River Valley Drive,,Grand Bay Westfield,NB,E5K 1A2,Canada,(506) 738-8406,45.299883,-66.195264,,,,
Stonechurch Pharmacy,542733,25 Redmond Drive Unit 3,,Hamilton,ON,L8W 3K7,Canada,(905) 574-2828,43.206162,-79.864922,,,,
GUARDIAN BEACH PHARMACY,564769,101-4705 46 A AVE,,ALBERTA BEACH,AB,T0E 0A0,Canada,(204) 594-4555,53.676159,-114.34987,,,,
Palermo Pharmacy,559401,100 - 2525 Old Bronte Road,,Oakville,ON,L6M 4J2,Canada,(905) 582-5520,43.434745,-79.775133,,,,
Beausejour Pharmacy,547064,635 Park Avenue,,Beausejour,MB,R0E 0C0,Canada,(204) 268-2500,50.061927,-96.514823,,,,
PARKDALE GUARDIAN PHARMACY,562327,1488 QUEEN ST W,,TORONTO,ON,M6K 1M4,Canada,(416) 533-2391,43.640515,-79.437566,,,,
McLaren Pharmacy,533643,5299 Nauvoo Road,,Watford,ON,N0M 2S0,Canada,(519) 876-2213,42.948317,-81.88016,,,,
The Corner Drug Store,549786,106 Main Street,,Sackville,NB,E4L 4A7,Canada,(506) 536-2255,45.897681,-64.368497,,,,
KINGSWOOD GUARDIAN PHARMACY,563735,3 KINGSWOOD DR,,HAMMONDS PLAINS,NS,B4B 0P3,Canada,(902) 835-5100,44.723363,-63.737669,,,,
SWAN HEALTH CARE PLUS PHARMACY,563482,615 MAIN ST,,SWAN RIVER,MB,R0L 1Z0,Canada,(204) 734-3392,52.105164,-101.268229,,,,
PHARMALINX GUARDIAN PHARMACY,565440,178 MAIN ST,,UNIONVILLE,ON,L3R 2G9,Canada,(905) 475-5700,43.867246,-79.31234,,,,
Cedar Pharmacy,503223,10017 Alberta Avenue PO Box 1890,,Lac La Biche,AB,T0A 2C0,Canada,(780) 623-4151,54.754921,-111.976715,,,,
Unionville Guardian Pharmacy,558752,9249 Kennedy Road,,Unionville,ON,L3R 6H8,Canada,(905) 944-9191,43.879226,-79.313489,,,,
GARDEN PHARMACY 2,563933,32625 SOUTH FRASER HWY,,ABBOTSFORD,BC,V2T 1X8,Canada,(604) 776-3377,49.056147,-122.384712,,,,
Coniston Pharmacy,558576,24 Amanda Street,,Coniston,ON,P0M 1M0,Canada,(705) 694-5346,46.493723,-80.847146,,,,
Prima Care Pharmacy,554916,9600 Islington Avenue,,Woodbridge,ON,L4H 2T1,Canada,(905) 552-6000,43.824964,-79.609676,,,,
Royal Care Compounding Pharmacy,545973,"5119 - 50th Street, PO Box 421",,Mundare,AB,T0B 3H0,Canada,(780) 764-3036,53.593812,-112.339236,,,,
THORNTON PHARMACY & HEALTH FOOD,565583,4171 INNISFIL BEACH RD UNIT 13,,THORNTON,ON,L0L 2N0,Canada,(705) 291-7979,44.275105,-79.720737,,,,
Knights Pharmacy,551248,330 Main Street,,Penticton,BC,V2A 5C3,Canada,(250) 492-4024,49.498278,-119.592186,,,,
Kennebecasis Drugs,515406,1 Marr Road,,Rothesay,NB,E2E 5X4,Canada,(506) 847-7581,45.396009,-65.981585,,,,
Apsley Pharmacy,532427,"168 Burleigh Street, PO Box 310",,Apsley,ON,K0L 1A0,Canada,(705) 656-3301,44.755999,-78.087102,,,,
Tay Pharmacy,559225,115 William Street,,Victoria Harbour,ON,L0K 2A0,Canada,(705) 506-0301,44.751305,-79.774587,,,,
Murphy's Kensington Pharmacy,510041,56 Broadway St,,Kensington,PE,C0B 1M0,Canada,(902) 836-3316,46.437347,-63.637887,,,,
North Bay Guardian Drugs,558103,1950 Algonquin Avenue,,North Bay,ON,P1B 4Z2,Canada,(705) 472-5500,46.333905,-79.465971,,,,
Wheat City Pharmacy,546502,"Unit C1, 1711 Kirkcaldy Drive",,Brandon,MB,R7A 0B9,Canada,(204) 727-1790,49.864069,-99.959954,,,,
Hiway 10 Pharmacy,542428,"2100 Hurontario Street, Unit #6",,Mississauga,ON,L5B 1M8,Canada,(905) 270-4448,43.57034,-79.602448,,,,
James Potter Road Pharmacy,560006,9715 James Potter Road,,Brampton,ON,L6X 3B9,Canada,(905) 456-0800,43.661138,-79.783003,,,,
Sinclair Pharmacy Ltd.,516554,"12 Wellington Street, PO Box 21055",,Stratford,ON,N5A 7V4,Canada,(519) 271-8940,43.370363,-80.98244,,,,
Limeridge Medical Pharmacy,509264,849 Upper Wentworth Street,,Hamilton,ON,L9A 5H4,Canada,(905) 574-5333,43.221764,-79.862111,,,,
Whitfield's Pharmacy,559027,16 Queen Street W,,Elmvale,ON,L0L 1P0,Canada,(705) 322-1011,44.583415,-79.866898,,,,
Town & Country Drugs - Killam,504077,PO Box 159,,Killam,AB,T0B 2L0,Canada,(780) 385-3598,52.790421,-111.85566,,,,
Port Union Pharmacy,552947,5550 Lawrence Avenue E,,West Hill,ON,M1C 3B2,Canada,(416) 286-4122,43.779685,-79.137208,,,,
Keswick Pharmacy,510052,10 Yerxa Lane,,Keswick,NB,E6L 0A1,Canada,(506) 363-2286,45.994781,-66.827415,,,,
Doon Mills Pharmacy,547536,260 Doon South Drive,,Kitchener,ON,N2P 2L8,Canada,(519) 894-4000,43.382044,-80.427448,,,,
MURPHYS QUEEN ST PHARMACY,560424,420 QUEEN ST UNIT 13,,CHARLOTTETOWN,PE,C1A 4E6,Canada,(902) 892-7633,46.241657,-63.135498,,,,
First Place Pharmacy,508915,350 King Street E Suite 117,,Hamilton,ON,L8N 3Y3,Canada,(905) 540-8877,43.253175,-79.858686,,,,
Pharmacie de Cap Pele Ltd,539910,2562 Ch. Acadie,,Cap-Pele,NB,E4N 1E3,Canada,(506) 577-4716,46.216641,-64.283906,,,,
Village Square Pharmacy,523427,2942 Finch Avenue E,,Scarborough,ON,M1W 2T4,Canada,(416) 492-4167,43.793573,-79.329292,,,,
Riverside Pharmacy,556547,225 Mitchell Street,,Oromocto,NB,E2V 0H3,Canada,(506) 357-3302,45.853279,-66.470999,,,,
Cedarview Pharmacy,549235,12-4100 Strandherd Dr.,,Nepean,ON,K2J 0V2,Canada,(613) 823-1700,45.259827,-75.767798,,,,
Morelli's Pharmacy (Longo's ACC),552161,15 York Street (Longo's ACC),,Toronto,ON,M5J 0A3,Canada,(416) 815-1200,43.642346,-79.381221,,,,
OSR Guardian Pharmacy,550978,2220 - 2222 Lakeshore Road West,,Oakville,ON,L6L 5G5,Canada,(905) 847-8200,43.401712,-79.702991,,,,
St. George Pharmacy,557177,127 Brunswick Street,,St. George,NB,E5C 1A8,Canada,(506) 755-3335,45.12935,-66.832545,,,,
Pharmacie Cocagne Pharmacy,551711,4813 Route 134,,Cocagne,NB,E4R 2Y2,Canada,(506) 576-6262,46.344495,-64.623169,,,,
SOUTH KEYS PHARMACY,561909,1883 BANK ST,,OTTAWA,ON,K1V 7Z9,Canada,(613) 680-8880,45.369367,-75.662677,,,,
ASHERN PHARMACY,563438,"43 Main Street, BOX 490",,ASHERN,MB,R0C 0E0,Canada,(204) 768-2824,50.333949,-99.734362,,,,
The KW Pharmacy,532653,65 University Avenue E Unit 5A,,Waterloo,ON,N2J 2V9,Canada,(519) 746-6133,43.476867,-80.520759,,,,
Morris Pharmacy,557916,112 Main Street,,Morris,MB,R0G 1K0,Canada,(204) 746-3111,49.352835,-97.364445,,,,
Community Pharmacy,556571,2273 Prospect Road,,Halifax,NS,B3T 1S9,Canada,(902) 852-3343,44.560882,-63.730965,,,,
Jeffers' Pharmacy,513358,1 Elizabeth Street,,Orangeville,ON,L9W 7N7,Canada,(519) 941-1230,43.920577,-80.100794,,,,
Welcome Pharmacy,535342,137 Roncevalles Avenue,,Toronto,ON,M6R 2L2,Canada,(416) 533-2088,43.643304,-79.447767,,,,
Guardian Beach Pharmacy Rx Centre,532596,101-4705 46A Street,,Alberta Beach,AB,T0E 0A0,Canada,(780) 924-3647,53.675702,-114.354835,,,,
Sheridan Pharmacy,556132,373 Steeles Avenue West,,Brampton,ON,L6Y 0P8,Canada,(905) 453-8555,43.657912,-79.741917,,,,
Walker's Pharmacy,503842,516 Clarence Avenue S,,Saskatoon,SK,S7H 2C9,Canada,(306) 653-4382,52.120617,-106.646488,,,,
Uptown Apothecary,557076,9325 Yonge Street East,,Richmond Hill,ON,L4C 0A8,Canada,(905) 780-6161,43.854201,-79.432618,,,,
Morelli's Guardian Pharmacy,555388,93 Laird Drive,,Toronto,ON,M4G 3T7,Canada,(416) 696-0990,43.705687,-79.361619,,,,
Elmsdale Pharmacy,556650,"269 Hwy 14, Unit 2",,Elmsdale Hants County,NS,B2S 1K1,Canada,(902) 883-2227,44.975706,-63.507296,,,,
Niverville Pharmacy,538290,72 Main Street,,Niverville,MB,R0A 1E0,Canada,(204) 388-4533,49.605798,-97.045004,,,,
ROYAL CARE DOUGLASDALE PHARMACY,561128,20 DOUGLASWOODS DR SE,,CALGARY,AB,T2Z 1K4,Canada,(587) 349-3443,50.943388,-114.001611,,,,
Morelli's Pharmacy,547918,3455 Wyecroft Road,,Oakville,ON,L6L 0B1,Canada,(905) 469-6523,43.398021,-79.747217,,,,
ETOBICOKE CLINIC GUARDIAN PHARMACY,564054,85 THE WEST MALL,,ETOBICOKE,ON,M8Z 5W4,Canada,,43.619872,-79.548608,,,,
Castle Oaks Pharmacy,557707,225 Castle Oaks Crossing,,Brampton,ON,L6P 3X3,Canada,(905) 794-2255,43.789404,-79.680773,,,,
Rossburn Pharmacy,548234,"23 Main Street, Box 549",,Rossburn,MB,R0J 1V0,Canada,(204) 859-2705,50.251452,-99.838863,,,,
Guardian Pharmacy,502738,5222 50 Street,,Tofield,AB,T0B 4J0,Canada,(780) 662-3108,53.370064,-112.667057,,,,
UNIVERSITY HEALTH CENTRE PHARMACY,560908,"8900 114 ST NW, STUDENT UNION BLDG",,EDMONTON,AB,T6G 2J7,Canada,(780) 492-2634,53.525401,-113.527293,,,,
Sangudo Central County Pharmacy,502345,5016 50 Street PO Box 65,,Sangudo,AB,T0E 2A0,Canada,(780) 785-3784,53.888395,-114.903099,,,,
Kingston Pharmacy,558334,2265 Kingston Road,,Scarborough,ON,M1N 1T8,Canada,(647) 346-9300,43.705715,-79.251537,,,,
Hampton Guardian Pharmacy,557729,454 Main Street,,Hampton,NB,E5N 6C1,Canada,(506) 832-2440,45.519068,-65.833784,,,,
EGLINTON MEDICAL PHARMACY,565814,2010 EGLINTON AVE W,,TORONTO,ON,M6E 2K3,Canada,(416) 780-1452,43.694823,-79.455529,,,,
SKL Drugs Ltd.,538233,10 - 4080 Steeles Avenue East,,Markham,ON,L7R 4C3,Canada,(905) 305-7667,43.822584,-79.313585,,,,
Alert Bay Drugs,545321,90 Fir Street,,Alert Bay,BC,V0N 1A0,Canada,(250) 974-5712,50.583885,-126.928482,,,,
Main Street Pharmacy,517116,156 Main Street,,Thessalon,ON,P0R 1L0,Canada,(705) 842-2322,46.255524,-83.557287,,,,
Lincoln Road Pharmacy,551788,1574 Lincoln Road,,Windsor,ON,N8Y 2J4,Canada,(519) 973-7700,42.306433,-83.006113,,,,
Gibbons Guardian Pharmacy,502547,4715 50 Avenue PO Box 720,,Gibbons,AB,T0A 1N0,Canada,(780) 923-3200,53.828483,-113.328271,,,,
STOCKYARDS PHARMACY,561084,2566 ST CLAIR AVE W,,TORONTO,ON,M6N 1L8,Canada,(416) 762-2662,43.667987,-79.488645,,,,
Snowdon Pharmacy,522224,264 Bloor Street W,,Toronto,ON,M5S 1V8,Canada,(416) 922-2156,43.667587,-79.400296,,,,
Johnston Pharmacy,511468,57 St. lawrence Street East,,Madoc,ON,K0K 2K0,Canada,(613) 473-4112,44.504783,-77.4726,,,,
Stroud Medical Pharmacy,516633,2 - 7869 Yonge Street,,Innisfil,ON,L9S 1K8,Canada,(705) 436-6952,44.323502,-79.618914,,,,
Riverview Pharmacy,549088,645 Pinewood Road Unit 3A,,Riverview,NB,E1B 5R6,Canada,(506) 386-2111,46.052191,-64.790052,,,,
Westlaw Pharmacy,523528,1922 Weston Road,,Weston,ON,M9N 1W2,Canada,(416) 245-8677,43.700311,-79.517466,,,,
Kingswood Pharmacy,558818,3 Kingswood Drive,,Hammonds Plains,NS,B4B 0P3,Canada,(902) 835-5100,44.709632,-63.753046,,,,
Pilot Mound Pharmacy,548818,143 Broadway Avenue,,Pilot Mound,MB,R0G 1P0,Canada,(204) 825-2500,49.203333,-98.895627,,,,
Kent Drugs,556604,9385 Main Street,,Richibucto,NB,E4W 4B6,Canada,(506) 523-4447,46.681786,-64.862284,,,,
Leibel's Pharmacy,538806,"#7B Village Drive, RR 2",,Westerose,AB,T0C 2V0,Canada,(780) 586-0796,52.964982,-114.027926,,,,
Willis Pharmacy,554872,414 Fifth Avenue,,Matheson,ON,P0K 1N0,Canada,(705) 273-2202,48.535393,-80.465421,,,,
Spring Valley Pharmacy,557410,15 Ashby Field Road,,Brampton,ON,L6X 3B7,Canada,(905) 450-6444,43.672279,-79.821543,,,,
Burnaby Square Prescriptions,539032,7885 6th Street Unit # 107,,Burnaby,BC,V3N 3N4,Canada,(604) 523-1400,49.219149,-122.927855,,,,
Summeridge Guardian Pharmacy,544645,"8707 Dufferin Street, Building D, Units 11,12,12A",,Vaughan,ON,L4J 0A2,Canada,(905) 764-3300,43.829548,-79.478799,,,,
Cockburn's Corner Drug Store,515441,192 Water Street,,St Andrews,NB,E5B 1B2,Canada,(506) 529-3113,45.073965,-67.053128,,,,
YUAN MING PHARMACY,564417,1000 BURNHAMTHORPE RD W,,MISSISSAUGA,ON,L5C 2S4,Canada,(905) 897-8787,43.572134,-79.658453,,,,
GUARDIAN MOBARAK PHARMACY,560754,28 OVERLEA BLVD,,TORONTO,ON,M4H 1B6,Canada,(416) 421-7211,43.705526,-79.350005,,,,
MacKay's Island Pharmacy,531606,1186 Richard's Street,,Richard's Landing,ON,P0R 1J0,Canada,(705) 246-0650,46.293112,-84.035179,,,,
Mary's Pharmacy,559093,1194 Lansdowne Drive,,Coquitlam,BC,V3E 1J7,Canada,(604) 941-0454,49.283864,-122.810708,,,,
Enderby Pharmacy Ltd,561865,310 Cliff Street,,Enderby,BC,V0E 1V0,Canada,(250) 838-6469,50.550408,-119.138268,,,,
Simcoe Square Pharmacy,535601,157 Holland Street E PO Box 610,,Bradford,ON,L3Z 2B2,Canada,(905) 775-9225,44.115586,-79.559082,,,,
Satnam Pharmacy,557509,115-7130 120 Street,,Surrey,BC,V3W 3M8,Canada,(604) 597-5947,49.130985,-122.889241,,,,
Model Drug Store,557894,32 Birch Street,,Chapleau,ON,P0M 1K0,Canada,(705) 864-0472,47.843235,-83.401053,,,,
Lakeshore Drug Mart,557311,347 Lakeshore Road East,,Oakville,ON,L6J 1J5,Canada,(905) 338-1919,43.448811,-79.665116,,,,
HIGH ST GUARDIAN PHARMACY,562360,815 HIGH ST,,PETERBOROUGH,ON,K9J 8J9,Canada,(705) 874-8080,44.28332,-78.334164,,,,
DMC Pharmacy,554387,3335 Dougall Avenue,,Windsor,ON,N9E 1S8,Canada,(519) 969-8700,42.26619,-83.009579,,,,
Mapleton Pharmacy,551068,"500 Mapleton Road, Suite 120",,Moncton,NB,E1G 0N3,Canada,(506) 855-2210,46.121479,-64.829134,,,,
Alcona Pharmacy,557333,1070 Innisfill Beach Road,,Innisfill,ON,L9S 4T9,Canada,(705) 294-5500,44.313871,-79.552844,,,,
Coldwater Pharmacy,507082,45 River Street N,,Coldwater,ON,L0K 1E0,Canada,(705) 686-3356,44.71413,-79.646318,,,,
Malotts Pharmacy,510298,59 Main Street E,,Kingsville,ON,N9Y 1A1,Canada,(519) 733-3053,42.038032,-82.736847,,,,
Jackson Park Pharmacy,547075,"2475 McDougall Avenue, Suite 140",,Windsor,ON,N8X 3N9,Canada,(519) 972-0500,42.289843,-83.016221,,,,
Bridgenorth Pharmacy,534690,871 Ward Street PO Box 130,,Bridgenorth,ON,K0L 1H0,Canada,(705) 292-7200,44.38267,-78.38382,,,,
Neilson Pharmacy,512021,2180 Credit Valley Road,,Mississauga,ON,L5M 3C9,Canada,(905) 820-5434,43.557101,-79.701187,,,,
Tobia's Guardian Pharmacy,552982,12357 Hwy 41,,Northbrook,ON,K0H 2G0,Canada,(613) 336-8111,44.737379,-77.160848,,,,
ProCare Pharmacy,505023,125 Bellfarm Road,,Barrie,ON,L4M 6L2,Canada,(705) 722-7474,44.410913,-79.674564,,,,
Maggie's Pharmacy,541530,2591 Commercial Drive,,Vancouver,BC,V5N 4C1,Canada,(778) 371-8721,49.261539,-123.070023,,,,
Columbia Street Pharmacy,552508,#112-300 Columbia Street,,Kamloops,BC,V2C 6L1,Canada,(778) 471-5971,50.671747,-120.333724,,,,
Unicare Pharmacy,523348,3170 Lakeshore Blvd W,,Etobicoke,ON,M8V 3X8,Canada,(416) 503-0013,43.597963,-79.517963,,,,
Carpenter Pharmacy,510344,501 Krug Street,,Kitchener,ON,N2B 1L3,Canada,(519) 744-4424,43.456688,-80.461646,,,,
Herring Cove Pharmacy,548100,Unit 2 924 Rte774,,Welshpool,NB,E5E 1B1,Canada,(506) 752-1811,44.921388,-66.92131,,,,
Desh Guardian Pharmacy,558785,2978 Danforth Avenue,,Toronto,ON,M4C 1M6,Canada,(416) 699-9946,43.690554,-79.291959,,,,
PHARMALINX PHARMACY,562888,2101 BRIMLEY RD,,TORONTO,ON,M1S 2B4,Canada,(416) 297-6700,43.788758,-79.268797,,,,
CITY CENTRE PHARMACY,561799,500 WYANDOTTE ST E,,WINDSOR,ON,N9A 3H9,Canada,(519) 254-0606,42.316929,-83.029684,,,,
IGNACE PHARMACY,560655,1100 MAIN ST,,IGNACE,ON,P0T 1T0,Canada,(807) 934-2525,49.416539,-91.65899,,,,
Wishing Well Pharmacy,557245,12637 10th Line,,Stouffville,ON,L4A 7X3,Canada,(905) 591-9355,43.983194,-79.232789,,,,
ATLAS PHARMACY,562173,"1383 16th Avenue, unit 1A",,RICHMOND HILL,ON,L4B 0E2,Canada,(905) 918-3560,43.861378,-79.389735,,,,
Dooley's Pharmacy,562316,"2374 Highway # 206, PO Box 210",,Arichat,NS,B0E 1A0,Canada,(902) 226-3133,45.510896,-61.025225,,,,
CFMC GUARDIAN PHARMACY,563658,"300 SILVER STAR BLVD, Unit R102",,TORONTO,ON,M1V 0G2,Canada,(416) 335-8858,43.816139,-79.314366,,,,
PRIMARY CARE PHARMACY,564043,370 BAYVIEW DR.,,BARRIE,ON,L4N 7L3,Canada,(705) 735-4500,44.348685,-79.679642,,,,
WESTWINDS GUARDIAN DRUGS,566562,4774 WEST WINDS DR NE,,CALGARY,AB,T3J 0L7,Canada,(403) 830-5811,51.100468,-113.965726,,,,
Armstrong Pharmacy  and Wellness Centre,551406,#5 - 3300 Smith Drive,,Armstrong,BC,V0E 1B0,Canada,(250) 546-3169,50.446886,-119.184451,,,,
COLLINGWOOD HEALTH CENTRE PHARMACY,562833,186 ERIE ST,,COLLINGWOOD,ON,L9Y 4T3,Canada,(705) 444-2268,44.501071,-80.204806,,,,
Kanan's Guardian Pharmacy,559049,"3227 Eglinton Avenue East, Units 143-144",,Scarborough,ON,M1J 3M5,Canada,(416) 264-1110,43.743706,-79.217005,,,,
DUKH BHANJAN PHARMACY,562261,475 CHARLOIS BLVD,,BRAMPTON,ON,L6Y 0M2,Canada,(905) 454-3001,43.651104,-79.758322,,,,
Guardian MarkhaMack Pharmacy,552442,9889 Highway 48,,Markham,ON,L6E 0B7,Canada,(905) 294-3295,43.90651,-79.267488,,,,
Northern Carleton Pharmacy,532697,15 McCain Street,,Florenceville,NB,E7L 3H5,Canada,(506) 392-6028,46.439955,-67.618075,,,,
WELCOME GUARDIAN PHARMACY,566914,837 DANFORTH AVE,,TORONTO,ON,M4J 1L2,Canada,(416) 466-8787,43.679549,-79.340605,,,,
Heritage Hills Pharmacy,512212,4646 Heritage Hills Blvd.,,Mississauga,ON,L5R 1Y4,Canada,(905) 890-1556,43.599063,-79.660118,,,,
IROQUOIS FALLS PHARMACY,567013,125 AMBRIDGE DR,,IROQUOIS FALLS,ON,P0K 1E0,Canada,(705) 232-4940,48.75955,-80.683616,,,,
ST MALO PHARMACY,556244,131 ST MALO ST,,ST MALO,MB,R0A 1T0,Canada,(204) 347-5574,49.315237,-96.954227,,,,
MAPLE GUARDIAN PHARMACY,534475,2810 MAJOR MACKENZIE DR UNIT 1,,MAPLE,ON,L6A 1R8,Canada,(905) 832-1200,43.851563,-79.534796,,,,
LANCASTER WELLNESS PHARMACY,566870,102 493 LANCASTER ST W,,KITCHENER,ON,N2K 1L8,Canada,(519) 208-2700,43.475642,-80.4849,,,,
