store_name,store_number,address,address2,city,state,zip_code,country,phone_number,latitude,longitude,store_hours,store_type,other_fields,coming_soon
WORK 'N GEAR #28029,,7712 S CICERO AVE,,BURBANK,IL,60459,US,(708) 346-0036,41.7528557142857,-87.7414814285714,,,,
WORK 'N GEAR #28023,,1028 WEST NORTH AVE,,MELROSE PARK,IL,60160,US,(708) 681-5629,41.9080648031496,-87.8461646456693,,,,
WORK 'N GEAR #28021,,7154 DEMSTER STREET,,MORTON GROVE,IL,60053,US,(847) 470-9070,42.0409028,-87.8050744,,,,
Unique Apperal Solutions,,2201 Lively Blvd,,ELK GROVE VLG,IL,60007,US,0,41.99547,-87.9704,,,,
WORK 'N GEAR #28711,,96 RIVER OAKS CENTER DR,,CALUMET CITY,IL,60409,US,(708) 868-7720,41.59635,-87.556335,,,,
OPTICS PLANET,,3150 COMMERCIAL AVE,,NORTHBROOK,IL,60062,US,(847) 513-6190,42.1464951020408,-87.8580812244898,,,,
RAY O'HERRON COMPANY,,1600 75th Street,,DOWNERS GROVE,IL,60515,US,(217) 442-0865,41.7510325,-88.021015,,,,
Bass Pro - BOLINGBROOK - 48,,709 JANES AVENUE,,BOLINGBROOK,IL,60440,US,(630) 296-2700,41.7198942343764,-88.0387542309028,,,,
STAR UNIFORMS,,6075 MELTON RD,,PORTAGE,IN,46368,US,(219) 763-2998,41.5983145803945,-87.1806770980277,,,,
Bass Pro - PORTAGE - 47,,6425 DANIEL BURNHAM DR,,PORTAGE,IN,46368,US,(219) 787-6800,41.6054288662655,-87.1674926407176,,,,
Gander Mountain - MERRILVILLE - 185,,1630 SOUTHLAKE MALL,,MERRILVILLE,IN,46410,US,(219) 793-1700,41.4686625697077,-87.3144561020486,,,,
Gander Mountain - JOLIET - 287,,3301 ESSINGTON ROAD,,JOLIET,IL,60435,US,0,41.5827098651686,-88.1623701544498,,,,
WORK 'N GEAR #28710,,3340 MALL LOOP DRIVE,,JOLIET,IL,60431,US,(815) 436-3775,41.5794696666667,-88.1653213333333,,,,
Mega Sports Inc,,16001 S Lincoln Hwy,,Plainfield,IL,60586,US,,41.5923414715937,-88.1855734782881,,,,
Gander Mountain - GENEVA - 284,,2100 S. RANDALL ROAD,,GENEVA,IL,60134,US,0,41.8659401444729,-88.3415885009297,,,,
Bass Pro - GURNEE - 3,,6112 GRAND AVE,,GURNEE,IL,60031,US,(847) 856-1229,42.3833231313131,-87.9551468686869,,,,
Gander Mountain - KENOSHA - 111,,6801 120TH AVENUE,,KENOSHA,WI,53140,US,(262) 857-3758,42.5745100726143,-87.9504178215719,,,,
Gander Mountain - KENOSHA - 965,,6801 120TH AVE,,KENOSHA,WI,53140,US,,42.5745100726143,-87.9504178215719,,,,
RTUT - MKE,,500 East Oak St.,,Oak Creek,WI,53154,US,(414) 762-7300,42.9227034144937,-87.9052699884814,,,,
Gander Mountain - FRANKLIN - 122,,6939 S 27 STREET,,FRANKLIN,WI,53132,US,(414) 761-1500,42.9192314124687,-87.949942375288,,,,
WORKING PERSON'S STORE,,305 S MICHIGAN ST,,LAKEVILLE,IN,46536,US,(574) 784-3240,41.52218,-86.27476,,,,
Gander Mountain - ROCKFORD - 280,,3068 MCFARLAND,,ROCKFORD,IL,61114,US,(815) 637-9600,42.3049825597512,-88.9766122342768,,,,
SHERPER'S,,5750 S 108TH ST,,HALES CORNERS,WI,53130,US,(414) 425-6888,42.939505,-88.04832,,,,
PAUL CONWAY SHIELDS,,14100 W. CLEVELAND AVE,,NEW BERLIN,WI,53151,US,(262) 782-1886,42.99551,-88.0896827083333,,,,
Gander Mountain - WAUKESHA - 112,,2440 EAST MORELAND BLVD,,WAUKESHA,WI,53186,US,(262) 798-0424,43.0327786603967,-88.1761292769078,,,,
STREICHER'S POLICE EQUIP,,4777 N. 124TH ST.,,BUTLER,WI,53007,US,(262) 781-2552,43.10419,-88.06603,,,,
ACE UNIFORMS OF PHOENIX,,1506 EAST MCDOWELL RD.,,PHOENIX,AZ,85006,US,(602) 258-7029,33.46575,-112.049566666667,,,,
MES - ARIZONA,,2330 West University Drive Unit 10,,Tempe,AZ,85281,US,(877) 817-6100,33.4219169387755,-111.973729387755,,,,
ALLIED SURPLUS,,4230 W NORTHERN AVE,,PHOENIX,AZ,85051,US,(623) 435-2640,33.55308,-112.15025,,,,
Tombstone Tactical,,10011 N. Metro Parkway E,,Phoenix,AZ,85051,US,(800) 606-0370 ext. 201,33.5767403571456,-112.118443195489,,,,
UNIVERSAL PROCUREMENT INC,,2090 E. UNIVERSITY DR.,,TEMPE,AZ,85281,US,(480) 968-2118,33.42207,-111.89618,,,,
Skaggs East Valley,,2602 W. Baseline RD #12,,Mesa,AZ,85202,US,(480) 831-5199,33.37855,-111.89053,,,,
Bass Pro - MESA - 44,,1133 NORTH DOBSON RD,,MESA,AZ,85201,US,(602) 606-5600,33.4359256449292,-111.869517137077,,,,
Cabela's - GLENDALE - 15,,9380 W GLENDALE AVE,,GLENDALE,AZ,85305,US,0,33.5375115151515,-112.261030505051,,,,
STERLINGS PUBLIC SAFETY,,2111 WEST AVENUE,,SAN ANTONIO,TX,78201,US,(210) 523-0976,29.4804148421053,-98.5260198947368,,,,
Academy Sports & Outdoors - SAN ANTONIO - 40,,165 S.W. MILITARY DRIVE,,SAN ANTONIO,TX,78221,US,,29.35673,-98.4926196,,,,
NAGEL'S GUN SHOP,,6201 SAN PEDRO AVE,,SAN ANTONIO,TX,78216,US,(210) 342-8171,29.49265,-98.49927,,,,
US Patriot - San Antonio - 5,,1015 RITTIMAN ROAD,,SAN ANTONIO,TX,78218,US,(210) 680-1399,29.48487,-98.42809125,,,,
NARDIS PUBLIC SAFETY,,4818 I-10 EAST,,SAN ANTONIO,TX,78219,US,(210) 661-8400,29.4331924903082,-98.3978394064984,,,,
Academy Sports & Outdoors - SAN ANTONIO - 36,,2727 NORTHEAST LOOP 410,,SAN ANTONIO,TX,78217,US,(210) 871-2630,29.49055,-98.4314,,,,
Academy Sports & Outdoors - SAN ANTONIO - 41,,2024 NORTH LOOP 1604 EAST,,SAN ANTONIO,TX,78232,US,(210) 507-4001,29.49055,-98.4314,,,,
Academy Sports & Outdoors - SAN ANTONIO - 47,,2643 NW LOOP 410,,SAN ANTONIO,TX,78230,US,(210) 321-4600,29.5124116,-98.5378191,,,,
Gander Mountain - JANESVILLE - 155,,2900 DEER FIELD ROAD #8,,JANESVILLE,WI,53546,US,(608) 757-2010,42.7166559751682,-88.97962567232,,,,
SHERPER'S,,225 E. WISCONSIN AVE.,,OCONOMOWOC,WI,53066,US,(262) 567-6847,43.1101802564103,-88.4962074358974,,,,
GUN WORLD - GERMANTOWN,,W 190 N10768 COMMERCE CIR,,GERMANTOWN,WI,53022,US,0,43.2136251,-88.1454601,,,,
"ALTATAC, INC.",,532 Mateo St.,,LOS ANGELES,CA,00000,US,(323) 402-6554,34.0406977777778,-118.233036666667,,,,
L.A. POLICE REVOLVER &,,ALTHLETIC CLUB,,LOS ANGELES,CA,90012,US,(323) 221-5222,34.0772825,-118.2243584,,,,
GALLS INCORPORATED - Los Angeles,,2543 W. 6TH STREET,,LOS ANGELES,CA,90057,US,(213) 351-9632,34.061761,-118.279795,,,,
EVIKE.COM INC,,2801 W MISSION ROAD,,ALHAMBRA,CA,91803,US,(626) 286-0360,34.07912,-118.15379,,,,
5.11 Commerce,,5521 Telegraph Rd,,Commerce,CA,90040,US,(323) 452-3075,34.0076085714286,-118.156222857143,,,,
Turner's Outdoorsman - Pasadena,,835 S ARROYO PKWY,,PASADENA,CA,91105,US,(626) 578-0155,34.1312773920296,-118.147377391315,,,,
CAMELBACK UNIFORMS,,9800 N 91ST AVE #102,,PEORIA,AZ,85345,US,(623) 872-7881,33.57355,-112.25503,,,,
GMS TACTICAL,,540 WEST IRON STE 105,,MESA,AZ,85210,US,(480) 964-3557,33.3846212100375,-111.84422858439,,,,
FX TACTICAL SELECT PREMIUM DEALER,,8948 W. Cactus Road,,PEORIA,AZ,85381,US,(623) 877-1257,33.59539125,-112.25155,,,,
GUNS ETC,,2156 N ALMA SCHOOL RD,,CHANDLER,AZ,85224,US,4809634311,33.3376,-111.85908,,,,
ALLIED SURPLUS,,404 EAST BROADWAY RD,,MESA,AZ,85204,US,(480) 699-6675,33.40777,-111.822839411765,,,,
Sportsman's Warehouse - PHOENIX - 21,,19205 NORTH 27TH AVE,,PHOENIX,AZ,85027,US,(623) 516-1400,33.6602625352113,-112.117222676056,,,,
SCOTTSDALE GUN CLUB,,14860 N. NORTHSIGHT BLVD,,SCOTTSDALE,AZ,85260,US,(480) 348-1111,33.6204,-111.89779,,,,
SHOPPERS SUPPLY,,2880 S ALMA SCHOOL RD PO BOX 64537,,CHANDLER,AZ,85286,US,480917406,33.2640403030303,-111.858687878788,,,,
GALLS INCORPORATED - LONE STAR,,1314 HOUSTON AVE,,HOUSTON,TX,77007,US,0,29.7704679069767,-95.3723602325581,,,,
Academy Sports & Outdoors - HOUSTON - 9,,13400 1-10 EAST,,HOUSTON,TX,77015,US,,29.7888627,-95.3903395,,,,
TOP BRASS MILITARY &TACTICAL,,2500 North Freeway,,HOUSTON,TX,77009,US,(713) 695-9517,29.79472,-95.3713,,,,
Academy Sports & Outdoors - HOUSTON - 19,,2404 SOUTHWEST FRWY,,HOUSTON,TX,77098,US,(713) 874-6020,29.73107,-95.41576,,,,
C & G WHOLESALE,,4930 D DACOMA ST,,HOUSTON,TX,77092,US,(214) 343-3900,29.806817755102,-95.4642248979592,,,,
5.11 Houston,,5870 WESTHEIMER,,HOUSTON,TX,77057,US,,29.7378186666667,-95.4834006666667,,,,
5.11 Houston,,5870 WESTHEIMER,,HOUSTON,TX,77057,US,(713) 266-1012,29.7378186666667,-95.4834006666667,,,,
Academy Sports & Outdoors - HOUSTON - 35,,11077 NORTHWEST FREEWAY,,HOUSTON,TX,77092,US,7136136300,29.8183778337157,-95.4680990541581,,,,
Academy Sports & Outdoors - SAN ANTONIO - 39,,7523 N.W. LOOP 410,,SAN ANTONIO,TX,78245,US,(210) 257-4850,29.4451812,-98.6390361,,,,
Gander Mountain - SAN ANTONIO - 406,,8203 STATE HWY 151 STE 104,,SAN ANTONIO,TX,78245,US,,29.4357936833795,-98.6470216581125,,,,
TOP BRASS MILITARY & TACT,,11500 I-10 WEST,,SAN ANTONIO,TX,78230,US,0,29.548484378801,-98.5856325035086,,,,
Academy Sports & Outdoors - SAN ANTONIO - 125,,4071 NORTH LOOP 1604 WEST,,SAN ANTONIO,TX,78257,US,(210) 408-5400,29.48267,-98.66026,,,,
5.11 San Antonio,,15693 San Pedro Ave,,San Antonio,TX,78232,US,(210) 402-4033,29.5843851183148,-98.4759755745323,,,,
Academy Sports & Outdoors - SAN ANTONIO - 42,,714 W LOOP 1604 N,,SAN ANTONIO,TX,78251,US,(210) 767-4200,29.4391188,-98.7091226,,,,
Bass Pro - SAN ANTONIO - 40,,17907 INTERSTATE 10 WEST,,SAN ANTONIO,TX,78257,US,(210) 253-8800,29.6089863243344,-98.6024773183733,,,,
Academy Sports & Outdoors - SELMA - 46,,15350 IH-35 NORTH,,SELMA,TX,78154,US,(210) 637-2600,29.5781384268845,-98.3183111703437,,,,
ACE UNIFORMS,,633 16TH STREET,,SAN DIEGO,CA,92101,US,(619) 233-0227,32.7118826530612,-117.149463061224,,,,
5.11 San Diego,,1257 Camino Del Rio S,,San Diego,CA,92108,US,(619) 501-9258,32.765700453523,-117.151368302946,,,,
Discount Gun Mart,,1510 MORENA BLVD,,SAN DIEGO,CA,92110,US,(619) 276-8730,32.7743079166667,-117.205498333333,,,,
Turner's Outdoorsman - Kearny  Mesa,,8199 CLAIREMONT MESA,,KEARNY  MESA,CA,92111,US,(858) 278-8005,32.8327304204366,-117.147125194241,,,,
"NALPAK, INC.",,1267 VERNON WAY,,EL CAJON,CA,92020,US,(619) 258-1200,32.8119989655172,-116.979072758621,,,,
Turner's Outdoorsman - El Cajon,,844 JACKMAN ST,,EL CAJON,CA,92020,US,(619) 444-3700,32.8065902040816,-116.973335510204,,,,
Adorama,,42 West 18th St,,New York,NY,10010,US,,40.7390666666667,-73.9931416666667,,,,
AD MEYERS UNIFORMS,,63 FLATBUSH AVE,,BROOKLYN,NY,11217,US,(718) 855-4018,40.6871461538462,-73.9796953846154,,,,
"UNIFORMS BY PARK COATS,IN",,790 3RD AVE.,,BROOKLYN,NY,11232,US,(718) 499-1182,40.66063,-74.00132,,,,
TURN OUT FIRE & SAFETY,,3468 KENNEDY BLVD.,,JERSEY CITY,NJ,07307,US,(201) 963-9312,40.7506321,-74.0540083,,,,
WORK 'N GEAR #28065,,2151 RT 22 EAST & WEST,,UNION,NJ,07083,US,(908) 688-9366,40.7668296,-74.0345878,,,,
UNITED UNIFORMS,,5809 2ND AVENUE,,BROOKLYN,NY,11220,US,(718) 436-1781,40.6445651020408,-74.0216540816326,,,,
H.L. DALIS INC,,35-35 24TH ST,,LONG ISLAND CITY,NY,11106,US,(718) 361-1100,40.7596710930156,-73.9333787099645,,,,
WORK 'N GEAR #28032,,80 N MCDADE BLVD,,GLENOLDEN,PA,19036,US,(610) 237-9404,39.905903125,-75.290306875,,,,
WORK 'N GEAR #28047,,1692 H CLEMENTS BRDG RD,,DEPTFORD,NJ,08096,US,(856) 848-7676,39.8330364740026,-75.1013904991752,,,,
ATLANTIC TACTICAL - PHILLY,,7970 STATE ROAD,,PHILADELPHIA,PA,19114,US,(215) 632-0341,40.0310778595318,-75.022119632107,,,,
UNIFORM GEAR INC,,8063 WALKER ST,,PHILADELPHIA,PA,19136,US,(215) 332-8992,40.0394131932545,-75.0251871157089,,,,
AMERICAN UNIFORM SALES,,8348 STATE RD UNIT #6,,PHILADELPHIA,PA,19136,US,(215) 333-5763,40.0364191919499,-75.0124627579597,,,,
WORK 'N GEAR #28069,,1190 NIXON DR,,MOUNT LAUREL,NJ,08054,US,(856) 439-9424,39.9409381112382,-74.9606422273447,,,,
MES - PENNSYLVANIA,,2755 Philmont Ave. Suite 110,,Huntingdon Valley,PA,19006,US,(866) 363-2270,40.1224915066321,-75.0482457184736,,,,
THE SURPLUS STORE,,10341 VENICE BLVD.,,LOS ANGELES,CA,90034,US,(310) 841-0289,34.0206833333333,-118.403631666667,,,,
LAX FIRING RANGE,,927 W MANCHESTER BLVD,,INGLEWOOD,CA,90301,US,(310) 568-1515,33.9608975049001,-118.37219858082,,,,
"MARTIN B. RETTING, INC",,11029 WASHINTON BLVD.,,CULVER CITY,CA,90232,US,3108372412,34.0107,-118.41102,,,,
L.A. POLICE REVOLVER,,5651 W. MANCHESTER AVE,,LOS ANGELES,CA,90045,US,0,33.95989,-118.37947,,,,
GALLS INCORPORATED - Los Angeles,,6365 S. ARIZONA  CIRCLE,,LOS ANGELES,CA,90045,US,(310) 338-6800,33.9805178732773,-118.398021772269,,,,
Turner's Outdoorsman - Norwalk,,11336 FIRESTONE BLVD,,NORWALK,CA,90650,US,(562) 929-4056,33.9178675237361,-118.091566607005,,,,
AMMO BROS,,15979 PIUMA AVE,,CERRITOS,CA,90703,US,0,33.8865635487369,-118.105703548737,,,,
Sportsman's Warehouse - MESA - 26,,1750 S GREENFIELD RD.,,MESA,AZ,85206,US,(480) 558-1111,33.3828016088633,-111.738773503889,,,,
INFINITY 999 Uniforms,,13300 E EL DON DR,,Mayer,AZ,86333,US,(928) 632-4872,34.39845,-112.22941,,,,
Sportsman's Warehouse - TUCSON - 29,,3945 WEST COSTCO DR.,,TUCSON,AZ,85741,US,(520) 877-4500,32.3293191307691,-111.048591642521,,,,
Academy Sports & Outdoors - HOUSTON - 116,,7600 WESTHEIMER ROAD,,HOUSTON,TX,77063,US,7132684300,29.7375820338983,-95.5030525423729,,,,
Academy Sports & Outdoors - HOUSTON - 10,,9734 KATY FREEWAY,,HOUSTON,TX,77055,US,(713) 827-6520,29.7851222117879,-95.5331935783979,,,,
Academy Sports & Outdoors - HOUSTON - 18,,10375 NORTH FRWY,,HOUSTON,TX,77037,US,(281) 405-4300,29.9171329914582,-95.41301,,,,
Academy Sports & Outdoors - HOUSTON - 16,,10414 GULF FRWY,,HOUSTON,TX,77034,US,(713) 948-4100,29.6414784615385,-95.2443346153846,,,,
Bass Pro - HOUSTON - 50,,1000 BASS PRO DRIVE,,HOUSTON,TX,77047,US,(713) 770-5100,29.59541,-95.38939,,,,
RED THE UNIFORM TAILOR,,71 Esplanade Ste 200,,HOUSTON,TX,77060,US,,29.934807,-95.4094513,,,,
MES - TEXAS,,"16511 Hedgecroft Drive, Suite 200",,Houston,TX,77032,US,(800) 784-0404,29.94132,-95.38909,,,,
Academy Sports & Outdoors - SAN MARCOS - 121,,550 BARNES DRIVE,,SAN MARCOS,TX,78666,US,5125585300,29.8484744327115,-97.9652334610203,,,,
Cabela's - BUDA - 12,,15570 IH 35,,BUDA,TX,786103517,US,0,30.08137,-97.8234009090909,,,,
Academy Sports & Outdoors - AUSTIN - 25,,801 E WILLIAM CANNON DR STE #103,,AUSTIN,TX,78745,US,5124866000,30.1909356603774,-97.7719179245283,,,,
Academy Sports & Outdoors - SUNSET VALLEY - 43,,5400 BRODIE LANE,,SUNSET VALLEY,TX,78745,US,,30.230177,-97.819993,,,,
Academy Sports & Outdoors - AUSTIN - 26,,7513 N INTERSTATE HWY 35,,AUSTIN,TX,78752,US,5124076310,30.33615,-97.70147,,,,
MILLER UNIFORMS & EMBLEMS,,826 Rutland Drive,,AUSTIN,TX,78758,US,(512) 302-5541,30.36522125,-97.6967598214286,,,,
"GT DISTRIBUTORS,INC.",,2545 Brockton Dr. \n\nSuite #100,,AUSTIN,TX,78758,US,(800) 252-8310,30.392738690172,-97.7177738608807,,,,
Academy Sports & Outdoors - AUSTIN - 27,,12250 RESEARCH BLVD,,AUSTIN,TX,78759,US,,30.4265933333333,-97.7549,,,,
ATLANTIC DIVING SUPPLY,,9220 ACTIVITY RD,,SAN DIEGO,CA,92126,US,0,32.8968964201482,-117.128521394551,,,,
SAN DIEGO FISH & GAME,,DBA P2K RANGE,,EL CAJON,CA,92019,US,(619) 442-9971,32.77707,-116.90975,,,,
Poway Weapons and Gear,,13550 Danielson St,,Poway,CA,92064,US,(858) 206-5057,32.9399,-117.0365,,,,
CSI TACTICAL & BALISTIC,,C. AEROPUERTO #1900 1-12 CENTRO COMERCIAL OTAY,,TIJUANA,,22425,MX,+52 6646470032,32.52008,-116.95895,,,,
Turner's Outdoorsman - San Marcos,,2085 MONTIEL,,SAN MARCOS,CA,92069,US,(760) 741-1570,33.1325414285714,-117.118165714286,,,,
Ace Uniforms Vista,,"1275 S. SANTA FE AVE.,\nSUITE 114",,VISTA,CA,92083,US,(760) 724-9481,33.1868179347826,-117.224846086957,,,,
5.11 Oceanside,,3186 Vista Way Ste 100,,Oceanside,CA,92056,US,,33.1825296752267,-117.322433907857,,,,
TACTICAL GEAR DISTRIBUTOR,,3909 OCEANIC DR. #402,,OCEANSIDE,CA,92056,US,0,33.205443705374,-117.301850632595,,,,
Turner's Outdoorsman - Temecula,,27230 MADISON AVE,,TEMECULA,CA,92590,US,(951) 296-5097,33.5264336842105,-117.167522631579,,,,
NEW YORK POLICE SHOP,,65-14 METROPOLITAN AVE,,MIDDLE VILLAGE,NY,11379,US,(718) 417-6971,40.712512,-73.8956713333333,,,,
ATLANTIC TACTICAL - NY,,7225 QUEENS BLVD,,WOODSIDE,NY,11377,US,0,40.7396569387755,-73.8916783673469,,,,
NIGHT GALAXY INC,,7012 20TH AVE,,BROOKLYN,NY,11204,US,(718) 444-0657,40.613603877551,-73.9888897959184,,,,
UNIVERSAL UNIFORM SALES,,1015 Broad Street,,NEWARK,NJ,07102,US,(973) 622-5700,40.728296,-74.176336,,,,
ATLANTIC UNIFORM COMPANY,,65 MARKET ST.,,NEWARK,NJ,07102,US,(973) 273-0786,40.736745,-74.176265,,,,
ATLANTIC UNIFORM COMPANY,,468 WASHINGTON AVE.,,BELLEVILLE,NJ,07109,US,(973) 751-1242,40.7966614285714,-74.1487028571429,,,,
UNIPRO USA,,390 NYE AVE,,NEWARK,NJ,07111,US,0,40.722062,-74.222654,,,,
PAUL'S POLICE EQUIPMENT,,2630 E. TREMONT AVE.,,BRONX,NY,10461,US,(718) 597-0480,40.8431305466397,-73.8465916399191,,,,
BROTHERS POLICE SECURITY,,3013 WEBSTER AVE.,,BRONX,NY,10458,US,(718) 933-0270,40.86859,-73.8815,,,,
WORK 'N GEAR #28038,,2019 E LINCOLN HWY,,LANGHORNE,PA,19047,US,(215) 943-9452,40.1771128571429,-74.8838757142857,,,,
FRENCH CREEK OUTFITTERS,,270 SCHUYLKILL ROAD,,PHOENIXVILLE,PA,19460,US,6109337200,40.1370527083333,-75.5436554166667,,,,
SAMZIE'S,,28 SCOTCH RD.,,EWING,NJ,08628,US,(609) 883-2811,40.2658258728522,-74.8013625674774,,,,
WORK 'N GEAR #28035,,3839 KIRKWOOD HWY,,WILMINGTON,DE,19808,US,(302) 994-5676,39.73117,-75.64407,,,,
FLEMINGTON DEPT. STORE,,151 RT. 31,,FLEMINGTON,NJ,08822,US,(908) 782-7662,40.39326,-74.83615,,,,
THEOFFICERSTORE.COM,,104 INDEPENDENCE WAY,,COATESVILLE,PA,19320,US,(800) 852-6088,39.9831047819193,-75.88152845113,,,,
MP UNIFORM & SUPPLY CO,,2733 W. EMMAUS AVE,,ALLENTOWN,PA,18103,US,(610) 797-6900,40.5616434693878,-75.4771824489796,,,,
MP UNIFORM & SUPPLY CO,,2109 FREEMANSBURG AVE,,EASTON,PA,18042,US,0,40.6806776344086,-75.2411632258064,,,,
Brandshopper,,PO BOX 20211,,Bath,PA,18002,US,(610) 837-5940,40.6518346,-75.4596752,,,,
TURNERS OUTDOORSMAN,,18305 HAWTHORNE BLVD,,TORRANCE,CA,90504,US,0,33.8645662311558,-118.3527,,,,
5.11 Tactical Carson,,20759 Avalon Blvd,,Carson,CA,90746,US,,33.8425544863788,-118.262909081063,,,,
GALLS INCORPORATED - Long Beach,,2550 Long Beach Blvd.,,LONG BEACH,CA,90806,US,(562) 424-0220,33.80349,-118.18927,,,,
Turner's Outdoorsman - Signal Hill,,2201 E WILLOW ST,,SIGNAL HILL,CA,90755,US,(562) 424-8628,33.80449,-118.16548,,,,
Turner's Outdoorsman - West Covina,,357 N AZUSA AVE,,WEST COVINA,CA,91791,US,(626) 858-8948,34.07652,-117.907804285714,,,,
Turner's Outdoorsman - Reseda,,19329 VANOWEN ST,,RESEDA,CA,91336,US,(818) 996-5033,34.19384,-118.55459,,,,
KEYSTONE UNIFORM DEPOT,,123 S CITRUS AVE,,COVINA,CA,91723,US,(626) 915-1936,34.0857938095238,-117.890139047619,,,,
ADAMSON POLICE PRODUCTS-,,SOUTH,,LOS ALAMITOS,CA,90720,US,(800) 824-0162,33.78118,-118.07502,,,,
Academy Sports & Outdoors - PEARLAND - 13,,2804 BUSINESS CENTER DR,,PEARLAND,TX,77584,US,,29.5599803404622,-95.3920940113487,,,,
COP STOP INC,,6831 BROADWAY #F,,PEARLAND,TX,77581,US,(281) 412-7358,29.5593517837838,-95.3248295675676,,,,
TOP BRASS MILITARY & TACTICAL,,11941 Southwest Freeway,,STAFFORD,TX,77477,US,(281) 879-8824,29.6478181081081,-95.5713797297297,,,,
Academy Sports & Outdoors - PASADENA - 166,,4627 E SAM HOUSTON PKWY S,,PASADENA,TX,77505,US,(713) 947-4000,29.6400738915296,-95.1595331994612,,,,
HMS Tactical,,13326 Westheimer Rd.,,Houston,TX,77077,US,(713) 299-2890,29.7359381818182,-95.6246836363636,,,,
GALLS INCORPORATED - LONE STAR,,8430 N SAM HOUSTON PKWY W,,HOUSTON,TX,77064,US,(832) 237-8000,29.9287609034107,-95.5479848300251,,,,
Academy Sports & Outdoors - HOUSTON - 195,,2320 HWY 6 SOUTH,,HOUSTON,TX,77077,US,,29.7382081685908,-95.6441329592403,,,,
Academy Sports & Outdoors - HOUSTON - 172,,7650 FM 1960 W,,HOUSTON,TX,77070,US,,29.9637286956522,-95.5436917391304,,,,
Gander Mountain - ROUND ROCK - 413,,3021 S I-H 35 STE 500,,ROUND ROCK,TX,78664,US,,30.4825035,-97.6735099,,,,
Academy Sports & Outdoors - ROUND ROCK - 22,,1351 IH 35 SOUTH,,ROUND ROCK,TX,78664,US,5122464600,30.49751,-97.67952,,,,
"SAFEWARE, INC",,1107 WONDER DR.,,ROUND ROCK,TX,78681,US,(512) 671-7068,30.5171004026846,-97.6925855704698,,,,
Bass Pro - ROUND ROCK,,200 BASS PRO DR,,ROUND ROCK,TX,78665,US,,30.5710863,-97.6897588,,,,
Academy Sports & Outdoors - VICTORIA - 128,,8903 N NAVARRO,,VICTORIA,TX,77904,US,(361) 582-5200,28.8770708372392,-96.9971553516928,,,,
"ARCIERO SPORTS, INC",,27231 BURBANK,,FOOTHILL RANCH,CA,92610,US,9494617100,33.6784010239501,-117.656231602922,,,,
Turner's Outdoorsman - Fountain Valley,,18808 BROOKHURST ST,,FOUNTAIN VALLEY,CA,92708,US,(714) 965-5151,33.6894613131313,-117.954038787879,,,,
P&P UNIFORMS,,14529 Innovation Drive,,Riverside,CA,92518,US,(951) 776-0048,33.9079817452178,-117.285031204638,,,,
Turner's Outdoorsman - Corona,,2246 GRIFFIN WAY,,CORONA,CA,92879,US,(951) 736-8007,33.8894970859588,-117.517782703777,,,,
5.11 Tactical Riverside,,3388 Tyler St,,Riverside,CA,92503,US,(951) 588-2477,33.905324516129,-117.455981290323,,,,
Turner's Outdoorsman - Orange,,1932 N TUSTIN,,ORANGE,CA,92865,US,(714) 974-0600,33.8200505,-117.835986,,,,
GALLS INCORPORATED - Orange,,1249 W. KATELLA AVE.,,ORANGE,CA,92867,US,(714) 633-3880,33.8090299353248,-117.86562510934,,,,
THE STOCKADE,,8061 WESTMINSTER AVE.,,WESTMINSTER,CA,92683,US,(714) 894-0584,33.7592901694915,-117.988548474576,,,,
FOWLER GUN ROOM,,358 SOUTH TUSTIN AVE.,,ORANGE,CA,92866,US,0,33.8455681544861,-117.833924181659,,,,
OLINVILLE ARMS,,3356 WHITE PLAINS RD.,,BRONX,NY,10467,US,7182313000,40.8744911538462,-73.8670542307692,,,,
FIT RITE UNIFORM CO,,657 CHESTNUT ST,,UNION,NJ,07083,US,(908) 964-5800,40.68792,-74.27036,,,,
WORK 'N GEAR #28052,,1006 Route 46 WEST,,CLIFTON,NJ,07013,US,(973) 916-0044,40.8730657,-74.1785442,,,,
WORK 'N GEAR #28072,,1393 HEMPSTEAD TPKE,,ELMONT,NY,11003,US,(516) 775-8772,40.7077972727273,-73.6921018181818,,,,
TURN OUT UNIFORMS,,195 PATERSON AVE,,LITTLE FALLS,NJ,07424,US,(973) 200-0950,40.8861496647069,-74.2219298360464,,,,
PROVENGO LLC,,3539 LAWSON BLVD,,OCEANSIDE,NY,11572,US,(516) 570-5100,40.622812325769,-73.6507538238292,,,,
WORK 'N GEAR #28071,,34 E SUNRISE HWY,,FREEPORT,NY,11520,US,(516) 623-2090,40.65646,-73.5808,,,,
SOUTH SHORE SPORTSMAN INC,,9 LANSDOWNE AVE,,MERRICK,NY,11566,US,(516) 992-0004,40.6617010201156,-73.5565310639732,,,,
UNIVERSAL UNIFORM SALES,,146 SPEEDWELL AVE,,MORRISTOWN,NJ,07960,US,(973) 539-9433,40.80302,-74.48224,,,,
THIS & THAT UNIFORMS,,1500 S NEW ROAD,,PLEASANTVILLE,NJ,08232,US,(609) 646-1522,39.38316,-74.54305,,,,
RED THE UNIFORM TAILOR,,475 OBERLIN AVE S,,LAKEWOOD,NJ,08701,US,(848) 299-0100,40.0707023778181,-74.1859482781317,,,,
ATLANTIC TACTICAL - NJ,,14 WORLD'S FAIR DR UNIT H,,SOMERSET,NJ,08873,US,(800) 781-2677,40.53502,-74.51321,,,,
WORK 'N GEAR #28063,,1900 RT 70,,LAKEWOOD,NJ,08701,US,(732) 262-9524,40.0553470469799,-74.1629009395973,,,,
DOVER ARMY-NAVY STORE,,222 W. LOOCKERMAN ST.,,DOVER,DE,19904,US,(302) 736-1959,39.1576151020408,-75.527226122449,,,,
Cabela's - HAMBURG - 9,,100 CABELA DR,,HAMBURG,PA,195268777,US,0,40.5575754621813,-76.0034768907649,,,,
PATRIOT WORKWEAR,,31 W FIRST ST,,WIND GAP,PA,18091,US,(610) 863-5411,40.8400359183673,-75.2962651020408,,,,
United Uniforms,,"1304 Rt 47, UNIT A",,Rio Grande,NJ,08242,US,(609) 849-9347,39.0141751851852,-74.8754,,,,
DUNKELBERGERS SPORTS,,1471 RT 209,,BRODHEADSVILLE,PA,18322,US,5704217950,40.91679,-75.42181,,,,
Saints Offroad,,813 W. Arrow Hwy.,,Glendora,CA,91740,US,,34.1055183073035,-117.877474489664,,,,
UNIFORMS 4 ALL INC.,,20701 NORDHOFF ST,,CHATSWORTH,CA,91311,US,(818) 341-1500,34.23543,-118.58422,,,,
OAKTREE GUN CLUB,,23121 COLTRANE AVE,,NEWHALL,CA,91321,US,6612597441,34.342048204626,-118.528657495331,,,,
"RASPORT, INC",,1860-D MIRALOMA AVE,,PALCENTIA,CA,92870,US,(714) 524-2300,33.862006122449,-117.824397142857,,,,
Turner's Outdoorsman - Chino Hills,,4200 CHINO HILLS PKWY #600,,CHINO HILLS,CA,91709,US,(909) 590-7225,33.98264,-117.7132,,,,
Academy Sports & Outdoors - HUMBLE - 21,,9470 FM 1960 BYPASS,,HUMBLE,TX,77338,US,(281) 964-4760,30.00498,-95.28233,,,,
Gander Mountain - HOUSTON - 402,,19820 HEMPSTEAD RD,,HOUSTON,TX,77065,US,0,29.9110355561368,-95.6142382914254,,,,
Academy Sports & Outdoors - HOUSTON - 7,,19720 NORTHWEST FREEWAY,,HOUSTON,TX,77065,US,(281) 517-3800,29.9152816199069,-95.6145646672135,,,,
Academy Sports & Outdoors - KATY - 165,,24970 FM 1093 RD,,KATY,TX,77494,US,,29.70918,-95.68842,,,,
Academy Sports & Outdoors - SUGAR LAND - 12,,16610 SOUTHWEST FREEWAY,,SUGAR LAND,TX,77479,US,(281) 276-7400,29.5910765729181,-95.6339157619111,,,,
Gander Mountain - SPRING - 403,,19302 INTERSTATE 45,,SPRING,TX,77373,US,0,30.0462815,-95.430068,,,,
Academy Sports & Outdoors - WEBSTER - 32,,21351 GULF FREEWAY,,WEBSTER,TX,77598,US,(281) 557-5900,29.5194333962264,-95.1232118867925,,,,
Academy Sports & Outdoors - SPRING - 23,,25010 RAYFORD ROAD,,SPRING,TX,77386,US,2814652400,30.09436,-95.35076,,,,
Gander Mountain - SUGARLAND - 404,,19890 SOUTHWEST FREEWAY,,SUGARLAND,TX,77479,US,0,29.5631124380084,-95.6843326319562,,,,
GALLS INCORPORATED - Riverside,,1865 Iowa Avenue,,RIVERSIDE,CA,92507,US,(951) 781-6366,33.9953144221106,-117.33984,,,,
PHOENIX UNIFORMS,,935 NORTH IMPERIAL AVE,,EL CENTRO,CA,92243,US,(760) 353-9482,32.8006875555556,-115.569828444444,,,,
Turner's Outdoorsman - San Bernardino,,491 W ORANGE SHOW RD,,SAN BERNARDINO,CA,92408,US,(909) 388-1090,34.0795685491945,-117.293958329617,,,,
AMMO BROS,,780 S ROCHESTER AVE,,ONTARIO,CA,91761,US,(909) 937-6700,34.0550086036178,-117.54752777885,,,,
TURNERS OPERATIONS INC.,,"11738 SAN MARINO ST,\nSTE B",,RANCHO CUCAMONGA,CA,91730,US,,34.08325,-117.548207986577,,,,
Turner's Outdoorsman - Rancho Cucamonga,,11738 SAN MARINO ST,,RANCHO CUCAMONGA,CA,91730,US,(909) 923-4422,34.08325,-117.548207986577,,,,
Robinhood / Life Style Sports,,1891 Wantagh Avenue,,Wantagh,NY,11793,US,,40.6747557338227,-73.5099756686275,,,,
BLUELINE TACTICAL SUPPLY,,444 SAW MILL RIVER RD,,ELMSFORD,NY,10523,US,(914) 560-8431,41.0698653466061,-73.8160565606408,,,,
The Cop Shop,,560 Broadway,,Massapequa,NY,11758,US,,40.6815933333333,-73.46901,,,,
All American Sports Center Stores Huntington,,870 WALT WHITMAN ROAD,,Melville,NY,11747,US,,40.7999227004199,-73.4123789702362,,,,
PROMARK INTERNATIONAL,,720 MONTAUK HIGHWAY,,COPIAGUE,NY,11726,US,(631) 226-1541,40.6683367346939,-73.3965104081633,,,,
WORK 'N GEAR #28074,,150 W SUNRISE HWY,,LINDENHURST,NY,11757,US,(631) 226-0424,40.6947166666667,-73.39096,,,,
FIREFIGHTER ONE,,34 Wilson Drive,,Sparta,NJ,07871,US,(973) 940-3061,41.0765626685969,-74.668464014843,,,,
WORK 'N GEAR #28079,,499-29 SUNRISE HWY,,PATCHOGUE,NY,11772,US,(631) 447-0808,40.77587,-73.03787,,,,
BROTHERS POLICE/SECURITY,,644 HORSEBLOCK RD,,FARMINGVILLE,NY,11738,US,(631) 716-1060,40.83295,-73.03761,,,,
Gander Mountain - YORK - 215,,1880 LOUCKS ROAD,,YORK,PA,17408,US,(717) 767-2002,39.9728515789474,-76.7747968421053,,,,
LA POLICE GEAR - VALENCIA,,28022 INDUSTRY DR,,VALENCIA,CA,91355,US,(866) 793-1911,34.44955,-118.62625,,,,
Pristine Uniforms,,11996 Jack Benny Dr,,Rancho Cucamonga,CA,91739,US,(909) 259-0392,34.1010306060606,-117.543588181818,,,,
Bass Pro - RANCHO CUCAMONGA - 51,,7777 VICTORIA GARDENS LN,,RANCHO CUCAMONGA,CA,91739,US,(909) 922-5500,34.11207,-117.52819,,,,
Michelle Laurent,,13799 PORTOFINO ST.,,FONTANA,CA,92336,US,9098998838,34.10704,-117.501374222965,,,,
COPQUEST PUBLIC SAFETY,,365 CAMINO CARILLO,,CAMARILLO,CA,93012,US,(805) 388-0707,34.2143809168702,-118.996684367485,,,,
Turner's Outdoorsman - Oxnard,,2051 N ROSE AVE,,OXNARD,CA,93036,US,(805) 988-2049,34.2205653364747,-119.158389541085,,,,
Academy Sports & Outdoors - BAYTOWN - 119,,6425 GARTH RD,,BAYTOWN,TX,77521,US,(281) 421-5232,29.7961497487437,-94.980645678392,,,,
Academy Sports & Outdoors - KATY - 33,,23155 KATY FREEWAY,,KATY,TX,77450,US,(281) 693-2600,29.7847632019855,-95.7729071424206,,,,
Bass Pro - KATY MILLS - 8,,"5000 KATY MILLS CIRCLE,\nSTE 415",,KATY MILLS,TX,77494,US,(281) 644-2200,29.776645,-95.81226,,,,
Academy Sports & Outdoors - ROSENBURG - 115,,23801 BRAZOS TOWN CROSSIN,,ROSENBURG,TX,77469,US,8325956700,29.54481,-95.74679,,,,
Academy Sports & Outdoors - TOMBALL - 31,,14221 FM 2920,,TOMBALL,TX,77373,US,(281) 516-4100,30.0894263042187,-95.6379000118832,,,,
Academy Sports & Outdoors - THE WOODLANDS - 105,,1360 LAKE WOODLANDS DR,,THE WOODLANDS,TX,77380,US,(281) 298-4400,30.1677861275469,-95.455461151145,,,,
Academy Sports & Outdoors - CONROE - 38,,1414 LOOP 336 WEST (AT I-45),,CONROE,TX,77304,US,(936) 523-4500,30.2796621527996,-95.4662944853634,,,,
Academy Sports & Outdoors - GALVESTON - 15,,4523 FT CROCKETT BLVD,,GALVESTON,TX,77550,US,(409) 941-6550,29.2746721,-94.8160762,,,,
Academy Sports & Outdoors - LAKE JACKSON - 44,,120 HWY 332 WEST,,LAKE JACKSON,TX,77566,US,9793735700,29.0539221888097,-95.502971846186,,,,
TACTICAL EXPRESS,,PO BOX 1343,,FAIRFIELD,CT,06825,US,(866) 372-0600,41.1915,-73.23801,,,,
FAIRFIELD UNIFORM,,1197 MAIN ST.,,BRIDGEPORT,CT,06604,US,(203) 335-9941,41.1809092027102,-73.1898948957792,,,,
NEW ENGLAND UNIFORMS,,2490 MAIN ST.,,BRIDGEPORT,CT,06606,US,(203) 333-0890,41.19681,-73.20037,,,,
KVI UNIFORMS & EQUIPMENT,,50 CARPENTER AVENUE,,MIDDLETOWN,NY,10940,US,(845) 343-7868,41.4475249438424,-74.3976123382771,,,,
Gander Mountain - MIDDLETOWN - 250,,100 N GALLERIA DRIVE,,MIDDLETOWN,NY,10941,US,(845) 692-5600,41.4624285146698,-74.3720706433373,,,,
NEW ENGLAND UNIFORMS,,356 MAIN ST.,,DANBURY,CT,06810,US,(203) 792-5256,41.3987812839551,-73.4570938954861,,,,
RANKIN SPORTING GOODS,,37 NEWTON ROAD,,DANBURY,CT,06810,US,(203) 743-1317,41.40275,-73.4242,,,,
WORK 'N GEAR #28061,,440 BOSTON POST RD,,ORANGE,CT,06477,US,(203) 795-8998,41.2583950177781,-73.0118662567438,,,,
Gander Mountain - HARRISBURG - 218,,5005 JONESTOWN RD,,HARRISBURG,PA,17109,US,(717) 671-9700,40.3068416326531,-76.8052206122449,,,,
Bass Pro - HARRISBURG - 26,,3501 PAXTON STREET,,HARRISBURG,PA,17111,US,(717) 565-5200,40.2537149806407,-76.8286007250986,,,,
F&F AND A. JACOBS & SONS,,1100 WICOMICO ST.,,BALTIMORE,MD,21230,US,(410) 727-6397,39.27976,-76.62869,,,,
HOWARD UNIFORM COMPANY,,1915 ANNAPLIS ROAD,,BALTIMORE,MD,21230,US,(410) 727-3086,39.268244375,-76.63128375,,,,
ATLANTIC TACTICAL - HQ,,772 CORPORATE CIRCLE,,NEW CUMBERLAND,PA,17070,US,0,40.2098004385726,-76.8873771492783,,,,
Field & Stream West Harrisburg,,3500 CAPITAL CITY MALL DR,,Camp Hill,PA,17011,US,(717) 307-2055,40.2242995092762,-76.931643398121,,,,
SAM'S SONS INC.,,DBA:SPROCKETS AND ROCKETS PO BOX 504063 CK,,SAIPAN,CA,96950,US,6704832205,34.1571889,-119.1992904,,,,
F MORTON PITT,,2950 JOHNSON DR #101,,VENTURA,CA,93003,US,(805) 658-5133,34.2472430769231,-119.195086923077,,,,
ON DUTY UNIFORMS,,4572 TELEPHONE RD #920,,VENTURA,CA,93003,US,(805) 650-3889,34.2562576470588,-119.234854117647,,,,
Turner's Outdoorsman - Victorville,,"14311 BEAR VALLEY RD.,\nSTE 102",,VICTORVILLE,CA,92392,US,(760) 244-1999,34.47041,-117.3496802,,,,
EXPRESS PAWN,,11873 HESPERIA RD,,HESPERIA,CA,92345,US,(760) 947-7200,34.4666,-117.2928,,,,
SCRUB N UP/ALL PRO UNIFRM,,12401 HESPERIA RD. #3,,VICTORVILLE,CA,92395,US,(760) 243-7115,34.4765536842105,-117.291256315789,,,,
Academy Sports & Outdoors - BEAUMONT - 37,,7130 EASTEX FRWY,,BEAUMONT,TX,77708,US,(409) 895-4500,30.1338540540541,-94.1673231081081,,,,
Gander Mountain - BEAUMONT - 407,,5855 EASTEX FREEWAY,,BEAUMONT,TX,77706,US,0,30.1253272727273,-94.1554336363636,,,,
Academy Sports & Outdoors - COLLEGE STATION - 20,,2351 EARL RUDDER FRWY SOU,,COLLEGE STATION,TX,77845,US,(979) 695-6000,30.62296,-96.29755,,,,
Gander Mountain - COLLEGE STATION - 411,,2301 EARL RUDDER FWY S,,COLLEGE STATION,TX,77845,US,(979) 693-6412,30.62474,-96.29865,,,,
Academy Sports & Outdoors - PORT ARTHUR - 14,,8453 MEMORIAL BLVD,,PORT ARTHUR,TX,77640,US,(409) 723-6800,29.942819714709,-93.9900690261859,,,,
MES - CORPORATE OFFICE,,7 Poverty Road \n85H Bennett Square,,Southbury,CT,06488,US,(203) 364-0620,41.47284,-73.22294,,,,
MES - NEW YORK,,66 Firemen's Way,,Poughkeepsie,NY,12603,US,(800) 560-8030,41.6762451633382,-73.8560321336464,,,,
WORK 'N GEAR #28014,,52 FRONTAGE RD,,EAST HAVEN,CT,06512,US,(203) 467-1156,41.28586,-72.87875,,,,
Gander Mountain - KINGSTON - 256,,705 FRANK SOTTILE BLVD,,KINGSTON,NY,12401,US,(845) 382-2500,41.9719717322787,-73.9848525617304,,,,
WITMER PUBLIC SAFETY INC.,,DBA: THE FIRESTORE.COM,,ABBOTTSTOWN,PA,17301,US,(800) 834-0839,39.89081,-76.98425,,,,
Bass Pro Outddor World LLC,,7000 Arundel Mills Circle,,Hanover,MD,21076,US,(410) 689-2500,39.16238,-76.72561,,,,
"SECURITY UNIFORMS, INC",,48 BROAD ST,,NEW BRITAIN,CT,06053,US,(860) 224-1773,41.6734076470588,-72.7850317647059,,,,
CONNECTICUT POLICE SUPPLY,,105 FENN RD.,,NEWINGTON,CT,06111,US,(860) 667-4211,41.7015512046017,-72.7546496931374,,,,
ARMY BARRACKS,,2585 BERLIN TURNPIKE,,NEWINGTON,CT,06111,US,(860) 667-7089,41.681534,-72.711286,,,,
STARR UNIFORM,,207 CENTER ST,,SCRANTON,PA,18503,US,(570) 344-6831,41.4095625,-75.66825,,,,
Gander Mountain - DICKSON CITY - 210,,955 VIEWMONT DRIVE,,DICKSON CITY,PA,18519,US,(570) 347-9077,41.4553895247695,-75.6479362406393,,,,
Academy Sports & Outdoors - DALLAS - 78,,8050 FOREST LANE,,DALLAS,TX,75243,US,2143553200,32.9091787804878,-96.7668115853659,,,,
C & G WHOLESALE,,10345 BROCKWOOD RD,,DALLAS,TX,75238,US,(713) 681-2120,32.8930955264981,-96.7072689470037,,,,
"GT DISTRIBUTORS,INC",,12610 PERIMETER DR.,,DALLAS,TX,75228,US,0,32.8618853333333,-96.6625133333333,,,,
Gander Mountain - MESQUITE - 415,,3775 CHILDRESS AVE STE 1300,,MESQUITE,TX,75150,US,,32.816010760094,-96.6270401900235,,,,
Academy Sports & Outdoors - MESQUITE - 80,,3677 EMPORIUM CIRCLE,,MESQUITE,TX,75150,US,,32.8149287545267,-96.6251536639918,,,,
RED THE UNIFORM TAILOR,,12021 Plano Rd\n\nSuite 150,,DALLAS,TX,75243,US,(214) 751-8301,32.9114939506953,-96.7005050431221,,,,
RED THE UNIFORM TAILOR,,"3200 COMMANDER DRIVE,\nSUITE 114",,CARROLLTON,TX,75006,US,(972) 246-3633,32.97842,-96.84932,,,,
RED THE UNIFORM TAILOR,,1630 111TH ST.,,GRAND PRAIRIE,TX,75050,US,(877) 742-5478,32.7757,-97.04877,,,,
Academy Sports & Outdoors - GARLAND - 185,,4920 N GARLAND AVENUE,,GARLAND,TX,75040,US,,32.9606633752561,-96.6480463716389,,,,
Bass Pro - GARLAND - 37,,5001 BASS PRO DRIVE,,GARLAND,TX,75043,US,(469) 221-2600,32.8648884403494,-96.5404551367714,,,,
Academy Sports & Outdoors - LEWISVILLE - 82,,2428 SOUTH STEMMONS FWY,,LEWISVILLE,TX,75067,US,9723165200,33.0047219402939,-96.9673067661614,,,,
Academy Sports & Outdoors - PLANO - 79,,3305 DALLAS PARKWAY STE 301,,PLANO,TX,75093,US,9724736400,33.04672,-96.83004,,,,
Gander Mountain - LEWISVILLE - 414,,723 HEBRON PARKWAY UNIT 24,,LEWISVILLE,TX,75057,US,,33.00998,-96.96871,,,,
Bass Pro - GRAPEVINE - 5,,2501 BASS PRO DRIVE,,GRAPEVINE,TX,76051,US,(972) 724-2018,32.9552701010101,-97.0460841414141,,,,
Gander Mountain - ARLINGTON - 417,,459 E INTERSTATE 20 HWY STE 1300,,ARLINGTON,TX,76018,US,,32.6783204620612,-97.1041964031723,,,,
Academy Sports & Outdoors - PLANO - 77,,4045 CENTRAL EXPRESSWAY,,PLANO,TX,75023,US,9726334100,33.0491211394117,-96.6987454429543,,,,
Academy Sports & Outdoors - ARLINGTON - 75,,1101 WEST ARBROOK BLVD,,ARLINGTON,TX,76015,US,(817) 375-3210,32.68203,-97.12407,,,,
Academy Sports & Outdoors - GRAPEVINE - 81,,1523 STATE HIGHWAY 114,,GRAPEVINE,TX,76051,US,8174104200,32.9295656,-97.0966179,,,,
5.11 Tactical Dallas,,3211 Preston Rd. Ste 12,,Frisco,TX,75034,US,,33.1062085474919,-96.80583,,,,
Academy Sports & Outdoors - FRISCO - 126,,4000 PRESTON RD,,FRISCO,TX,75035,US,,33.1118501923077,-96.8055488461538,,,,
Academy Sports & Outdoors - NORTH RICHLAND HILLS - 76,,7441 NE LOOP 820,,NORTH RICHLAND HILLS,TX,76180,US,8175143140,32.8368933,-97.2209137,,,,
Academy Sports & Outdoors - FLOWER MOUND - 122,,3621 JUSTIN ROAD,,FLOWER MOUND,TX,75028,US,,33.07201,-97.08579,,,,
Academy Sports & Outdoors - FORT WORTH - 141,,5836 N TARRANT PARKWAY,,FORT WORTH,TX,76137,US,8176054000,32.89477,-97.2615883138486,,,,
Academy Sports & Outdoors - MCKINNEY - 140,,1720 WEST UNIVERSITY DR STE 200,,MCKINNEY,TX,75069,US,4699525700,33.2166929164709,-96.6325798926522,,,,
Defender Outdoors,,2900 Shotts Street,,Ft. Worth,TX,76107,US,(817) 935-8377,32.76111,-97.35885,,,,
Academy Sports & Outdoors - FORT WORTH - 139,,12700 SOUTH FRWY,,FORT WORTH,TX,76028,US,(817) 426-7800,32.5734880544573,-97.3197238284547,,,,
Chisholm Trail Firearms,,344 SW Wilshire Blvd. \nSuite Q,,Burleson,TX,76028,US,(817) 447-2525,32.540902336086,-97.3312235876262,,,,
Academy Sports & Outdoors - FORT WORTH - 74,,6101 I-20,,FORT WORTH,TX,76132,US,,32.6827369918699,-97.4165400813008,,,,
Academy Sports & Outdoors - WHITE SETTLEMENT - 97,,1701 S CHERRY LANE,,WHITE SETTLEMENT,TX,76108,US,8179352260,32.7416170731707,-97.4517606504065,,,,
"M-PAK, INC",,11255 Camp Bowie W Blvd #111,,ALEDO,TX,76008,US,(817) 696-0004,32.7205155102041,-97.5141859183673,,,,
U.S. UNIFORM & SUPPLY,,815 N. DELAWARE,,INDIANAPOLIS,IN,46204,US,(866) 822-8166,39.77839,-86.15403375,,,,
"THE UNIFORM HOUSE, INC.",,1927 N. CAPITOL AVE.,,INDIANAPOLIS,IN,46202,US,(317) 926-4467,39.7922209215217,-86.1614812825584,,,,
STEVEN R JENKINS CO,,6680 E 21ST ST,,INDIANAPOLIS,IN,46219,US,(317) 352-0184,39.79638,-86.0529,,,,
Gander Mountain - GREENWOOD - 273,,1049 EMERSON AVENUE,,GREENWOOD,IN,46142,US,0,39.6333820588235,-86.0827326470588,,,,
Gander Mountain - AVON - 274,,216 GABLE CROSSING DRIVE STE 1300,,AVON,IN,46123,US,,39.7637026530612,-86.3506,,,,
MES - INDIANA,,6975 Hillsdale Court,,Indianapolis,IN,46250,US,(888) 322-8402,39.8961342033885,-86.0466212201738,,,,
Gander Mountain - INDIANAPOLIS - 272,,5702 E 86TH STREET,,INDIANAPOLIS,IN,46250,US,(317) 577-1114,39.91247,-86.0707666848936,,,,
THE OUTDOORSMAN SPORTS SHOP,,1010 SOUTH STATE RD 135,,GREENWOOD,IN,46143,US,3178817446,39.6010926,-86.1595619,,,,
Gander Mountain - CORSICANA - 400,,3301 CORSICANA CROSSINGS,,CORSICANA,TX,75110,US,(903) 874-2500,32.06515,-96.44755,,,,
Gander Mountain - SHERMAN - 408,,2725 HWY 75 N,,SHERMAN,TX,75090,US,(903) 891-8585,33.6656625,-96.6080322,,,,
Academy Sports & Outdoors - SHERMAN - 138,,3939 US HIGHWAY 75 NORTH,,SHERMAN,TX,75090,US,9038133860,33.82015,-96.53506,,,,
Academy Sports & Outdoors - WACO - 24,,210 NORTH NEW ROAD,,WACO,TX,76710,US,(254) 399-2410,31.5240806730769,-97.1702756730769,,,,
Academy Sports & Outdoors - TYLER - 48,,8668 SOUTH BROADWAY AVE,,TYLER,TX,75703,US,(903) 266-3100,32.252539839157,-95.3082547171177,,,,
Gander Mountain - TYLER - 410,,151 MARKET SQUARE BLVD,,TYLER,TX,75703,US,(903) 839-8205,32.24736,-95.30587,,,,
STAR ARMS,,6688 S US HWY 377,,STEPHENVILLE,TX,76401,US,,32.1824259562841,-98.2677644262295,,,,
BANNER UNIFORM CENTER,,345 9TH STREET,,SAN FRANCISCO,CA,94103,US,(415) 771-5593,37.77333,-122.41105,,,,
GALLS INCORPORATED - San Francisco,,1740 CESAR CHEVEZ,,SAN FRANCISCO,CA,94124,US,(415) 824-2400,37.7498948780488,-122.393916097561,,,,
BUTLER'S UNIFORMS,,10330 SAN PABLO AVE,,EL CERRITO,CA,94530,US,(510) 527-7878,37.90675,-122.30542,,,,
Work World - Hayward - 108,,"396 SOUTHLAND DRIVE, STE 3",,HAYWARD,CA,94545,US,5107824808,37.6530718973069,-122.106702857033,,,,
ADAMSON POLICE PRODUCTS - Hayward,,3290 ARDEN RD.,,HAYWARD,CA,94545,US,(510) 723-0643,37.6195993100276,-122.104515979235,,,,
PENINSULA UNIFORMS,,2626 BROADWAY ST,,REDWOOD CITY,CA,94063,US,(650) 701-1021,37.486236122449,-122.233553673469,,,,
REDWOOD TRADING POST,,1305 EL CAMINO REAL,,REDWOOD CITY,CA,94063,US,(650) 363-2033,37.4822491666667,-122.229745833333,,,,
Concord Uniforms LLC,,2190 Meridian Park Blvd suite Q,,Concord,CA,94520,US,(925) 687-5800,37.9776198708094,-122.057653118016,,,,
GALLS INCORPORATED - ROY TAILORS UNIFORM CO - COLUMBUS,,3889 BUSINESS PARK DR.,,COLUMBUS,OH,43204,US,(888) 336-1583,39.9771583226576,-83.10631009309,,,,
"VANCE'S OUTDOORS, INC",,3723 CLEVELAND AVE,,COLUMBUS,OH,43224,US,(614) 471-9905,40.0442891666667,-82.9586983333333,,,,
Gander Mountain - COLUMBUS - 192,,5388 WESTPOINTE PLAZA DR,,COLUMBUS,OH,43228,US,(614) 921-2223,39.9838583892617,-83.147474966443,,,,
All American Sports Center Stores Easton,,4304 EASTON GATEWAY CTR,,Columbus,OH,43219,US,,40.0547191,-82.9049172,,,,
Gander Mountain - REYNOLDSBURG - 194,,2644 TAYLOR ROAD SOUTHWST,,REYNOLDSBURG,OH,43068,US,(614) 856-0066,39.93722,-82.78164,,,,
Lesley's Uniforms,,1950 Northwood Plaza,,Franklin,IN,46131,US,(317) 697-3064,39.4932096644295,-86.0642168456376,,,,
Gander Mountain - GREENFIELD - 275,,2175 BARRETT DR STE 1300,,GREENFIELD,IN,46140,US,,39.8190356252149,-85.7681879684814,,,,
Gander Mountain - Lebanon - 332,,300 Purity Dr STE 1300,,Lebanon,IN,46052,US,,40.03968,-86.49744,,,,
Gander Mountain - LAFAYETTE - 427,,100 SOUTH CREASY LANE,,LAFAYETTE,IN,47905,US,,40.416835,-86.83898,,,,
Gander Mountain - TERRE HAUTE - 270,,3600 BLOCK S,,TERRE HAUTE,IN,47802,US,(812) 237-0940,39.4229714,-87.4154065,,,,
RAY O'HERRON COMPANY,,3549 N. VERMILION ST.,,DANVILLE,IL,61832,US,(217) 442-0860,40.1795999431044,-87.6299160024384,,,,
Bass Pro Outddor World LLC,,300 Cincinnati Mills Dr,,Cincinnati,OH,45240,US,(513) 826-5200,39.30261,-84.52227,,,,
GALLS INCORPORATED - ROY TAILORS UNIFORM CO - CINCINNATI,,1905 DALTON,,CINCINNATI,OH,45214,US,(513) 621-4787,39.1178378095726,-84.53545,,,,
FIELD & STREAM,,BUTTERMILK TOWNE CENTER 520 CLOCK TOWER WAY,,CRESCENT SPRINGS,KY,41017,US,(859) 331-0364,39.053439003511,-84.569594081326,,,,
Shooters of Jacksonville,,5085 UNIVERSITY BLVD W,,Jacksonville,FL,32216,US,(904) 737-4495,30.267498,-81.61582,,,,
PATRICK'S UNIFORMS,,5519 NORMANDY BLVD,,JACKSONVILLE,FL,32205,US,(904) 378-1077,30.3086840682199,-81.7421005823605,,,,
WILD WEST GUNS & GOLD,,1233-27 LANE AVE S,,JACKSONVILLE,FL,32205,US,,30.3013925,-81.7519,,,,
Academy Sports & Outdoors - JACKSONVILLE - 104,,"11901 ATLANTIC BLVD,\nBLDG 300",,JACKSONVILLE,FL,32225,US,(904) 564-5010,30.32109,-81.49541,,,,
Gander Mountain - JACKSONVILLE - 352,,13075 CITY SQUARE DRIVE,,JACKSONVILLE,FL,32218,US,(904) 714-3557,30.4741371924267,-81.6406788585304,,,,
DGG TASER & TACTICAL SUPP,,8725 YOUNGERMAN COURT,,JACKSONVILLE,FL,32244,US,(866) 626-8273,30.1953698738244,-81.7516584311389,,,,
Academy Sports & Outdoors - JACKSONVILLE - 194,,9041 SOUTHSIDE BLVD STE 157,,JACKSONVILLE,FL,32256,US,,30.1940828571429,-81.55165,,,,
ADAMSON POLICE PRODUCTS - Livermore,,160 AirWay Blvd,,Livermore,CA,94551,US,,37.69603,-121.807121294314,,,,
Work World - Pittsburgh - 103,,"4411 CENTURY BLVD,\nSTE 300",,PITTSBURGH,CA,94565,US,(925) 778-5480,38.0060481648416,-121.839294945249,,,,
Suisun Uniforms,,215 MARINA CENTER,,Suisun,CA,94585,US,(707) 427-2010,38.2433388252149,-122.03522,,,,
Work World - Fairfield - 10,,"1350 GATGEWAY BLVD #A12,\nSTE 300",,FAIRFIELD,CA,94533,US,(707) 421-1810,38.2630894,-122.0522259,,,,
LC ACTION POLICE SUPPLY,,1088 N. FIRST ST.,,SAN JOSE,CA,95112,US,(408) 294-2677,37.3563905084746,-121.905552372881,,,,
SUMMIT UNIFORMS CORP,,545-A MERIDIAN AVE,,SAN JOSE,CA,95126,US,(408) 293-8633,37.3183540264072,-121.913784524926,,,,
California Coast Uniforms,,4243 Capitola Rd,,Capitola,CA,95010,US,(831) 475-1911,36.97371,-121.962201176471,,,,
Bass Pro - MANTECA - 49,,1356 BASS PRO DRIVE,,MANTECA,CA,95337,US,(209) 825-8400,37.78171,-121.22663,,,,
All American Sports Center Stores Polaris,,1510 Polaris Pkwy,,Polaris,OH,43240,US,(641) 410-0018,40.1416190001203,-82.977077798581,,,,
BUCKEYE OUTDOORS,,150 ARROWHEAD BLVD,,HEBRON,OH,43025,US,(740) 928-3474,39.961079947667,-82.4771956445046,,,,
"US SAFETY GEAR, INC.",,60 N BRIDGE STREET,,CHILLICOTHE,OH,45601,US,(740) 779-6060,39.3359365485991,-82.9746751885784,,,,
Gander Mountain - HUBER HEIGHTS - 193,,8001 OLD TROY PIKE,,HUBER HEIGHTS,OH,45424,US,(937) 236-9786,39.8687154471545,-84.1376738211382,,,,
OLDE ENGLISH GUN SHOPPE,,DBA:OLDE ENGLISH OUTFITTE 480 E. GINGHAMSBURG RD,,TIPP CITY,OH,45371,US,19376673315,39.9292652131061,-84.1896549797266,,,,
SPORTSMAN'S DEN,,201 N GAMBLE ST,,SHELBY,OH,44875,US,4193473007,40.89628,-82.66164,,,,
FIELD & STREAM MIAMISBURG,,"10351 Innovation Drive, Austin Landing",,MIAMISBURG,OH,45342,US,(937) 353-3026,39.6009545461691,-84.2310921566794,,,,
GOSCHINSKI FIN FEATHER,,652 U.S. 250,,ASHLAND,OH,44805,US,(419) 281-2557,40.85733,-82.25008,,,,
Academy Sports & Outdoors - KILLEEN - 114,,2500 E CENTRAL EXPWY,,KILLEEN,TX,76543,US,(254) 501-6800,31.0893017592561,-97.7179490876834,,,,
Gander Mountain - KILLEEN - 419,,701 E CENTRAL TEXAS EXPWY,,KILLEEN,TX,76541,US,0,31.09616,-97.73542,,,,
QUANTICO TACTICAL,,820 S. FORT HOOD ST,,KILLEEN,TX,76541,US,(254) 554-8940,31.1133019879107,-97.7459045818053,,,,
LAWMEN'S SAFETY SUPPLY,,"800 Clanton Road,Suite T",,CHARLOTTE,NC,28217,US,(704) 494-7575,35.1986676751281,-80.8850304873129,,,,
CHIEF SUPPLY,,2121-E Distribution Center Dr,,CHARLOTTE,NC,28269,US,(800) 733-9281,35.2773532364708,-80.8437445891766,,,,
GALLS INCORPORATED - BEST UNIFORMS - Charlotte,,1424 CENTER PARK DRIVE,,CHARLOTTE,NC,28217,US,(704) 522-1002,35.1752624971772,-80.9224439557458,,,,
MES - CAROLINAS,,6701-C Northpark Blvd,,Charlotte,NC,28216,US,(800) 868-8584,35.31111616885,-80.8527715178312,,,,
GALLS INCORPORATED - BEST SHERIFF,,INDOOR RANGE,,CHARLOTTE,NC,28269,US,0,35.34401,-80.79314,,,,
Academy Sports & Outdoors - CONCORD - 145,,8675 CONCORD MILLS BLVD,,CONCORD,NC,28027,US,,35.374876,-80.730742,,,,
Bass Pro - CONCORD - 7,,8181 CONCORD MILLS BLVD,,CONCORD,NC,28027,US,(704) 979-2200,35.3716064002461,-80.7189456009845,,,,
Gander Mountain - GASTONIA - 333,,3704 E FRANKLIN BLVD STE 1300,,GASTONIA,NC,28056,US,,35.2575494545455,-81.1137683636364,,,,
Academy Sports & Outdoors - ORANGE PARK - 101,,661 BLANDING BLVD,,ORANGE PARK,FL,32073,US,(904) 213-2080,30.1491141666667,-81.755035,,,,
Gander Mountain - ST AUGUSTINE - 351,,550 BELZ OUTLET BLVD,,ST AUGUSTINE,FL,32084,US,0,29.9286693,-81.4151046,,,,
FLETC EXPRESS,,"1131 CHAPEL CROSSING ROAD,\n\nBLDG 86",,BRUNSWICK,GA,31524,US,(912) 265-2048,31.2274633895928,-81.4628992358222,,,,
FLORIDA GUN EXCHANGE,,1050 S NOVA RD,,ORMOND BEACH,FL,32174,US,(386) 304-9499,29.2549085714286,-81.0723671428571,,,,
Gander Mountain - OCALA - 354,,3970 SW 3RD STREET,,OCALA,FL,34474,US,0,29.1848086943725,-82.1879956507114,,,,
GUNS FISHING & OTHER STUFF,,197 BUTCHER RD,,VACAVILLE,CA,95687,US,(707) 451-1199,38.3447548415751,-121.998825640056,,,,
QUINN'S UNIFORMS,,"150 PARKER STREET, STE B & C",,VACAVILLE,CA,95688,US,(707) 453-1370,38.39223,-121.98681,,,,
SANTA ROSA UNIFORM,,1005 WEST COLLEGE AVE,,SANTA ROSA,CA,95401,US,(707) 545-3766,38.4454185858586,-122.739475454545,,,,
Work World - Santa Rosa - 100,,"270 CODDINGTOWN MALL,\nSTE 300",,SANTA ROSA,CA,95401,US,(707) 545-7863,38.4592810045662,-122.73139739726,,,,
CODE 3 WEAR,,304 Lincoln Center,,STOCKTON,CA,95207,US,(209) 910-0063,38.0117305284344,-121.323350733286,,,,
Work World - Stockton - 101,,"4950 PACIFIC AVE #324, STE 3",,STOCKTON,CA,95207,US,2094721425,37.9940672463768,-121.313704347826,,,,
WEBER POINT UNIFORMS,,330 E MAIN ST,,STOCKTON,CA,95202,US,(209) 464-7911,37.9532041463415,-121.286815365854,,,,
Capital City Uniforms,,8470 Elk Grove Blvd. #G150,,Elk Grove,CA,95758,US,9166839660,38.4089522580645,-121.390809032258,,,,
Salinas Valley Prosquad,,221 Griffin St.,,Salinas,CA,93901,US,(831) 758-2128,36.6764636842105,-121.642985263158,,,,
Work World - Modesto - 118,,"2900 STANDIFORD AVE, STE #22",,MODESTO,CA,95350,US,(209) 577-1746,37.6853,-121.04982,,,,
CRESCENT WORK & OUTDOOR,,801 8TH STREET,,MODESTO,CA,95354,US,(209) 529-3490,37.63712,-120.99987,,,,
NDN International,,451 W. 18th Street,,Merced,CA,95341,US,(209) 678-0545,37.3021706122449,-120.482025510204,,,,
WILD BILL'S OLD WEST TRAD,,10490 E STOCKTON BLVD,,ELK GROVE,CA,95624,US,9166867699,38.37909,-121.35934,,,,
Capital City Uniforms,,1920 29th St. STE B,,Sacramento,CA,95816,US,(916) 451-3805,38.5630800533848,-121.472411978646,,,,
TAKEDOWN TACTICAL,,1700 Orange Rd.,,Ashland,OH,44805,US,(419) 651-1494,40.88444,-82.30586,,,,
Liberty Tactical,,426 Liberty St.,,Wooster,OH,44691,US,(234) 249-0290,40.7974977343109,-81.9464859331433,,,,
"US SAFETY GEAR, INC.",,5001 Enterprise Dr.,,Warren,OH,44481,US,(330) 898-1344,39.36831,-84.30832,,,,
The Lawft,,1016 N. Blanchard St.,,Findlay,OH,45840,US,(419) 423-5723,41.0521615882646,-83.6398121075121,,,,
Academy Sports & Outdoors - TEMPLE - 45,,1407 MARLANDWOOD RD,,TEMPLE,TX,76502,US,(254) 742-7350,31.06316,-97.36747,,,,
Gander Mountain - MONROE - 334,,3151 W US HWY 74 UNIT 17,,MONROE,NC,28110,US,,35.024079375,-80.583090625,,,,
Academy Sports & Outdoors - ROCK HILL - 137,,2468 CROSS POINTE DR,,ROCK HILL,SC,29730,US,,34.93859,-80.96727,,,,
Academy Sports & Outdoors - KANNAPOLIS - 149,,2211 ELDER LN,,KANNAPOLIS,NC,28083,US,,35.4655333800424,-80.5934057179972,,,,
Gander Mountain - MOORESVILLE - 337,,236 NORMAN STATION,,MOORESVILLE,NC,28117,US,(704) 658-0822,35.5874192974744,-80.8568315573342,,,,
THREAD SHED UNIFORMS,,133 SO MAIN ST,,SALISBURY,NC,28144,US,(704) 633-1159,35.6670960089739,-80.470298312925,,,,
Academy Sports & Outdoors - HICKORY - 144,,2162 HWY 70 SE,,HICKORY,NC,28602,US,,35.69906,-81.27995,,,,
Barebones Workwear,,"767 Ikea Court, Suite 120",,West Sacramento,CA,95605,US,(916) 372-9327,38.5899661728173,-121.550920466447,,,,
Work World - Sacramento - 110,,"2820 ARDEN WAY, STE 3",,SACRAMENTO,CA,95825,US,9164811393,38.5959618691589,-121.397634766355,,,,
5.11 Sacramento,,5400 Date Ave. Suite F,,Sacramento,CA,95841,US,,38.6635840936706,-121.354966361779,,,,
Barebones Workwear,,"2340 Sunrise Blvd., #18",,Rancho Cordova,CA,09567,US,(916) 363-9327,38.6170134167575,-121.268682657061,,,,
WILD SPORTS ENTERPRISES,,9396 GREENBACK LANE,,ORANGEVALE,CA,95662,US,(916) 989-8300,38.6781325,-121.20244375,,,,
Barebones Workwear,,6644 Lonetree Blvd.,,Rocklin,CA,95765,US,(916) 789-9327,38.7994563153904,-121.293192947182,,,,
LETER BUCK WESTERN WEAR,,68 S WASHINGTON,,SONORA,CA,95370,US,(209) 533-1144,37.9844669565217,-120.382746086957,,,,
HARRISONS WORKWEAR,,1508 4th Ave. SE,,HICKORY,NC,28602,US,(828) 855-3733,35.728798016042,-81.3137617280938,,,,
"READ'S UNIFORMS, INC. - Hickory",,"1774 N CENTER ST,\nSTE D",,HICKORY,NC,28601,US,(828) 441-2255,35.7560796774194,-81.3359948387097,,,,
DIAMONDBACK TACTICAL,,207 OAKLAND ROAD,,SPINDALE,NC,28160,US,,35.3524856893786,-81.9192133398424,,,,
Gander Mountain - WINSTON-SALEM - 339,,91 HANES MALL BLVD,,WINSTON-SALEM,NC,27103,US,,36.0718505961353,-80.2968736865118,,,,
Harrison's Public Safety,,1223 SILAS CREEK PARKWAY,,WINSTON-SALEM,NC,27127,US,,36.0659934042553,-80.2551040425532,,,,
D&E DIST INC,,HARRISONS WORKWEAR,,SPARTANBURG,SC,29301,US,(864) 327-9395,34.93692,-81.99584,,,,
Academy Sports & Outdoors - SPARTANBURG - 215,,100 PEACHWOOD CENTRE DR,,SPARTANBURG,SC,29301,US,(864) 216-8960,34.93462,-82.00139,,,,
Academy Sports & Outdoors - COLUMBIA - 103,,730 FASHION DRIVE,,COLUMBIA,SC,29229,US,(803) 462-6340,34.12481,-80.87703,,,,
Sportsman's Warehouse - ROCKLIN - 13,,6640 LONETREE BLVD,,ROCKLIN,CA,95765,US,(916) 782-9900,38.7995643815692,-121.293243378066,,,,
ADVANTAGE GEAR INC,,4670 PACIFIC ST. STE 100,,ROCKLIN,CA,95677,US,(916) 652-8850,38.7968991963417,-121.23041719616,,,,
Field & Stream Greensboro,,1305 BRIDFORD PARKWAY,,Greensboro,NC,27407,US,(336) 419-1016,36.055193473328,-79.9024986731583,,,,
Harrison's Public Safety,,150 P & S COURT,,Duncan,SC,29334,US,,34.8895715,-82.1599735,,,,
D&E DIST INC,,"3727 W GATE CITY BLVD, STE B",,GREENSBORO,NC,27407,US,(336) 815-0580,36.0400169,-79.8488088,,,,
DANA SAFETY SUPPLY INC,,5223A WEST MARKET ST.,,GREENSBORO,NC,27409,US,(336) 854-5536,36.07004,-79.88093,,,,
Gander Mountain - GREENSBORO - 336,,2223 VANSTORY STREET,,GREENSBORO,NC,27403,US,0,36.04026,-79.83315,,,,
"DESIGNLAB, INC.",,7320 BROAD RIVER RD #C-D,,IRMO,SC,29063,US,(803) 732-5496,34.0949545965563,-81.1576473935702,,,,
DANA SAFETY SUPPLY,,4601 BROAD RIVER RD.,,COLUMBIA,SC,29210,US,(803) 798-3670,34.0692188492714,-81.1188351714754,,,,
Academy Sports & Outdoors - COLUMBIA - 136,,281 PARK TERRACE DR,,COLUMBIA,SC,29212,US,,34.0724990961128,-81.1532660640752,,,,
Sportsman's Warehouse - COLUMBIA - 6,,476 PINEY GROVE RD.,,COLUMBIA,SC,29210,US,0,34.0682893145048,-81.1393652074121,,,,
LAWMEN'S SAFETY SUPPLY,,3315 BROAD RIVER RD. #120,,COLUMBIA,SC,29210,US,(803) 798-2253,34.0522178787879,-81.1078863636364,,,,
US Patriot - Columbia - 1,,5496 A FOREST DRIVE,,COLUMBIA,SC,29206,US,(800) 805-5294,34.0236330202228,-80.9515432898603,,,,
TACTICAL GEAR DISTRIBUTOR,,9750 ABERDEEN RD,,ABERDEEN,NC,28315,US,(910) 944-8700,35.0837219523486,-79.3646834420044,,,,
US PATRIOT INTERNET SALES,,212 CANDI LANE,,COLUMBIA,SC,29210,US,(800) 805-5294,34.0131357795422,-81.079766584462,,,,
Academy Sports & Outdoors - GREENVILLE - 219,,59 WOODRUFF INDUSTRIAL LN,,GREENVILLE,SC,29607,US,(864) 254-5900,34.8302,-82.30629,,,,
Read's Uniforms,,"30 ORCHARD PARK DR, STE 10",,Greenville,SC,29615,US,(864) 283-6119,34.8567868287338,-82.3329036574676,,,,
HARRISONS WORKWEAR,,206 D NEELY FERRY RD,,MAULDIN,SC,29662,US,(864) 284-0041,34.7614,-82.29331,,,,
"DESIGNLAB, INC.",,825 OLD AIRPORT RD.,,GREENVILLE,SC,29607,US,(864) 297-7199,34.8450206310005,-82.3401905805767,,,,
Academy Sports & Outdoors - FLORENCE - 196,,120 WOODY JONES BLVD,,FLORENCE,SC,29501,US,,34.18395,-79.83891,,,,
UNIFORM BY JOHN,,1518 S. IRBY ST.,,FLORENCE,SC,29505,US,(843) 665-4612,34.1670532415593,-79.7642044597401,,,,
JORDAN'S SPECIALTIES INC.,,ATTN: PATTY DEVRIES,,BURLINGTON,NC,27215,US,(336) 538-0221,36.06317,-79.48067,,,,
SAFE INDUSTRIES,,116 LEADER DR.,,PIEDMONT,SC,29673,US,(864) 845-7175,34.7832534207538,-82.468997590468,,,,
Read's Uniforms - Asheville,,123 Sweeten Creek Rd,,"Asheville, NC",NC,28803,US,(828) 277-6380,35.5626793411932,-82.5281028588779,,,,
DAVIS PUBLIC SAFETY,,2466 CORPORATION PRKWY,,BURLINGTON,NC,27215,US,(336) 516-3616,36.0659100359557,-79.43610798382,,,,
Bass Pro - MEMPHIS,,1 BASS PRO DRIVE,,Memphis,TN,38105,US,,35.1562576,-90.0517623,,,,
ACCURATE LAW ENFORCEMENT,,3562 SUMMER AVENUE,,MEMPHIS,TN,38122,US,(901) 774-9595,35.149443143377,-89.9421644437767,,,,
CMS Uniforms,,4692 American Way,,Memphis,TN,38118,US,(901) 360-1390,35.0735408104813,-89.9081286986874,,,,
Bass Pro - MEMPHIS - 15,,6140 MACON ROAD,,MEMPHIS,TN,38134,US,(901) 213-5800,35.16296418363,-89.8584752555152,,,,
MIDSOUTH SOLUTIONS,,2209 Whitten Rd.,,BARTLETT,TN,38133,US,(901) 373-8597,35.1856617851938,-89.835843798654,,,,
Emergency Equipment Professionals,,6441 Highway 51,,Horn Lake,MS,38637,US,,34.9546848626866,-90.01629,,,,
Academy Sports & Outdoors - COLLIERVILLE - 186,,275 NEW BYHALIA RD,,COLLIERVILLE,TN,38017,US,,35.0481328399491,-89.6890421023574,,,,
Academy Sports & Outdoors - JONESBORO - 155,,2800 PARKWOOD RD,,JONESBORO,AR,72401,US,,35.81703,-90.66898,,,,
WHISTLE WORKWEAR,,"3300 1ST AVE S, STE 3",,SEATTLE,WA,98134,US,0,47.57439,-122.33424,,,,
GALLS INCORPORATED - BLUMENTHAL - Seattle,,8610 AURORA AVE NO.,,SEATTLE,WA,98103,US,(800) 537-5277,47.6913934693878,-122.344551020408,,,,
WADE'S EASTSIDE GUN SHOP,,13570 BEL-RED RD,,BELLEVUE,WA,98005,US,(425) 649-5995,47.6230992929293,-122.159649393939,,,,
WHISTLE WORKWEAR,,"15240 AURORA AVE N, 6818 Tacoma Mall Blvd",,SHORELINE,WA,98133,US,0,47.7398361,-122.3451558,,,,
GALLS INCORPORATED - BLUMENTHAL - Des Moines,,21621 PACIFIC HWY S.,,DES MOINES,WA,98198,US,(800) 495-6265,47.4080399566134,-122.298365720484,,,,
"FARWEST SPORTS, INC.",,4602 20TH ST EASST,,FIFE,WA,98424,US,,47.23897,-122.367498431373,,,,
Sportsman's Warehouse - PUYALLUP - 36,,"31ST AVE, SE",,PUYALLUP,WA,98374,US,0,47.16221,-122.27185,,,,
QUANTICO TACTICAL,,12314 PACIFIC HWY SW,,LAKEWOOD,WA,98499,US,(253) 582-8222,47.1455063746337,-122.510861163123,,,,
"HUNTERS HOLLOW, INC",,658 HWY 6 WEST,,OXFORD,MS,38655,US,0,34.3584533417597,-89.620597276742,,,,
Gander Mountain - JACKSON - 321,,1523 VANN DR,,JACKSON,TN,38305,US,(731) 660-8059,35.6590811342326,-88.8701229772638,,,,
MACKS PRAIRIE WINGS,,"2335 HWY 63 NORTH, PO BOX 129",,STUTTGART,AR,72160,US,8706736960,34.534121,-91.558491,,,,
BARNEY'S OF TUPELO,,522-C W. MAIN ST,,TUPELO,MS,38804,US,(662) 620-2525,34.2574004347826,-88.7092334782609,,,,
BIG J'S OUTDOOR STORE,,107 W CALISTOGA ST,,ORTING,WA,98360,US,3608937900,47.097805,-122.2045875,,,,
Cabela's - LACEY - 26,,1600 GATEWAY BLVD,,LACEY,WA,98516,US,0,47.06281,-122.78482,,,,
HOLIDAY SPORTS,,895 NEVITT ROAD,,BURLINGTON,WA,98233,US,3607574361,48.4677477857932,-122.343719396125,,,,
SWAIN'S GENERAL STORE,,602 E 1ST ST,,PORT ANGELES,WA,98362,US,,48.1152946938776,-123.424352857143,,,,
M.D. CHARLTON CO. LTD.,,E-2200 KEATING CROSS RD,,VICTORIA,,V8M 2A6,CA,(250) 652-5266,48.5651196,-123.417242,,,,
MES - ROCKY MOUNTAINS,,"700 W. Mississippi Avenue, Unit E6",,Denver,CO,80223,US,(303) 781-4521,39.69667,-104.99561,,,,
Bass Pro - DENVER - 34,,7970 NORTHFIELD BLVD,,DENVER,CO,80238,US,(720) 385-3600,39.78549625,-104.89535,,,,
Blue Star Police Supply,,6485 E. HAMPDEN AVE.,,DENVER,CO,80222,US,(303) 759-0623,39.6530768181818,-104.913303181818,,,,
Sportsman's Warehouse - THORNTON - 22,,11 WEST 84TH AVE,,THORNTON,CO,80260,US,(303) 428-6500,39.8489905050505,-104.987799494949,,,,
Gander Mountain - THORNTON - 421,,9923 GRANT STREET,,THORNTON,CO,80229,US,0,39.8764045248884,-104.983765505279,,,,
Gander Mountain - AURORA - 420,,14000 E JEWELL AVE,,AURORA,CO,80012,US,0,39.68211,-104.825566525424,,,,
PROFORMANCE APPAREL CORP,,6905 S BROADWAY STE 181,,LITTLETON,CO,80122,US,(303) 794-8169,39.5915354545455,-104.988304545455,,,,
5.11 Tactical Denver,,2670 East County Line Rd Suite A1,,Highlands Ranch,CO,80126,US,(720) 531-3110,39.56607,-104.958355625,,,,
JAX OUTDOOR GEAR,,900 S HIGHWAY 287,,LAFAYETTE,CO,80026,US,(720) 266-6160,39.9898058,-105.0972033,,,,
Enterprise Uniform,,2862 E. Grand Blvd.,,Detroit,MI,48202,US,(313) 871-4667,42.373415,-83.0650525,,,,
HARRY'S ARMY SURPLUS,,2050 N. TELEGRAPH,,DEARBORN,MI,48128,US,(313) 565-6605,42.3259780487805,-83.2723519512195,,,,
Contractors Clothing,,29350 John R Rd.,,Madison Heights,MI,48071,US,(248) 544-0832,42.5074715719064,-83.1058870568562,,,,
Gander Mountain - TAYLOR - 175,,14100 PARDEE ROAD,,TAYLOR,MI,48180,US,(734) 287-7420,42.20424,-83.25656,,,,
FIELD & STREAM TROY,,"OAKLAND MALL, 75 W 14 MILE RD",,TROY,MI,48083,US,(248) 581-8028,42.5341048979592,-83.1079557142857,,,,
WORK 'N GEAR #28092,,31930 GRATIOT,,ROSEVILLE,MI,48066,US,(586) 294-5250,42.5317691397849,-82.9139653763441,,,,
ALLIE BROTHERS,,20295 Middlebelt,,Livonia,MI,48152,US,(248) 477-4434,42.4380052941176,-83.3364578823529,,,,
Premier Uniforms in El Paso,,"Premier Uniform & Tactical Supply\n\n4121 Montana Ave.\n\nEl Paso, TX 79903",,EL PASO,TX,79903,US,(915) 771-6601,31.7838483,-106.4424766,,,,
ALAMO SHOOTER'S & UNIFORM,,116 S OREGON ST,,EL PASO,TX,79901,US,0,31.757856122449,-106.48790755102,,,,
ALAMO SHOOTER'S & UNIFORM,,110 SAN ANTONIO ST,,EL PASO,TX,79901,US,9158432003,31.7577834693878,-106.488874897959,,,,
ALAMO SHOOTER'S & UNIFORM,,6906 GATEWAY EAST,,EL PASO,TX,79915,US,9158432003,31.7747185537247,-106.385066818194,,,,
Academy Sports & Outdoors - EL PASO - 129,,801 S MESA HILLS DR,,EL PASO,TX,79912,US,9158421500,31.8173,-106.54203,,,,
UTS,,9737 DYER ST,,EL PASO,TX,79924,US,9158432003,31.8910768781524,-106.414240318224,,,,
Academy Sports & Outdoors - EL PASO - 133,,201 S AMERICAS AVE,,EL PASO,TX,79907,US,9158605800,31.6792756716418,-106.315666119403,,,,
Gander Mountain - EL PASO - 398,,"2036 N ZARAGOZA RD, BLDG A",,EL PASO,TX,79938,US,0,31.7649152631579,-106.26461,,,,
ADAMSON POLICE PRODUCTS,,3763 IMPERIAL ST UNIT A,,FREDERICK,CO,80516,US,(303) 833-4669,40.08556,-104.987795,,,,
KINSCO PUBLIC SAFETY,,1530 SKYWAY DR.,,LONGMONT,CO,80504,US,(303) 772-7720,40.1579245317631,-105.026474859026,,,,
Sportsman's Warehouse - LOVELAND - 19,,1675 ROCKY MOUNTAIN AVE,,LOVELAND,CO,80538,US,(970) 461-5000,40.4090428750214,-105.002385500007,,,,
"JAX OUTDOOR GEAR, RANCH",,950 EAST EISENHOWER,,LOVELAND,CO,80537,US,(970) 776-4540,40.407259787234,-105.063900425532,,,,
Bass Pro - COLORADO SPRINGS - 62,,13012 BASS PRO DRIVE,,COLORADO SPRINGS,CO,80912,US,,39.0237594,-104.8265723,,,,
ENCORE UNIFORMS,,1420 RIVERSIDE AVE STE 102,,FORT COLLINS,CO,80524,US,(970) 482-6922,40.5736363198894,-105.050284551978,,,,
ROCKY MOUNTAIN SHOOTERS,,3507 E MULBERRY,,FORT COLLINS,CO,80524,US,9702215133,40.5808803125,-105.011417708333,,,,
CASUAL ADVENTURE,,3451 N. WASHINGTON BLVD,,ARLINGTON,VA,22201,US,(703) 527-0600,38.8860632502907,-77.1027883271058,,,,
"SAFEWARE, INC",,3200 HUBBARD ROAD,,LANDOVER,MD,20785,US,(301) 683-1234,38.9307250219639,-76.8744008310599,,,,
AMERICAN UNIFORM SALES,,5601-C GENERAL WASHINGTON DRIVE,,ALEXANDRIA,VA,22312,US,(703) 941-9382,38.7985514359504,-77.1639958016529,,,,
MES - MARYLAND,,4611 Assembly Drive \nSuite G,,Lanham,MD,20706,US,(301) 577-7082,38.95364,-76.8317622222222,,,,
5.11 Springfield,,"6575 FRONTIER DR, SUITE S",,SPRINGFIELD,VA,22150,US,,38.7738803225806,-77.1715383870968,,,,
PROTECTIVE SERVICES TRAIN,,610A1 FALLARD DRIVE,,UPPER MARLBORO,MD,20772,US,(505) 692-6618,38.80373,-76.84089,,,,
STERLING SHOES,,SAFETY FOOTWEAR & APPAREL 46950 COMMUNITY PLZ #107,,STERLING,VA,20164,US,(703) 430-0387,39.0152875,-77.3768368,,,,
WORK 'N GEAR #28091,,35000 WEST WARREN,,WESTLAND,MI,48185,US,(734) 762-1560,42.33894,-83.38496,,,,
NYE UNIFORM COMPANY,,1067 E. Long Lake Rd.,,Troy,MI,48085,US,(248) 554-0774,42.5921812,-83.1278408,,,,
Gander Mountain - UTICA - 171,,13975 HALL ROAD,,UTICA,MI,48315,US,(586) 247-9900,42.6274684771574,-82.990776751269,,,,
Nye Uniform,,"Nye Uniform Co, 48099 Van Dyke",,Shelby Township,MI,48317,US,(800) 748-0007,42.64881,-83.03319,,,,
Priority One Emergency,,5755 Belleville Rd.,,Canton,MI,48188,US,(734) 398-5900,42.2640024137931,-83.4869073399015,,,,
Gander Mountain - NOVI - 167,,43825 WEST OAKS DRIVE,,NOVI,MI,48377,US,0,42.4918197503437,-83.4811187935115,,,,
"UNITEX DIRECT, INC",,8226 Goldie St.,,Walled Lake,MI,48390,US,(248) 360-9661,42.575037499164,-83.4451347706488,,,,
Bass Pro - AUBURN HILLS - 6,,4500 BALDWIN ROAD,,AUBURN HILLS,MI,48326,US,(248) 209-4200,42.7017192592593,-83.3065969753087,,,,
NORTHEASTERN UNIFORMS,,1400 EAST MICHIGAN AVE,,SALINE,MI,48176,US,(734) 429-1385,42.17707,-83.75741,,,,
ANN ARBOR ARMS,,45 METTY DR,,ANN ARBOR,MI,48103,US,,42.2932433691926,-83.8672267132066,,,,
JAX OUTDOOR GEAR,,1200 NORTH COLLEGE AVE,,FORT COLLINS,CO,80524,US,(970) 221-0544,40.6026017857143,-105.076603214286,,,,
Sportsman's Warehouse - COLORADO SPRINGS - 25,,555 NORTH CHELTON RD.,,COLORADO SPRINGS,CO,80909,US,(719) 597-9200,38.8405743902439,-104.766586829268,,,,
Ray Allen Manufacturing,,975 Ford Street,,Colorado Springs,CO,80915,US,(719) 380-0404,38.8458979899497,-104.710651809045,,,,
US Patriot - Ft Carson - 16,,BLDG 6110 MARTINEZ STREET,,FT CARSON,CO,80913,US,,38.7403372845484,-104.797384370729,,,,
Warrior Kit,,368 S. McCulloch,,Pueblo West,CO,81007,US,(719) 547-8836,38.3339057142857,-104.809861428571,,,,
ALPINE ARMS,,108 W SECOND STREET,,EAGLE,CO,81631,US,(970) 306-4121,39.6552491836735,-106.827966938776,,,,
F3 TACTICAL INC,,14231 WILLARD ROAD\n\n#300,,CHANTILLY,VA,20151,US,(855) 382-2842,38.8867281,-77.4377728,,,,
QUANTICO TACTICAL,,13329 WORTH AVE,,WOODBRIDGE,VA,22192,US,(703) 910-7683,38.6502145652174,-77.2949673913044,,,,
QUANTICO TACTICAL,,253 POTOMAC AVE.,,QUANTICO,VA,22134,US,(703) 630-2715,38.5215596,-77.2906804,,,,
TIDEWATER DISTRIBUTORS,,3508 SHANNON PARK DR,,FREDERICKSBURG,VA,22408,US,0,38.267709554791,-77.4517011586151,,,,
SUPERIOR UNIFORM SALES,,909 PHILLIPS AVE.,,Toledo,OH,43612,US,(419) 476-9616,41.6919116326531,-83.5633334693878,,,,
"VF SPORTS, INC.",,4136 LAPEER RD,,PORT HURON,MI,48060,US,8109857733,42.9807957692308,-82.4887319230769,,,,
Gander Mountain - FORT GRATIOT - 179,,4055 24TH AVE,,FORT GRATIOT,MI,48059,US,(810) 385-6700,43.0260876923077,-82.4558853846154,,,,
Gander Mountain - FLINT TOWNSHIP - 165,,5038-A MILLER RD,,FLINT TOWNSHIP,MI,48507,US,(810) 230-1212,42.9755976572465,-83.7732073828331,,,,
Gander Mountain - HOLLAND - 191,,1320 HOLLAND-SYLVANIA RD,,HOLLAND,OH,43528,US,(419) 861-4800,41.6159375,-83.6842041666667,,,,
The lawft,,5105 Glendale Ave.,,Toledo,OH,43614,US,(419) 214-0525,41.6046644375779,-83.6622734122794,,,,
Bass Pro - ROSSFORD - 54,,10000 BASS PRO BLVD,,ROSSFORD,OH,43460,US,(419) 891-3900,41.55974,-83.58796,,,,
TRAFFIC STOP UNIFORM SUPL,,115 Railroad St.,,Bowling Green,OH,43402,US,(419) 354-6572,41.3745234782609,-83.6445630434783,,,,
First Due Fire Supply,,207 E. Kipp Rd.,,Mason,MI,48854,US,(517) 969-3065,42.56774,-84.4415316035668,,,,
ARMY BARRACKS,,173 MASSACHUSETTS AVE,,BOSTON,MA,02115,US,(617) 437-1657,42.34595,-71.08705,,,,
DOUGHBOY,,428 AMERICAN LEGION HWY,,REVERE,MA,02151,US,(781) 289-3300,42.4204281355967,-71.002834317054,,,,
WORK 'N GEAR #28062,,550 ARSENAL ST,,WATERTOWN,MA,02472,US,(617) 924-4639,42.36291,-71.15832,,,,
DOUGHBOY POLICE SUPPLY,,395 NEPONSET AVE,,DORCHESTER,MA,02122,US,(617) 282-2677,42.286452,-71.044104,,,,
WORK 'N GEAR #28073,,757 GALLIVAN BLVD,,DORCHESTER,MA,02122,US,(617) 282-0833,42.28501,-71.0440490909091,,,,
WORK 'N GEAR #28008 Quincy MA,,327 BROADWAY (ROUTE 1),,SAUGUS,MA,01906,US,(781) 231-3487,42.4538537,-71.0242222,,,,
5.11 SAUGUS,,"358 BROADWAY, SUITE D",,SAUGUS,MA,01906,US,(781) 816-7085,42.4805934890365,-71.0210880616464,,,,
SIMONS UNIFORMS,,329 LYNNWAY RT. 1A,,LYNN,MA,01901,US,(781) 595-2644,42.46268,-70.94612,,,,
Gander Mountain - FREDERICKSBURG - 340,,3708 PLANK ROAD,,FREDERICKSBURG,VA,22407,US,0,38.292275625,-77.52337,,,,
GST OUTFITTERS LLC,,4503 Jefferson Davis Hwy,,FREDERICKSBURG,VA,22408,US,(540) 286-0004,38.2642273469388,-77.4954985714286,,,,
WITMER PUBLIC SAFETY INC.,,DBA: THE FIRESTORE.COM,,WILLIAMSPORT,MD,21795,US,(888) 560-3473,39.59549,-77.81146,,,,
Gander Mountain - WINCHESTER - 342,,251 COMMONWEALTH CT,,WINCHESTER,VA,22602,US,(540) 868-9312,39.1259583795674,-78.1907027037682,,,,
Gander Mountain - CHAMBERSBURG - 220,,3285 BLACK GAP ROAD,,CHAMBERSBURG,PA,17202,US,(717) 263-8433,39.96183,-77.5764166666667,,,,
"NAFECO, INC",,"11179 HOPSON RD,\nSTE #2",,ASHLAND,VA,23055,US,,37.7105565217391,-77.441462173913,,,,
Rakich and Rakich,,506 BROADWAY DOWNTOWN,,LORAIN,OH,44052,US,(440) 244-5685,41.4663695,-82.176204,,,,
DISCOUNT EMS SUPPLIES,,254 PARK AVE,,Amherst,OH,44001,US,(440) 365-1165,41.39834,-82.224443877551,,,,
LANSING UNIFORM COMPANY,,5310 S. Pennsylvania Ave.,,Lansing,MI,48911,US,(517) 482-6628,42.68048,-84.538155,,,,
Gander Mountain - SHEFFIELD VILLAGE - 303,,5244 COBBLESTONE ROAD,,SHEFFIELD VILLAGE,OH,44035,US,0,41.4206751526075,-82.0801379355924,,,,
WORK 'N GEAR #28812,,4954 GREAT NORTHERN MALL,,NORTH OLMSTED,OH,44070,US,(440) 716-8800,41.4161779572514,-81.9094537059448,,,,
Gander Mountain - LANSING - 173,,430 N MARKETPLACE BLVD,,LANSING,MI,48917,US,(517) 622-5700,42.7386508828435,-84.6727642054653,,,,
SAMSEL SUPPLY COMPANY,,1285 OLD RIVER ROAD,,CLEVELAND,OH,44113,US,(800) 892-8012,41.498541714179,-81.7032705187784,,,,
Gander Mountain - SAGINAW - 174,,2270 TITTABAWASSEE,,SAGINAW,MI,48604,US,(989) 791-3500,43.4799078571429,-83.9612121428571,,,,
SCHWARZ UNIFORMS,,4711 State Rd.,,Cleveland,OH,44109,US,(440) 526-6766,41.4262942857143,-81.7093014285714,,,,
WORK 'N GEAR #28041,,355 QUINCY AVE,,E BRAINTREE,MA,02184,US,(781) 356-4722,42.232948941426,-70.9757350275837,,,,
ARMY BARRACKS,,30 BROADWAY,,SAUGUS,MA,01906,US,0,42.5000231148782,-71.014846851067,,,,
WORK 'N GEAR #28007,,731 PROVIDENCE HWY,,DEDHAM,MA,02026,US,(781) 326-6202,42.2394730843709,-71.1776216533673,,,,
TRICON SPORTS,,415 WALTHAM STREET,,LEXINGTON,MA,02421,US,7818618921,42.435062,-71.234438,,,,
AAA POLICE SUPPLY,,940 PROVIDENCE HWY (RT 1),,DEDHAM,MA,02026,US,(781) 326-8845,42.233536502992,-71.1797227616599,,,,
ARMY BARRACKS,,16 PROCTOR ST,,SALEM,MA,01970,US,(978) 745-9412,42.5184,-70.90987,,,,
ARMY BARRACKS,,234 ESSEX ST.,,SALEM,MA,01970,US,(978) 825-1201,42.52142,-70.89566,,,,
DOUGHBOY POLICE SUPPLY,,295 UNION ST.,,ROCKLAND,MA,02370,US,(781) 878-0302,42.1303771428571,-70.9156657142857,,,,
WORK 'N GEAR #28408,,1775 WASHINGTON ST,,HANOVER,MA,02339,US,(781) 826-0100,42.1472717857143,-70.8454153571429,,,,
Bass Pro - ASHLAND - 56,,11550 LAKERIDGE PARKWAY,,ASHLAND,VA,23005,US,(804) 496-4700,37.71172,-77.45036,,,,
Gander Mountain - SALISBURY - 235,,2410 N SALISBURY BLVD,,SALISBURY,MD,21801,US,(410) 334-2677,38.4027295476686,-75.5694632433141,,,,
COLONIAL SHOOTING ACADEMY,,6020 W BROAD ST,,RICHMOND,VA,23230,US,(804) 266-2666,37.59436,-77.5091,,,,
GALLS INCORPORATED - BEST UNIFORMS - Richmond,,2124 TOMLYNN STREET,,RICHMOND,VA,23230,US,(804) 353-3999,37.5806,-77.47963,,,,
Heroes Apparel,,1614 Ownby Lane,,Richmond,VA,23220,US,(804) 267-3424,37.56371,-77.4603508246279,,,,
Gander Mountain - CHARLOTTESVILLE - 344,,440 GANDER DRIVE STE 1300,,CHARLOTTESVILLE,VA,22901,US,,38.0894124,-78.4685214,,,,
"SAFEWARE, INC",,5641 LABURNUM AVE,,RICHMOND,VA,23231,US,(804) 222-1238,37.5071034479101,-77.3494377146649,,,,
SHUTTLER'S APPAREL,,1850 SNOW RD,,Parma,OH,44134,US,(216) 739-9600,41.4051209210526,-81.6962064473684,,,,
SHUTTLER'S APPAREL,,777 Alpha Dr.,,Highland Heights,OH,44143,US,(440) 646-9600,41.5401768876653,-81.4530291826037,,,,
Gander Mountain - MENTOR - 304,,9620 DIAMOND CENTRE DRIVE,,MENTOR,OH,44060,US,(440) 639-8545,41.7147477272727,-81.2945979545455,,,,
Bass Pro - FOXBOROUGH - 53,,ONE BASS PRO DRIVE,,FOXBOROUGH,MA,02035,US,(508) 216-2000,42.08569,-71.27458,,,,
HEROES UNIFORM & SUPPLY,,40 FIRST STREET,,LOWELL,MA,01850,US,(978) 454-7300,42.6489062845443,-71.3013954418311,,,,
WORK 'N GEAR #28049,,436 S BROADWAY,,SALEM,NH,03079,US,(603) 898-3227,42.7478668107299,-71.2031543050812,,,,
Stitch This Embroidery,,505 BOSTON POST RD WEST,,MARLBOROUGH,MA,01752,US,,42.3355263737462,-71.6027261090271,,,,
ARMY BARRACKS,,361 S BROADWAY,,SALEM,NH,03079,US,(603) 893-4864,42.7523375,-71.206575,,,,
Kingston Uniform,,70 Summer Street,,Kingston,MA,02364,US,(781) 585-3506,41.9991838778674,-70.73046,,,,
WORK 'N GEAR #28056,,292 DANIEL WEBSTER HWY,,NASHUA,NH,03060,US,(603) 891-0117,42.7039014285714,-71.4410871428571,,,,
WORK 'N GEAR #28059,,999 SOUTH WASHINGTON ST,,N ATTLEBORO,MA,02760,US,(508) 699-3310,41.94594,-71.34712,,,,
WORK 'N GEAR #28412,,2 GALLERIA DRIVE,,TAUNTON,MA,02780,US,(508) 822-2222,41.86707,-71.05005,,,,
Body Armor Outlet,,"Body Armor Outlet, LLC, 26 Ermer Rd",,Salem,NH,03087,US,(888) 884-2427,42.8459944837794,-71.2222176887075,,,,
WORK 'N GEAR #28011,,1233 MAIN ST,,WORCESTER,MA,01603,US,(508) 753-6200,42.2427031184386,-71.8424747006749,,,,
LEADERS UNIFORMS,,365 BROADWAY,,PROVIDENCE,RI,02909,US,(401) 831-5100,41.8196533333333,-71.4300133333333,,,,
RHODE ISLAND UNIFORM,,1395 Atwood Ave\n\nUnit 109,,Johnston,RI,02919,US,(401) 270-9274,41.8160517702663,-71.4963309401008,,,,
"BANANAS, INC. #687",,3029 RT 6 & 28,,WAREHAM,MA,02538,US,5082910005,41.7627904,-70.6767602,,,,
WORK 'N GEAR #28016,,1111 S WILLOW ST,,MANCHESTER,NH,03103,US,(603) 627-9222,42.9611664146085,-71.438625587478,,,,
Huntress Uniform,,333 Valley St,,MANCHESTER,NH,03103,US,(603) 626-1677,42.98134,-71.4545191489362,,,,
EAST COAST EMERGENCY,,OUTFITTERS,,MANCHESTER,NH,03102,US,0,42.99306,-71.48834,,,,
WORK 'N GEAR #28406,,73 FAUNCE CORNER RD,,N DARTMOUTH,MA,02747,US,(508) 997-0492,41.6477995982538,-70.9885898105127,,,,
WORK 'N GEAR #28018,,945 BALD HILL RD,,WARWICK,RI,02886,US,(401) 823-7330,41.7131033007486,-71.488766147544,,,,
MIKE & WAYNE'S INC.,,163 HUTTLESTON AVE.,,FAIRHAVEN,MA,02719,US,(508) 997-2688,41.643,-70.89008,,,,
SHOOTERS OUTPOST,,1158 HOOKSETT RD,,HOOKSETT,NH,03106,US,(603) 232-6125,43.03476,-71.4347,,,,
Kittery Trading Post,,"Kittery Trading Post, 301 US-1 BYP",,Kittery,ME,03904,US,2074392700,43.11079,-70.73576,,,,
REGENCY POLICE SUPPLY INC,,11 ENTERPRISE RD UNIT #3,,HYANNIS,MA,02601,US,(508) 790-4141,41.6668555555556,-70.3026233333333,,,,
ADVANCED EMBROIDERY,,38 PLANT ROAD,,HYANNIS,MA,02601,US,(508) 778-6516,41.6717305697821,-70.2948224359805,,,,
PURITAN OF CAPE COD,,408 MAIN ST,,HYANNIS,MA,02601,US,(508) 775-2400,41.65265,-70.2842,,,,
GUARDIAN UNIFORM & SUPPLY,,40 ROBBINS RD,,SPRINGFIELD,MA,01104,US,(413) 858-8880,42.1452632021506,-72.5433944243838,,,,
WORK 'N GEAR #28010,,218 MEMORIAL AVE,,W. SPRINGFIELD,MA,01089,US,(413) 733-4189,42.096638,-72.600244,,,,
ARMY BARRACKS,,1053 D RIVERDALE ST.,,W PRINGFIELD,MA,01090,US,(413) 733-8300,42.132446,-72.6247782,,,,
Capitol Uniform & Supply,,118 CROSS ROAD,,Waterford,CT,06385,US,,41.3736964977182,-72.1619040235406,,,,
Cabela's - E HARTFORD - 23,,475 EAST HARTFORD BLVD N,,E HARTFORD,CT,06118,US,0,41.7565873684211,-72.6207810526316,,,,
ADMIRAL FIRE & SAFETY INC,,9 HAIGAIS PARKWAY,,SCARBOROUGH,ME,04074,US,(207) 883-0742,43.5848659065539,-70.3608743288186,,,,
ARMY BARRACKS,,"PAYNE PLAZA,\n456 PAYNE RD.",,SCARBOROUGH,ME,04074,US,(207) 885-0680,43.6017463,-70.3673974,,,,
CMS Uniforms,,1031 MURFREESBORO PIKE,,Nashville,TN,37217,US,(615) 726-0009,36.1279217142857,-86.7127625714286,,,,
Bass Pro - NASHVILLE - 9,,323 OPRY MILLS DRIVE,,NASHVILLE,TN,37214,US,(615) 514-5200,36.20369,-86.69485,,,,
GREENE MILITARY,,2602 LEBANON PIKE,,NASHVILLE,TN,37214,US,(615) 889-4161,36.1699134540437,-86.6745457940958,,,,
Academy Sports & Outdoors - MADISON - 91,,2350 GALLATIAN ROAD NORTH,,MADISON,TN,37115,US,6158556900,36.3105358,-86.6812879,,,,
Academy Sports & Outdoors - FRANKLIN - 90,,1915 MALLORY LANE,,FRANKLIN,TN,37067,US,,35.9557875037296,-86.8173303188871,,,,
Academy Sports & Outdoors - MT JULIET - 134,,"355 OLD PLEASANT GROVE RD,\nSTE 5000",,MT JULIET,TN,37122,US,,36.17421,-86.51735,,,,
Gander Mountain - MT JULIET - 323,,66 BELINDA PARKWAY STE 1300,,MT JULIET,MO,37122,US,,36.1704637730117,-86.5062332804507,,,,
Academy Sports & Outdoors - SMYRNA - 158,,1150 GENIE LANE,,SMYRNA,TN,37167,US,,35.98497,-86.55368,,,,
SAFE INDUSTRIES,,"131 WEAKLY LANE, STE 160",,SMYRNA,TN,37167,US,(615) 625-3533,35.9771690484195,-86.5225363854259,,,,
Academy Sports & Outdoors - CLARKSVILLE - 208,,130 SOUTH HAMPTON PLACE,,CLARKSVILLE,TN,37040,US,,36.5903817019595,-87.2937230186871,,,,
QUANTICO TACTICAL,,397 Tiny Town Rd,,Clarkville,TN,37042,US,(931) 546-8598,36.6330625901835,-87.4248992134857,,,,
Gander Mountain - BOWLING GREEN - 391,,725 BLUEGRASS FARMS BLVD,,BOWLING GREEN,KY,42104,US,(270) 842-0855,36.9223369387755,-86.4230663265306,,,,
"BLUEGRASS UNIFORMS, INC.",,132 CHESTER COURT,,BOWLING GREEN,KY,42103,US,(502) 581-1235,36.9277033436189,-86.4032903843319,,,,
"BLUEGRASS UNIFORMS, INC.",,3533 DAHLIA WAY,,BOWLING GREEN,KY,42101,US,(270) 842-7700,37.0107860771131,-86.3895480468879,,,,
Galaxy Sports,,30 N MAIN ST,,MADISONVILLE,KY,42431,US,(270) 821-7120,37.3286915384615,-87.4987638461538,,,,
Gander Mountain - HUNTSVILLE - 310,,3418 MEMORIAL PKWY NW,,HUNTSVILLE,AL,35810,US,(256) 858-8045,34.7697027272727,-86.5862227272727,,,,
Academy Sports & Outdoors - MADISON - 177,,7506 HIGHWAY 72 WEST,,MADISON,AL,35758,US,,34.7564199768468,-86.7280967901504,,,,
GALLS INCORPORATED - BLUMENTHAL - Portland,,9047 SW BARBUR BLVD.,,PORTLAND,OR,97219,US,(888) 267-9398,45.4596928571429,-122.708077959184,,,,
Curtis Blue Line,,11570 SW TIEDEMAN AVE,,TIGARD,,97223,US,,45.4365313747419,-122.782518178467,,,,
MES - NORTHWEST,,"3801 Fruit Valley Road., Suite C",,Vancouver,WA,98660,US,(360) 737-3800,45.64916,-122.69224,,,,
CURTS DISCOUNT SHOOTERS S,,"17843 SE MCLOUGHLIN BLVD,\nSTE 1",,MILWAUKIE,OR,97267,US,(503) 305-8678,45.3937276113036,-122.614814316387,,,,
EXTREME PRODUCTS LLC,,12310 SE HWY 212,,CLACKAMAS,OR,97015,US,(503) 657-4806,45.4079162011918,-122.53668476504,,,,
Curtis Blue Line,,504 MAIN STREET,,OREGON CITY,OR,97045,US,(503) 656-0353,45.3566897959184,-122.610009795918,,,,
KEITHS SPORTING GOODS,,1595 E POWELL BLVD,,GRESHAM,OR,97267,US,5034926999,45.49797,-122.415414243702,,,,
911 SUPPLY LLC,,4484 RIVER RD N,,KEIZER,OR,97303,US,(503) 393-4911,44.9895442857143,-123.02663,,,,
LAS VEGAS TACTICAL,,953 E. SAHARA AVE.,,LAS VEGAS,NV,89104,US,(702) 739-7070,36.14397,-115.1424,,,,
TAC Boutique,,3639 S. Las Vegas Blvd #808,,Las Vegas,NV,89109,US,,36.11374,-115.172776,,,,
GUN GARAGE,,5155 DEAN MARTIN DR,,LAS VEGAS,NV,89118,US,(702) 900-4867,36.0963230964558,-115.181336825104,,,,
Botach,,4775 WEST HARMON AVE,,Las Vegas,NV,89103,US,,36.1081683221476,-115.206340604027,,,,
5.11 Las Vegas,,"4305 Dean Martin Drive Units 100, 105, & 110.",,Las Vegas,NV,89118,US,,36.08384,-115.21635,,,,
NEW FRONTIER ARMORY,,150 E CENTENNIAL PKWY.,,N. LAS VEGAS,NV,89084,US,(702) 479-1470,36.2763722494975,-115.137883456787,,,,
Sportsman's Warehouse - LAS VEGAS - 33,,5647 CENTENNIAL CENTER BL,,LAS VEGAS,NV,89149,US,0,36.2638495439099,-115.256757189802,,,,
Bass Pro - LAS VEGAS - 25,,8200 DEAN MARTIN DRIVE,,LAS VEGAS,NV,89139,US,7027305200,36.04137,-115.18799,,,,
SHOOTMAN LLC,,4340 CUTLER AVE NE,,ALBUQUERQUE,NM,87110,US,(505) 797-9715,35.1055500979743,-106.59666631934,,,,
TLC Uniforms,,925 2nd Street NW,,ALBUQUERQUE,NM,87102,US,(505) 247-8900,35.0919748979592,-106.647771020408,,,,
Sportsman's Warehouse - ALBUQUERQUE - 5,,1450 RENAISSANCE BLVD NE,,ALBUQUERQUE,NM,87107,US,0,35.1374053816337,-106.613252813092,,,,
"Kaufman's West, LLC",,1660 EUBANK NE,,ALBUQUERQUE,NM,87112,US,(505) 293-2300,35.0995210714286,-106.5327875,,,,
BMC Tactical,,DBA BMC TACTICAL 2615 COORS BLVD SW,,ALBUQUERQUE,NM,87121,US,(505) 877-5357,35.0404731675229,-106.711250828404,,,,
Cabela's - RICHFIELD - 18,,ONE CABELA WAY,,RICHFIELD,WI,530769707,US,0,43.27913,-88.18835,,,,
"Delta Defense, LLC",,N173W21298 Northwest Passage,,Jackson,WI,53037,US,(877) 677-1919,43.3338602280625,-88.1766819834355,,,,
Gander Mountain - SHEBOYGAN - 132,,4308 COUNTY ROAD J,,SHEBOYGAN,WI,53083,US,(920) 208-0800,43.7900072698015,-87.7624243375651,,,,
UNIFORMS DIRECT,,2338 East Springs Dr,,Madison,WI,53704,US,(715) 864-2995,43.1292667659522,-89.2943367659522,,,,
Gander Mountain - DEFOREST - 113,,6199 METRO DRIVE,,DEFOREST,WI,53532,US,(608) 242-9532,43.1864,-89.32628,,,,
Safety Products and Outerwear Store,,2170 E. Sherman Blvd.,,Muskegon,MI,49444,US,(231) 563-6311,43.2058945787808,-86.1942918441751,,,,
Gander Mountain - APPLETON - 130,,535 N WESTHILL BLVD,,APPLETON,WI,54914,US,(920) 731-9400,44.2660513946588,-88.4610517804154,,,,
Scheels Sports - Appleton,,4301 W WISCONSIN AVE,,APPLETON,WI,54913,US,(920) 830-2977,44.2730344444444,-88.4698355555556,,,,
BLUEGRASS UNIFORMS,,961 SOUTH 2ND ST.,,LOUISVILLE,KY,40203,US,(502) 581-1235,38.239726122449,-85.756152244898,,,,
Bass Pro - CLARKSVILLE - 27,,951 E LEWIS & CLARK PKWY,,CLARKSVILLE,IN,47129,US,(812) 218-5500,38.3171124,-85.756626,,,,
KIESLER'S POLICE SUPPLY,,2802 SABLE MILL ROAD,,JEFFERSONVILLE,IN,47130,US,(812) 288-5740,38.3524137466769,-85.7435606997695,,,,
RIVERCITY WORKWEAR,,4020 EARNINGS WAY,,NEW ALBANY,IN,47150,US,(812) 948-9020,38.3396639570545,-85.8358151378008,,,,
tbox tactical,,"100 VINELAND CENTER DR,\n\nSTE 1",,VINE GROVE,KY,40175,US,(270) 982-8269,37.82373,-85.97235,,,,
Academy Sports & Outdoors - ELIZABETHTOWN - 232,,1507 RING ROAD,,ELIZABETHTOWN,KY,42701,US,0,37.7256402426872,-85.8909831033889,,,,
L&W EMERGENCY SERVICES,,250 EAST COURT ST,,LAWRENCEBURG,KY,40342,US,(502) 839-6334,38.03589,-84.89233,,,,
TELE-RAD INC.,,511 E 8TH ST,,HOLLAND,MI,49423,US,(616) 396-3541,42.7904286206897,-86.0846086206897,,,,
Gander Mountain - BARABOO - 152,,315 W PINE,,BARABOO,WI,53913,US,(608) 356-9800,43.4719329,-89.770726,,,,
BUMBLEBEE TEAM SPORTS,,208 NORMANDY COURT,,NICHOLASVILLE,KY,40356,US,(859) 881-8326,37.9384897930974,-84.5411514990385,,,,
GALLS INCORPORATED - HQ,,1340 RUSSELL CAVE RD.,,LEXINGTON,KY,40505,US,(800) 477-7766,38.0701671428571,-84.4780171428571,,,,
Sportsman's Warehouse - LEXINGTON - 17,,2200 WAR ADMIRAL WY #163,,LEXINGTON,KY,40509,US,0,38.03952,-84.42862,,,,
Gander Mountain - EVANSVILLE - 271,,5476 INDIANA STREET,,EVANSVILLE,IN,47715,US,(812) 473-9117,37.9775637153021,-87.4834951245052,,,,
Bass Pro - OKLAHOMA CITY - 20,,200 BASS PRO DRIVE,,OKLAHOMA CITY,OK,73104,US,(405) 218-5200,35.46429,-97.50354,,,,
C.O.P.S. PRODUCTS LLC,,2550 WEST RENO AVE,,OKLAHOMA CITY,OK,73107,US,(405) 232-7300,35.46416,-97.5585663636364,,,,
SPECIAL OPS UNIFORMS INC.,,2921 NW 10TH STREET,,OKLAHOMA CITY,OK,73107,US,(405) 946-3504,35.4786315217391,-97.5670791304348,,,,
Academy Sports & Outdoors - OKLAHOMA CITY - 88,,7700 SOUTH WALKER AVE,,OKLAHOMA CITY,OK,73139,US,(405) 440-6660,35.3887043181818,-97.52124,,,,
Academy Sports & Outdoors - OKLAHOMA CITY - 86,,4261 NW 63RD ST,,OKLAHOMA CITY,OK,73116,US,4057673720,35.53684,-97.5953716666667,,,,
Academy Sports & Outdoors - EDMOND - 85,,2501 SOUTH BROADWAY,,EDMOND,OK,73013,US,(405) 715-4530,35.62893,-97.4847645454545,,,,
Academy Sports & Outdoors - NORMAN - 204,,2010 NW 24TH AVE,,NORMAN,OK,73069,US,(405) 307-4700,35.2424713303323,-97.4811602083548,,,,
US Patriot - Lawton - 6,,CENTRAL LAWTON MALL,,LAWTON,OK,73501,US,(800) 805-5294,34.60425,-98.3908,,,,
Academy Sports & Outdoors - LAWTON - 184,,1732 NW 82ND ST,,LAWTON,OK,73501,US,,34.6268228776978,-98.4922047482014,,,,
Gander Mountain - TULSA - 372,,8310 S OLYMPIA AVE WEST,,TULSA,OK,74132,US,0,36.09013,-96.00485,,,,
Work World - Fresno - 105,,"491 EAST SHAW AVE #K2,\nSTE 300",,FRESNO,CA,93710,US,(559) 221-1014,36.8084755555556,-119.779322222222,,,,
BEST UNIFORMS,,5091 N. FRESNO STREET,,FRESNO,CA,93710,US,(559) 226-4235,36.8102016666667,-119.78137,,,,
Work World - Clovis - 120,,"975 WEST SHAW AVE, STE 3",,CLOVIS,CA,93612,US,0,36.8085871428571,-119.731378571429,,,,
Work World - Fresno - 114,,"7655 N BLACKSTONE AVE,\nSTE 101",,FRESNO,CA,93720,US,(559) 446-0220,36.8471869387755,-119.790886122449,,,,
5.11 TACTICAL FRESNO,,5133 N GATES AVE STE 101,,FRESNO,CA,93722,US,(559) 277-5511,36.8107847368421,-119.874462105263,,,,
LORD'S UNIFORMS,,223 NORTH IRWIN ST,,HANFORD,CA,93230,US,(559) 582-5673,36.3266246938775,-119.647316122449,,,,
BEATWEAR,,411 W MAIN ST,,VISALIA,CA,93291,US,(559) 627-5722,36.3301779591837,-119.295783877551,,,,
Valley Uniform Center,,1841 S MOONEY BLVD,,Visalia,CA,93277,US,,36.3143903318608,-119.313931512913,,,,
TEMPLETON UNIFORMS,,3850 RAMADA DR A-1B,,PASO ROBLES,CA,93446,US,(805) 434-0814,35.5708963695097,-120.698957311568,,,,
FX Tactical Tucson,,810 E. 22nd Street,,Tucson,AZ,85713,US,(520) 207-7400,32.20687,-110.9575225,,,,
Bass Pro - INDEPENDENCE - 39,,18001 BASS PRO DRIVE,,INDEPENDENCE,MO,64055,US,(816) 795-4300,39.04174,-94.36878,,,,
Cabela's - KANSAS CITY - 8,,10300 CABELA DR,,KANSAS CITY,KS,661111464,US,0,39.12043,-94.81591,,,,
Academy Sports & Outdoors - OVERLAND PARK - 187,,9781 QUIVIRA ROAD,,OVERLAND PARK,KS,66214,US,,38.9508901010101,-94.7234580808081,,,,
ROGERS SPORTING GOODS,,1760 N CHURCH RD,,LIBERTY,MO,64068,US,(816) 781-9026,39.2680878962364,-94.4412779421708,,,,
Scheels Sports - Overland Park,,6503 WEST 135TH STREET,,OVERLAND PARK,KS,66223,US,(913) 897-3030,38.8836401507538,-94.6608700502513,,,,
Bass Pro - OLATHE - 36,,12051 BASS PRO DRIVE,,OLATHE,KS,66061,US,(913) 254-5200,38.91126,-94.77756,,,,
Gear Zone Tactical - Lee's Summit,,805 SE 3rd Street Suite C,,Lee's Summit,MO,64063,US,(816) 246-2656,38.91491,-94.36442,,,,
Academy Sports & Outdoors - OLATHE - 188,,14405 W 135TH ST,,OLATHE,KS,66062,US,,38.88354,-94.7529247715736,,,,
NOGALES TACTICAL SELECT PREMIUM DEALER,,16 N Morley Ave,,NOGALES,AZ,85621,US,(520) 287-2942,31.3330805305438,-110.941281937071,,,,
ED M FELD EQUIPMENT CO IN,,1330 NW JEFFERSON ST,,GRAIN VALLEY,MO,64029,US,,39.0244285770251,-94.2198649833989,,,,
GEAR ZONE PRODUCTS,,7901 E. State Route W,,Freeman,MO,64746,US,(816) 899-2347,38.586416,-94.513959,,,,
Barebones Workwear,,13420 Lincoln Way,,Auburn,CA,95603,US,(530) 823-9327,38.9243163246267,-121.055911581157,,,,
Barebones Workwear,,769 Colusa Avenue,,Yuba City,CA,95991,US,,39.141730735364,-121.626895665152,,,,
UNIFORMS-TUXEDOS & MORE,,189 E. 9TH AVE,,CHICO,CA,95926,US,(530) 343-8505,39.7469057142857,-121.850252040816,,,,
Barebones Workwear,,11260 Donner Pass Road,,Truckee,CA,96161,US,(530) 582-9327,39.3260844897959,-120.206551020408,,,,
UNIFORMITY,,941 JACKS VALLEY RD STE A,,CARSON CITY,NV,89705,US,(775) 783-9191,39.1007791464957,-119.77831687734,,,,
5.11 Virginia Beach,,"3980 VIRGINIA BEACH BLVD, STE #101",,VIRGINIA BEACH,VA,23452,US,,36.84122546875,-76.11217375,,,,
TIDEWATER TACTICAL,,2022 Pleasure House Rd,,VIRGINIA BEACH,VA,23455,US,(757) 318-6652,36.9018404614299,-76.1365442997778,,,,
GALLS INCORPORATED - BEST UNIFORMS - Norfolk,,415 N MILITARY HIGHWAY,,NORFOLK,VA,23502,US,0,36.8475015425734,-76.210581462772,,,,
ALL American Sports Store Chesapeake,,"1501 SENTINEL DRIVE, DGS200/FS100",,Chesapeake,VA,00000,US,,36.77758,-76.25469,,,,
All American Sports Center Stores Chesapeake,,1501 Sentinel Drive DSG200/FS100,,Chesapeake,VA,23320,US,(757) 386-4274,36.77758,-76.25469,,,,
MES - VIRGINIA,,648 Independence Pkwy Suite 200,,Chesapeake,VA,23320,US,(800) 627-4736,36.7655965235078,-76.2617662281502,,,,
Bass Pro - HAMPTON - 18,,1972 POWER PLANT PKWY,,HAMPTON,VA,23666,US,(757) 262-5200,37.0354090504744,-76.3939137612429,,,,
FDM TACTICAL,,5278 Oaklawn Blvd,,Prince George,VA,23860,US,(804) 446-3268,37.2600914190522,-77.3264738241199,,,,
SOUTHERN POLICE EQUIPMENT,,7609 MIDLOTHIAN TNPK,,RICHMOND,VA,23235,US,(800) 542-5243,37.49916,-77.537251,,,,
TOWN POLICE SUPPLY,,3541 COURTHOUSE RD.,,RICHMOND,VA,23236,US,(804) 745-6433,37.4443860829934,-77.5818283508144,,,,
TACTICAL GEAR SUPPLY,,4864 ASH STREET,,FOREST PARK,GA,30297,US,(404) 366-0631,33.6197208108108,-84.3616681081081,,,,
SMYRNA POLICE DISTR,,630 B WINDY HILL RD,,SMYRNA,GA,30080,US,(770) 434-1986,33.894481509434,-84.5346313207547,,,,
ADVENTURE OUTDOORS/SPD,,2500 S COBB DRIVE,,SMYRNA,GA,30080,US,(770) 333-9880,33.8923617356143,-84.5377287853448,,,,
RED THE UNIFORM TAILOR-GA,,2130 NORTHWEST PKWY.,,MARIETTA,GA,30067,US,(770) 818-9820,33.9197581,-84.4893624,,,,
NAFECO NORCROSS,,"6215 REGENCY PARKWAY,\nSTE 975",,NORCROSS,GA,30071,US,(770) 248-0049,33.928829767985,-84.22246046403,,,,
"AUTREY'S ARMORY, INC.",,"116 BETHEA ROAD, STE 112",,FAYETTEVILLE,GA,30214,US,7707192454,33.499862361809,-84.449206080402,,,,
LAW ENFORCEMENT SUPPLY-GA,,1257H KENNESTONE CIRCLE,,MARIETTA,GA,30066,US,(770) 799-1972,33.9809058135572,-84.5493218287571,,,,
Academy Sports & Outdoors - DOUGLASVILLE - 169,,7200 CONCOURSE PKWY,,DOUGLASVILLE,GA,30134,US,,33.73015,-84.75928,,,,
Gander Mountain - MCDONOUGH - 308,,1970 JONESBORO RD STE 1300,,MCDONOUGH,GA,30253,US,,33.4644595862989,-84.2207205845198,,,,
Academy Sports & Outdoors - HIRAM - 124,,4215 JIMMY LEE SMITH PKWY,,HIRAM,GA,30141,US,,33.8926374072178,-84.7580940206223,,,,
Academy Sports & Outdoors - SNELLVILLE - 107,,1585 SCENIC HWY,,SNELLVILLE,GA,30078,US,(770) 736-4009,33.8862954306657,-84.0099945866423,,,,
Bass Pro - LAWRENCEVILLE - 13,,"5900 SUGARLOAF PARKWAY,\nSTE 129",,LAWRENCEVILLE,GA,30043,US,(678) 847-5500,33.9849,-84.07846,,,,
Academy Sports & Outdoors - MCDONOUGH - 110,,198 SOUTH POINT BLVD,,MCDONOUGH,GA,30253,US,(678) 432-8000,33.4236013207547,-84.1888645283019,,,,
Academy Sports & Outdoors - CUMMING - 118,,320 PEACHTREE PKWY,,CUMMING,GA,30041,US,(678) 455-3320,34.15513,-84.17387,,,,
Academy Sports & Outdoors - NEWNAN - 157,,1096 BULLSBORO DRIVE,,NEWNAN,GA,30265,US,,33.3969895051084,-84.7426047184982,,,,
DANA SAFETY SUPPLY,,4729 NELSON BROGDON BLVD,,BUFORD,GA,30518,US,(770) 381-8633,34.1030484615385,-84.0231176923077,,,,
Academy Sports & Outdoors - CARTERSVILLE - 199,,JOE FRANK HARRIS PKWY SE & HWY 113 (SEC),,CARTERSVILLE,GA,30121,US,,34.20761,-84.78551,,,,
BARGAIN BARN,,3622 CAMP RD.,,JASPER,GA,30143,US,(706) 253-9462,34.4588986395685,-84.4565774831264,,,,
RED DOG PUBLIC SAFETY,,1020 INDIAN SPRINGS DRIVE,,FORSYTH,GA,31029,US,(478) 994-1862,33.053578241206,-83.9525887939699,,,,
Academy Sports & Outdoors - ATHENS - 192,,3505 ATLANTA HIGHWAY,,ATHENS,GA,30606,US,7063545620,33.9390976868149,-83.4548877403696,,,,
UNIFORMS UNLIMITED,,850 PRINCE AVE,,ATHENS,GA,30606,US,(706) 546-1829,33.9617514285714,-83.391603877551,,,,
COUNTRY SPORTSMAN,,2806 SHORTER AVE NW,,ROME,GA,30165,US,7062910053,34.270616,-85.2535457142857,,,,
Bass Pro - MACON - 38,,5000 BASS PRO BLVD,,MACON,GA,31210,US,(478) 757-7600,32.9368667541853,-83.7388405838019,,,,
Bass Pro - MACON - 2,,"5100 BASS PRO BLVD,\nSOUTH WHSE RCV DOCK",,MACON,GA,31210,US,,32.9366663732836,-83.7389716020838,,,,
Academy Sports & Outdoors - MACON - 190,,1689 EISENHOWER PKWY,,MACON,GA,31206,US,(478) 785-2300,32.8147193913044,-83.6727109565217,,,,
Academy Sports & Outdoors - DALTON - 179,,SHUGART RD & CHATTANOOGA RD,,DALTON,GA,30720,US,,34.79504,-84.99669,,,,
Academy Sports & Outdoors - WARNER ROBBINS - 175,,2907 WATSON BLVD,,WARNER ROBBINS,GA,31093,US,,32.6183856081865,-83.6838418947151,,,,
Gander Mountain - GADSDEN - 314,,540 E MEIGHAN BLVD STE 1300,,GADSDEN,AL,35903,US,,34.0086038868348,-85.984907585061,,,,
Academy Sports & Outdoors - GADSDEN - 161,,601 GEORGE WALLACE DR,,GADSDEN,AL,35903,US,2564396260,34.0011590322581,-85.9948144086022,,,,
"CLYDE ARMORY, INC.",,600 PERRY PKWY,,PERRY,GA,31069,US,(706) 549-1842,32.4932,-83.74385,,,,
Gander Mountain - OPELIKA - 430,,1640 PARKER WAY,,OPELIKA,AL,36801,US,,32.6206640816327,-85.4005312244898,,,,
Academy Sports & Outdoors - AUBURN - 162,,2325 BENT CREEK ROAD,,AUBURN,AL,36830,US,(334) 466-5500,32.6080003783105,-85.4303627089981,,,,
Academy Sports & Outdoors - CHATTANOOGA - 92,,2220 HAMILTON PLACE BLVD STE 150,,CHATTANOOGA,TN,37421,US,,35.040055,-85.155435,,,,
Sportsman's Warehouse - CHATTANOGA - 28,,6241 PERIMETER DR,,CHATTANOGA,TN,37421,US,(423) 892-6300,35.0293263922835,-85.1839742536659,,,,
"GT DISTRIBUTORS,INC.",,100 MCFARLAND AVE,,ROSSVILLE,GA,30741,US,(706) 866-2764,34.98346,-85.28635,,,,
Canfield's Sporting Goods,,8457 W CENTER RD,,OMAHA,NE,68124,US,(402) 393-3363,41.2342184782609,-96.045697826087,,,,
Bass Pro - COUNCIL BLUFFS - 30,,2901 BASS PRO DRIVE,,COUNCIL BLUFFS,IA,51501,US,(712) 325-6000,41.23616,-95.89268,,,,
Scheels Sports - Omaha,,17202 DAVENPORT ST.,,OMAHA,NE,68118,US,(402) 289-5666,41.2609087307901,-96.1837671641666,,,,
MES - MID AMERICA,,1880 East Military Avenue,,Fremont,NE,68025,US,(402) 727-5785,41.4345234479962,-96.4734761519217,,,,
Scheels Sports - Lincoln,,2960 PINE LAKE ROAD,,LINCOLN,NE,68516,US,(402) 420-9000,40.7407450936078,-96.6780247191766,,,,
Feld Fire,,PO BOX 625,,Carroll,IA,51401,US,(712) 792-3143,42.06659,-94.86988,,,,
SOUTHERN HILL SCHEEL,,4400 Sergeant Rd\nSTE 54,,Sioux City,IA,51106,US,(712) 252-1551,42.44815,-96.35026,,,,
BOB'S ARMY SURPLUS,,1217 S. SAUNDERS ST.,,RALEIGH,NC,27603,US,(919) 833-8223,35.7633134693878,-78.6487679591837,,,,
Gander Mountain - RALEIGH - 635,,3062 WAKE FOREST RD,,RALEIGH,NC,27609,US,(919) 850-9754,35.8240459139785,-78.6219374193548,,,,
LAWMEN'S SAFETY SUPPLY,,3319 ANVIL DRIVE,,RALEIGH,NC,27603,US,(919) 779-6141,35.7306300331594,-78.6431365961469,,,,
Gander Mountain - RALEIGH - 331,,6101 CAPITAL BLVD STE 1300,,RALEIGH,NC,27616,US,,35.867693515672,-78.5820497291541,,,,
Bass Pro - CARY,,801 BASS PRO LANE,,CARY,NC,27513,US,,35.8306085,-78.7710104,,,,
Gander Mountain - MORRISVILLE - 425,,2100 VILLAGE MARKET PLACE,,MORRISVILLE,NC,27560,US,,35.80674,-78.81591,,,,
FIELD & STREAM CARY,,PARKSIDE TOWN COMMONS 1048 PARKSIDE MAIN STREET,,CARY,NC,27519,US,(919) 627-9732,35.8479211,-78.8899194,,,,
"PERRY'S GUN SHOP, INC.",,21 E THIRD ST,,WENDELL,NC,27591,US,(919) 365-4200,35.7810136734694,-78.3696112244898,,,,
TACTICAL & OUTDOOR WEAR,,1402 INTERSTATE DRIVE,,DUNN,NC,28334,US,0,35.2906973827989,-78.6053598290115,,,,
"MACE SPORTS, INC",,6921 INDUSTRIAL DR,,MEBANE,NC,27302,US,9195634070,36.0788715696842,-79.2356186025272,,,,
US Patriot - Fort Bragg - 7,,"BL Z 3252, 1017 CANOPY LN,\nSOUTH POST MALL",,FORT BRAGG,NC,28307,US,,35.14574,-78.99057,,,,
US Patriot - Fort Bragg - 8,,"BLDG 42171, \nREILLY RD",,FORT BRAGG,NC,28307,US,,35.1303737,-78.9958308,,,,
GENERAL JACKSON,,6207 YADKIN RD.,,FAYETTEVILLE,NC,28303,US,(910) 868-1806,35.0984410061677,-78.989075434135,,,,
AMERICAN UNIFORM SALES,,321 E. RUSSELL STREET,,FAYETTEVILLE,NC,28301,US,(910) 323-1336,35.0489823076923,-78.8744546153846,,,,
Gander Mountain - FAYETTEVILLE - 335,,1912 SKIBO RD,,FAYETTEVILLE,NC,28303,US,(910) 487-4036,35.06888,-78.9662633333333,,,,
Legget Town & Country,,335 MOUNT CROSS RD,,Danville,VA,23540,US,,36.5925504347826,-79.4258608695652,,,,
Bass Pro - MIAMI - 45,,1151 NW 12TH STREET,,MIAMI,FL,33172,US,(305) 341-4200,25.7619936040914,-80.2134680525476,,,,
"DESIGNLAB, INC.",,1730 BISCAYNE BLVD,,MIAMI,FL,33132,US,(305) 577-4825,25.7919925,-80.18897125,,,,
DANA SAFETY SUPPLY,,1620 NW 82nd Ave.,,Miami,FL,33126,US,(305) 639-6055,25.7880118518519,-80.3287885185185,,,,
FLORIDA GUN CENTER,,1770 WEST 38TH PLACE,,HIALEAH,FL,33012,US,3058253655,25.85671,-80.3180227726481,,,,
5.11 Miami,,3887 NW 107th Ave\n\nSuite 107,,Doral,FL,33178,US,(786) 485-4589,25.8098886197601,-80.369366953992,,,,
Bass Pro - DANIAL - 4,,200 GULF STREAM WAY,,DANIAL,FL,33004,US,(954) 929-7710,26.0573917981957,-80.1654702837384,,,,
ARMY NAVY OUTDOORS,,4130 SW 64TH AVE.,,DAVIE,FL,33314,US,(561) 684-5533,26.0708333333333,-80.2322816666667,,,,
SPECIAL OPS UNIFORMS INC.,,7468 E. ADMIRAL PLACE,,TULSA,OK,74115,US,(918) 447-8900,36.16076,-95.8916410204082,,,,
Academy Sports & Outdoors - TULSA - 87,,6120 EAST 41ST SOUTH,,TULSA,OK,74135,US,(918) 610-4010,36.1043916618911,-95.9064728939828,,,,
Academy Sports & Outdoors - TULSA - 84,,7850 S 107TH  EAST AVE,,TULSA,OK,74133,US,(918) 249-5700,36.0479717857143,-95.85557,,,,
Bass Pro - BROKEN ARROW,,101 BASS PRO DRIVE,,Broken Arrow,OK,74012,US,,36.07308,-95.79379,,,,
All Star Signs and Apparel,,901 Dickinson Ave,,Greenville,NC,27834,US,(252) 689-6464,35.60828,-77.37825,,,,
TOWN POLICE SUPPLY,,3985 VIRGINIA AVE,,COLLINSVILLE,VA,24078,US,(276) 647-4161,36.7326993407599,-79.9222884674757,,,,
STREICHER'S POLICE EQUIP,,10911 WEST HWY. 55,,Plymouth,MN,55441,US,(763) 546-1155,44.9874187,-93.4184153,,,,
Gander Mountain - EDEN PRAIRIE - 489,,12160 TECHNOLOGY DR,,EDEN PRAIRIE,MN,55344,US,(952) 944-5422,44.8620969165447,-93.4382050639312,,,,
Gander Mountain - BLAINE - 487,,10650 BALTIMORE STREET NE,,BLAINE,MN,55449,US,763783720,45.1628730416322,-93.2323952033967,,,,
Gander Mountain - WOODBURY - 488,,10470 HUDSON RD,,WOODBURY,MN,55129,US,(651) 735-6101,44.9449179312877,-92.896945347233,,,,
Gander Mountain - LAKEVILLE - 483,,16861 KENYON AVE,,LAKEVILLE,MN,55044,US,(952) 435-3805,44.7042865676154,-93.286200190014,,,,
Nexus Shooting,,2600 Davie Rd,,Davie,FL,33314,US,(954) 587-8005,26.0897982608696,-80.2279204347826,,,,
WESTON ARMS,,7080 STATE RD 84 STE 5,,DAVIE,FL,33317,US,9547921911,26.0954216,-80.2376348,,,,
ARMY NAVY OUTDOORS,,1701 S. STATE RD. 7,,NO. LAUDERDALE,FL,33068,US,(954) 973-6289,26.20557,-80.20408,,,,
NATIONAL ARMORY LLC,,1315 SW 1ST CT,,POMPANO BEACH,FL,33069,US,(954) 915-8226,26.2308105260999,-80.1410280705113,,,,
RED THE UNIFORM TAILOR,,2023 CORPORATE DR.,,BOYNTON BEACH,FL,33426,US,(561) 732-0360,26.5126948967291,-80.0773594371775,,,,
TACTICAL PRODUCTS GROUP,,1938 High Ridge Road,,Boynton Beach,FL,33426,US,(561) 265-4066,26.5466247913579,-80.0734183051411,,,,
Gander Mountain - ROGERS - 368,,20870 ROGERS DR STE 1300,,ROGERS,MN,55374,US,,45.1919081205854,-93.5458818800562,,,,
Gander Mountain - FOREST LAKE - 485,,14640 W. FREEWAY DRIVE,,FOREST LAKE,MN,55025,US,651464070,45.2347882127672,-93.0292064586286,,,,
Scheels Sports - Waite Park,,40 NORTH WAITE AVE.,,WAITE PARK,MN,56387,US,(320) 252-9494,45.5561432692308,-94.21375,,,,
Gander Mountain - WAITE PARK - 493,,614 2ND STREET SOUTH,,WAITE PARK,MN,56387,US,(320) 654-6600,45.5495,-94.2237482771307,,,,
Gander Mountain - MANKATO - 481,,1940 ADAMS ST,,MANKATO,MN,56001,US,(507) 345-3600,44.17045,-93.9479602040816,,,,
Scheels Sports - Mankato,,1850 ADAMS STREET,,MANKATO,MN,56001,US,(507) 386-7767,44.17047,-93.95239,,,,
STONEWALL UNIFORMS,,135 Ken Mar Dr.,,Broadview Heights,OH,44147,US,(216) 741-2332,41.3145658619057,-81.6572370344762,,,,
Gander Mountain - TWINSBURG - 305,,2695 CREEKSIDE DRIVE,,TWINSBURG,OH,44087,US,(330) 405-2999,41.3081183225048,-81.4382283225048,,,,
ATWELL'S POLICE & FIRE EQUIPMENT,,207 Chestnut St.,,PAINESVILLE,OH,44077,US,(440) 354-5593,41.70873,-81.2586133333333,,,,
Bass Pro - ISLAMORADA,,81576 OVERSEAS HIGHWAY,,ISLAMORADA,FL,33036,US,,24.91464,-80.63925,,,,
THE MILITARY TRAIL,,1649 NO MILITARY TRAIL,,WEST PALM BEACH,FL,33409,US,(561) 684-5533,26.7015844444444,-80.1113544444444,,,,
Gander Mountain - PALM BEACH GARD - 353,,100 GANDER WAY,,PALM BEACH GARD,FL,33403,US,(561) 627-5642,26.80381,-80.09619,,,,
SAFETY & BOOT CENTER,,2927 SE GRAN PARKWAY,,STUART,FL,34997,US,(772) 221-8905,27.1469940531403,-80.2137242658206,,,,
Gander Mountain - ROCHESTER - 367,,3470 55TH STREET NW,,ROCHESTER,MN,55901,US,(507) 252-2033,44.0795256375839,-92.5143798657718,,,,
Scheels Sports - Rochester,,1220 12th St SW,,ROCHESTER,MN,55902,US,(507) 281-2444,44.00694,-92.479185,,,,
MEL'S SPORT SHOP,,102 HWY 23 S,,SPICER,MN,56288,US,3207962000,45.20589,-94.98713,,,,
"UNIFORMS DIRECT, LLC",,"OAKWOOD MALL,\n4800 GOLF RD",,EAU CLAIRE,WI,54701,US,(715) 864-1271,44.7711165,-91.4586352,,,,
Gander Mountain - EAU CLAIRE - 114,,6440 SCULY DRIVE,,EAU CLAIRE,WI,54701,US,0,44.7653457430825,-91.4171942569175,,,,
Levinson's Uniform,,2231 Front St.,,Cuyahoga Falls,OH,44221,US,(330) 923-8888,41.1371265384615,-81.4827473076923,,,,
WORK 'N GEAR #28813,,2000 BRITTAIN RD,,AKRON,OH,44310,US,(330) 630-2120,41.11703,-81.46559,,,,
Akron Uniforms,,4410 Manchester Rd.,,Akron,OH,44319,US,(330) 434-3033,40.9829665050972,-81.5606463475882,,,,
KAME'S SPORTS,,8516 CLEVELAND AVE N,,NORTH CANTON,OH,44720,US,3304994558,40.9096366666667,-81.4055966666667,,,,
Gander Mountain - NORTH CANTON - 195,,4938 PORTAGE ST NW,,NORTH CANTON,OH,44720,US,(330) 498-0995,40.8796386868915,-81.437619595718,,,,
DOBRANKSY FIREARMS LLC,,4400 PORTAGE ST NW,,NORTH CANTON,OH,44720,US,3308304026,40.88105,-81.42921,,,,
Great American Shooting Sports,,6505 Promler St. NW,,North Canton,OH,44720,US,(330) 327-1290,40.8754421065536,-81.4286946885259,,,,
"US SAFETY GEAR, INC.",,4196 WEST MARKET STREET,,LEAVITTSBURG,OH,44430,US,(330) 898-8205,41.239665483629,-80.8726415037899,,,,
Gander Mountain - WARREN - 190,,2390 NILES COURTLAND ROAD,,WARREN,OH,44484,US,(330) 544-5800,41.2110994,-80.7414449,,,,
RED DIAMOND UNIFORM,,4437 Mahoning Ave.,,Youngstown,OH,44515,US,(330) 270-9653,41.1018843624161,-80.7332716778524,,,,
WORK 'N GEAR #28811,,7401 MARKET ST,,YOUNGSTOWN,OH,44512,US,(330) 629-8070,41.0222599963242,-80.6627342574621,,,,
DUKE'S SPORT SHOP INC.,,2801 NEW BUTLER RD,,NEW CASTLE,PA,16101,US,7246526019,40.9765285848998,-80.2886757681347,,,,
Uniform Outfitters,,1227 Powell Ave,,Erie,PA,16505,US,(814) 315-9948,42.0915256854128,-80.1671951893171,,,,
Gander Mountain - ERIE - 200,,2088 INTERCHANGE ROAD,,ERIE,PA,16565,US,,42.0654319664337,-80.1039514721414,,,,
FIELD & STREAM,,2075 INTERCHANGE ROAD STE 100,,ERIE,PA,16509,US,(814) 806-1997,42.0650347640783,-80.1028121034975,,,,
HOPE'S UNIFORM &TAILORING,,1315 20TH ST,,BAKERSFIELD,CA,93301,US,(661) 395-0076,35.3771614285714,-119.016585714286,,,,
Code 3 Uniforms,,931 California Ave,,Bakersfield,CA,93304,US,(661) 587-1700,35.36839,-119.012172040816,,,,
All American Uniform,,4821 Stockdale Hwy,,Bakersfield,CA,93309,US,(661) 735-5380,35.3541460301508,-119.055481507538,,,,
MARKSMAN RANGE & THREADS,,11 HIGUERA ST,,SAN LUIS OBISPO,CA,93401,US,8055450322,35.26518,-120.67048,,,,
Academy Sports & Outdoors - GRETNA - 55,,50 WESTBANK EXPRESSWAY,,GRETNA,LA,70053,US,5042636000,29.91544,-90.04654,,,,
BARNEY'S OF METAIRIE,,333 N I-10 SERVICE RD. STE 101,,METAIRIE,LA,70005,US,(504) 849-9995,29.9965936,-90.1263915,,,,
Academy Sports & Outdoors - HARAHAN - 61,,800 CLEARVIEW PARKWAY,,HARAHAN,LA,70123,US,5047294300,29.95361,-90.18027,,,,
Academy Sports & Outdoors - METAIRIE - 171,,8843 VETERANS MEMORIAL BL,,METAIRIE,LA,70003,US,,30.00572,-90.22552,,,,
PERRET'S,,2514 WILLIAMS BOULEVARD,,KENNER,LA,70062,US,(504) 466-2532,30.0017157142857,-90.2409171428571,,,,
Academy Sports & Outdoors - SLIDELL - 50,,61107 AIRPORT ROAD,,SLIDELL,LA,70460,US,9856464720,30.3176664035088,-89.8258746491228,,,,
Academy Sports & Outdoors - COVINGTON - 151,,7205 PINNACLE PKWY,,COVINGTON,LA,70433,US,(985) 898-7920,30.4438682265964,-90.1263809851209,,,,
Academy Sports & Outdoors - HAMMOND - 111,,600 C M FAGAN DRIVE,,HAMMOND,LA,70403,US,(985) 429-7860,30.4834074481484,-90.4627459543205,,,,
Academy Sports & Outdoors - HOUMA - 60,,1777 MARTIN LUTHER KING,,HOUMA,LA,70360,US,(985) 858-2500,29.6186164059935,-90.7583399768312,,,,
Bass Pro - DENHAM SPRINGS - 28,,175 BASS PRO BLVD,,DENHAM SPRINGS,LA,70726,US,(225) 271-3100,30.4503698079785,-90.9601205314149,,,,
Barney's Police Supplies - Gulfport,,2600 Pass Rd,,GULFPORT,MS,39506,US,(228) 206-3200,30.3803032885906,-89.0939153020134,,,,
Jim's Firearms,,5760 Siegen Ln,,Baton Rouge,LA,70809,US,(225) 293-5467,30.3976285005627,-91.0566943329582,,,,
Academy Sports & Outdoors - BATON ROUGE - 51,,10808 INDUSTRIPLEX BLVD,,BATON ROUGE,LA,70809,US,2252986300,30.3909939978009,-91.0654216575036,,,,
Academy Sports & Outdoors - GULFPORT - 58,,15130 CROSSROADS PKWY,,GULFPORT,MS,39503,US,(228) 831-5260,30.4360136495066,-89.0908137075792,,,,
BOWIE OUTFITTERS,,8630 PERKINS ROAD,,BATON ROUGE,LA,70810,US,(225) 766-1200,30.3872106342166,-91.1040403301869,,,,
Firearms Range & Clothing,,9378 S CHOCTAW DR,,Baton Rouge,LA,70815,US,(225) 926-3531,30.4718025907134,-91.0821787266566,,,,
BATON ROUGE POLICE SUPPLIES,,9530 CORTANA PL.,,BATON ROUGE,LA,70815,US,(225) 924-4948,30.4600046068516,-91.0958976937106,,,,
Academy Sports & Outdoors - BATON ROUGE - 56,,8464 AIRLINE HIGHWAY,,BATON ROUGE,LA,70815,US,2259234640,30.4581200877934,-91.0996650609676,,,,
BAYSINGER POLICE SUPPLY,,430 E. Central,,Wichita,KS,67202,US,(316) 262-5663,37.69347,-97.3339128571429,,,,
Gander Mountain - WICHITA - 370,,605 SOUTH WICHITA STREET,,WICHITA,KS,67202,US,0,37.6796892099153,-97.3405629700121,,,,
Academy Sports & Outdoors - WICHITA - 132,,2710 N MAIZE RD,,WICHITA,KS,67205,US,,37.7320779591837,-97.4626989795918,,,,
Academy Sports & Outdoors - WICHITA - 205,,2540 N GREENWICH ROAD,,WICHITA,KS,67226,US,0,37.6477881881009,-97.2078419034309,,,,
QUANTICO TACTICAL,,916 N. Washington Street,,Junction City,KS,66441,US,(785) 762-2838,39.0315614285714,-96.82951,,,,
5.11 Honolulu,,900 N Nimitz Hwy Ste #108,,Honolulu,HI,96817,US,(866) 451-1726,21.31526,-157.87431,,,,
GLOBAL PACIFIC SECURITY,,1314 S. King St.\n\nSte. 1462,,HONOLULU,HI,96814,US,8089451100,21.2989715151515,-157.841589393939,,,,
"DESIGNLAB, INC.",,3010 HILLSBOROUGH AVE,,TAMPA,FL,33610,US,0,27.996092173913,-82.4262243478261,,,,
DANA SAFETY SUPPLY,,3810 WEST OSBORNE AVE #A,,TAMPA,FL,33614,US,(813) 348-4866,27.9889,-82.5053875510204,,,,
UNIFORMS BY PATRICK,,7006 ADAMO #6,,TAMPA,FL,33619,US,(813) 712-4499,27.9523400673401,-82.3742321548822,,,,
RED'S TEAM SPORTS,,4542 EAGLE FALLS PLACE,,TAMPA,FL,33619,US,8136125999,27.902974966443,-82.3892333557047,,,,
LAW ENFORCEMENT SUPPLY,,5011H WEST HILLSBOROUGH,,TAMPA,FL,33634,US,(800) 326-4019,27.99631,-82.52789,,,,
US Patriot - Macdill Afb - 9,,BLDG 926 3108 NORTH BOUNDARY BLVD,,MACDILL AFB,FL,33608,US,0,27.8628385,-82.4979204,,,,
Bass Pro - TAMPA,,10501 PALM RIVER ROAD,,TAMPA,FL,33619,US,,27.93953,-82.33197,,,,
Gander Mountain - TAMPA - 355,,11655 W HILLSBOROUGH AVE STE 1300,,TAMPA,FL,33635,US,,28.015675,-82.6162461363636,,,,
MES - FLORIDA,,3789 62nd Avenue North,,Pinellas Park,FL,33781,US,(727) 521-2135,27.8283464,-82.685028,,,,
SRT,,4450 60TH AVE. N.,,ST PETERSBURG,FL,33714,US,(727) 526-5451,27.826154109144,-82.6943551680991,,,,
Academy Sports & Outdoors - KISSIMMEE - 228,,621 CENTERVIEW BLVD,,KISSIMMEE,FL,34741,US,0,28.33839,-81.41412,,,,
"READ'S UNIFORMS, INC.",,713 N 14th Street,,LEESBURG,FL,34748,US,3523268200,28.818290373317,-81.8875131031717,,,,
Bass Pro - ORLANDO - 1010,,5156 INTERNATIONAL DRIVE,,ORLANDO,FL,32819,US,(407) 563-5200,28.47012,-81.45031,,,,
Als Army Navy,,23 N. ORANGE BLOSSOM TR.,,ORLANDO,FL,32805,US,(407) 425-4932,28.542675,-81.3972916666667,,,,
"U.S. SURPLUS SALES, INC.",,4536 N. ORANGE BLOSSOM,,ORLANDO,FL,32804,US,(800) 545-7072,28.596265,-81.416103,,,,
MUNICIPLE PRODUCTS & SRVS,,4832 N ORANGE BLOSSOM TRL,,ORLANDO,FL,32810,US,,28.6008583416465,-81.418503678588,,,,
Als Army Navy,,1440 E Altamonte Dr,,Altamonte Springs,FL,32701,US,(407) 834-2000,28.6626834842243,-81.3446368779141,,,,
RED THE UNIFORM TAILOR,,"11602 LAKE UNDERHILL ROAD, STE 120",,ORLANDO,FL,32825,US,(407) 730-7900,28.546587761194,-81.216222238806,,,,
Gander Mountain - LAKE MARY - 350,,3750 FLAGG LANE,,LAKE MARY,FL,32746,US,(407) 804-0514,28.7544941414141,-81.3595146464646,,,,
Academy Sports & Outdoors - LAKE MARY - 230,,"LAKE EMMA RD & W LAKE, MARY BLVD",,LAKE MARY,FL,32746,US,0,28.75615,-81.35761,,,,
Academy Sports & Outdoors - ORLANDO - 231,,11955 E COLONIAL DR,,ORLANDO,FL,32826,US,0,28.5665659259259,-81.2043325925926,,,,
Als Army Navy,,1401 S French Ave,,Sanford,FL,32771,US,(407) 322-5791,28.79954,-81.2731,,,,
Academy Sports & Outdoors - CORPUS CHRISTI - 29,,5001 SOUTH PADRE ISLAND,,CORPUS CHRISTI,TX,78411,US,(361) 986-7200,27.7126558510235,-97.3807417020469,,,,
Academy Sports & Outdoors - PORTLAND - 197,,11900 HWY 181,,PORTLAND,TX,78374,US,,27.8789148,-97.3221335,,,,
SGT JOES MILITARY SURPLUS,,285 PARKERS MILL WAY,,SOMERSET,KY,42503,US,(606) 678-0303,37.0386070319505,-84.6293428008244,,,,
"LEON UNIFORM CO., INC.",,142 HANLEY INDUSTRIAL CT.,,ST LOUIS,MO,63144,US,(314) 535-8133,38.6188125,-90.3361275,,,,
HEROS IN STYLE,,"216 Frank Scott Pkwy East, Suite 10",,Swansea,IL,62226,US,(618) 235-1066,38.5709986143648,-89.9792622210108,,,,
Treetop Enterprises Inc,,12965 Maurer Industrial Dr,,Sunset Hills,MO,63127,US,(314) 881-6170,38.5216738271576,-90.4173933333404,,,,
Gander Mountain - O'FALLON - 288,,1230 CENTRAL PARK DR,,O'FALLON,IL,62269,US,0,38.5807270025263,-89.9376334465923,,,,
Gander Mountain - FELTON - 290,,751 GRAVOIS BLUFFS BLVD STE 1300,,FELTON,MO,63026,US,,38.50683,-90.44835,,,,
Cabela's - HAZELWOOD - 20,,5555 ST LOUIS MILLS BLVD,,HAZELWOOD,MO,63042,US,0,38.7859986598926,-90.4157213482922,,,,
Big Ray's,,320 W 4th Ave,,Anchorage,AK,99501,US,,61.2185420408163,-149.887784285714,,,,
NORTHERN SECURITY INC,,DBA NORTHERN SECURITY SUP,,ANCHORAGE,AK,99503,US,(907) 561-5602,61.19016,-149.89076,,,,
Big Ray's,,3200 Seward Highway,,Anchorage,AK,99503,US,,61.1911258882547,-149.86805850482,,,,
MES - ANCHORAGE,,7645 King Street,,Anchorage,AK,99518,US,0,61.1514955102041,-149.87792,,,,
Sportsman's Warehouse - ANCHORAGE - 4,,8681 OLD SEWARD HIGHWAY,,ANCHORAGE,AK,99515,US,0,61.1421384615385,-149.864093076923,,,,
Sportsman's Warehouse - SOLDOTNA - 35,,44402 STERLING HWY,,SOLDOTNA,AK,99669,US,0,60.4831329822874,-151.069318816422,,,,
Bass Pro - ST CHARLES - 14,,1365 SOUTH 5TH STREET,,ST CHARLES,MO,63301,US,(636) 688-2500,38.7714823595506,-90.4926868539326,,,,
Tacticalgear.com,,18167 EDISON AVE STE B,,CHESTERFIELD,MO,63005,US,(636) 680-8051,38.6641478181387,-90.6421468625609,,,,
Tactical Shit,,4110 I-70 North Outer Rd,,saint peters,MO,63376,US,,38.80174,-90.6523,,,,
Gander Mountain - SPRINGFIELD - 282,,2371 CHUCKWAGON DRIVE,,SPRINGFIELD,IL,62711,US,(217) 726-8219,39.7404042898927,-89.6968264868515,,,,
Scheels Sports - Springfield,,3801 S. MACARTHUR BLVD,,SPRINGFIELD,IL,62711,US,(217) 726-6330,39.74865,-89.66929,,,,
THE GREAT OUTDOORS,,695 N GIANT CITY RD,,CARBONDALE,IL,62902,US,(618) 529-5130,37.7334962965926,-89.1850010494321,,,,
Gander Mountain - MARION - 286,,2480 BLUE HERON DR,,MARION,IL,62959,US,0,37.7487233431321,-88.9560246627472,,,,
Academy Sports & Outdoors - CAPE GIRARDEAU - 178,,270 SHIRLEY DRIVE,,CAPE GIRARDEAU,MO,63701,US,,37.2973076460213,-89.5840423766366,,,,
NORTH EASTERN UNIFORMS,,900 West North Avenue,,PITTSBURGH,PA,15233,US,(412) 322-2500,40.45353,-80.01705,,,,
Gander Mountain - WEST MIFFLIN - 206,,4505 CENTURY III BLVD,,WEST MIFFLIN,PA,15122,US,(412) 653-7300,40.3434795940381,-79.942991566974,,,,
"M&M UNIFORMS, INC.",,427 RAILROAD ST.,,BRIDGEVILLE,PA,15017,US,(412) 221-7660,40.3586063636364,-80.1100054545455,,,,
"M&M UNIFORMS, INC.",,202 SECOND ST,,ELIZABETH,PA,15037,US,(412) 384-3121,40.3325752,-79.8918204,,,,
Gander Mountain - MOON TOWNSHIP - 204,,2400 MARKET PLACE BLVD,,MOON TOWNSHIP,PA,15108,US,(412) 494-9229,40.4612081610455,-80.1860204160845,,,,
WORK 'N GEAR #28810,,214 MONROEVILLE MALL,,MONROEVILLE,PA,15146,US,(412) 856-1530,40.43103328125,-79.7949280859375,,,,
FIELD & STREAM,,100 CRANBERRY SQ DR PO BOX 6700,,CRANBERRY,PA,16066,US,(724) 742-4425,40.68392,-80.08828,,,,
Gander Mountain - WASHINGTON - 203,,1500 W CHESTNUT ST,,WASHINGTON,PA,15301,US,(724) 229-9800,40.16343,-80.27591,,,,
KISKI VALLEY UNIFORMS & S,,214 MARKET STREET,,LEECHBURG,PA,15656,US,(724) 842-4454,40.6265857142857,-79.60527,,,,
Gander Mountain - GREENSBURG - 202,,1040 TOWNE SQUARE ROAD,,GREENSBURG,PA,15601,US,(724) 834-2400,40.2899984334516,-79.5273658947171,,,,
Cabela's - TRIADELPHIA - 10,,ONE CABELA DR,,TRIADELPHIA,WV,260591001,US,0,40.06196,-80.59422,,,,
WITMER PUBLIC SAFETY INC.,,DBA: THE FIRESTORE.COM,,CHALK HILL,PA,15421,US,(800) 437-1801,39.84411,-79.61835,,,,
CULBERSON'S SPORTSMEN OUT,,526 EAST STATE STREET,,KNOX,PA,16232,US,8147975253,41.2346664285714,-79.5358528571429,,,,
Gander Mountain - JOHNSTOWN - 208,,600 GALLERIA DR,,JOHNSTOWN,PA,15904,US,(814) 266-1777,40.3027,-78.83309,,,,
GRICE GUN SHOP INC,,216 REED STREET,,CLEARFIELD,PA,16830,US,8147652601,41.0255533333333,-78.4378,,,,
Fire Rescue Tactical,,1225A Roanoke Street,,Christiansburg,VA,24073,US,(540) 251-3215,37.13426,-80.38538,,,,
"SAM'S ON THE MARKET, INC",,304-306 MARKET STREET SE,,ROANOKE,VA,24011,US,(540) 342-7300,37.2711610204082,-79.9390412244898,,,,
Gander Mountain - ROANOKE - 343,,8195 GANDER WAY,,ROANOKE,VA,24019,US,0,37.3585395194017,-79.9613024713419,,,,
Gander Mountain - COLDWATER - 164,,373 NORTH WILLOWBROOK RD,,COLDWATER,MI,49036,US,(517) 279-2900,41.9413674643005,-84.9712628452854,,,,
"BRATEMAN, INC.",,5326 COLDWATER RD.,,FORT WAYNE,IN,46825,US,(260) 484-8665,41.1274098143068,-85.1357205165425,,,,
Gander Mountain - FORT WAYNE - 187,,6043 LIMA ROAD,,FORT WAYNE,IN,46818,US,(260) 416-0943,41.1339001761437,-85.1610550510817,,,,
STEVEN R JENKINS CO,,1533 GOSHEN RD,,FT WAYNE,IN,46808,US,(260) 483-7997,41.1029372145706,-85.1626480677892,,,,
Academy Sports & Outdoors - LAREDO - 73,,5700 SAN BERNARDO,,LAREDO,TX,78041,US,9565238300,27.55328,-99.50424,,,,
KIRKPATRICK GUNS & AMMO,,313 W. VILLAGE BLVD,,LAREDO,TX,78041,US,(956) 723-6338,27.564024080314,-99.5009962999921,,,,
Academy Sports & Outdoors - LAREDO - 120,,10820 INTERNATIONAL BLVD,,LAREDO,TX,78045,US,9567217500,27.6148665561925,-99.4662620465744,,,,
Gander Mountain - TONAWANDA - 251,,880 YOUNG STREET,,TONAWANDA,NY,14150,US,(716) 743-2300,43.00191325,-78.8559968333333,,,,
UNITED UNIFORM CO. INC,,495 N. FRENCH RD.,,BUFFALO,NY,14228,US,(716) 691-4400,43.03478,-78.80676,,,,
Bass Pro - NIAGARA-ON-THE-LAKE,,300 TAYLOR ROAD #A1,,NIAGARA-ON-THE-LAKE,,L0S1J0,CA,,43.15024,-79.16763,,,,
TETRAGON DISTRIBUTOR INC,,2422 DUNWIN DR. UNIT 5,,MISSISAUGA,,L5L 1J9,CA,(905) 828-9803,43.531406848124,-79.6790521430414,,,,
M.D. CHARLTON CO. LTD.,,4100B SLADEVIEW CRESCENT,,MISSISSAUGA,,L5L 5Z3,CA,(905) 625-9846,43.5274708729747,-79.7187300711733,,,,
UNIFORM EXPRESS,,1408 BUFFALO RD.,,ROCHESTER,NY,14624,US,(585) 529-4245,43.1499128571429,-77.6887185714286,,,,
UNITED UNIFORM CO. INC,,1132 SCOTTSVILLE RD.,,ROCHESTER,NY,14624,US,(585) 442-4140,43.12116,-77.65033,,,,
Gander Mountain - HENRIETTA - 254,,300 JAY SCUTTI BLVD,,HENRIETTA,NY,14623,US,0,43.0891037048193,-77.6297060090361,,,,
FUNDY TACTICAL,,#7 8000 HIGHWAY 27,,VAUGHN,,L4H 0A8,CA,,43.7773,-79.62252,,,,
Bass Pro - VAUGHN - 24,,1 BASS PRO MILLS DRIVE,,VAUGHN,,L4K5W4,CA,(905) 761-4000,43.82275,-79.53323,,,,
Urban Tactical Brantford,,18 Zatonski Ave,,Brantford,,N3V 1E9,CA,(519) 753-8726,43.16136,-80.33012,,,,
"TARGET SPORTS CANADA, INC",,14 STALWART INDUSTRIAL DR,,GORMLEY,,L0H 1G0,CA,(905) 888-8288,43.94597,-79.37297,,,,
ALBERTSON'S  SPORTING GOO,,3400 HWY 30 EAST,,WARSAW,IN,46580,US,5742674867,41.2349999,-85.8083491,,,,
Gander Mountain - PORTAGE - 176,,5348 SOUTH WESTNEDGE AVE,,PORTAGE,MI,49024,US,(269) 388-9770,42.23899,-85.58956,,,,
Field & Stream Kalamazoo,,5215 CENTURY AVENUE,,Kalamazoo,MI,49006,US,(269) 775-3072,42.27094,-85.6523,,,,
Blackside Tactical,,966 Aurora Road,,Melbourne,FL,32935,US,,28.1342384210526,-80.6346584210526,,,,
Academy Sports & Outdoors - WEST MELBOURNE - 236,,4285 NORFOLK PARKWAY,,WEST MELBOURNE,FL,32904,US,0,28.0355,-80.66255,,,,
Bass Pro - PALM BAY,,750 BASS PRO DRIVE NE,,PALM BAY,FL,32905,US,,28.0340101,-80.6527991,,,,
GUNSITE ACADEMY,,2900 W. GUNSITE ROAD,,PAULDEN,AZ,86334,US,(928) 636-4565,34.86628,-112.5206,,,,
Academy Sports & Outdoors - LUBBOCK - 49,,5802 19TH STREET,,LUBBOCK,TX,79407,US,(806) 788-4820,33.5778348861318,-101.93984081043,,,,
Gander Mountain - LUBBOCK - 412,,4006 W LOOP 289,,LUBBOCK,TX,79407,US,(806) 785-1591,33.5575353,-101.9432187,,,,
BLUE RIDGE KNIVES,,166 ADWOLFE RD.,,MARION,VA,24354,US,(276) 783-6143,36.8087890980842,-81.574746794636,,,,
MOUNTAIN HERITAGE OUTDOOR,,607 ATHENS ROAD,,PRINCETON,WV,24740,US,(304) 425-4868,37.3725775063593,-81.0689298361983,,,,
Reno Uniforms,,70 W Taylor St,,Reno,NV,89509,US,(775) 657-6025,39.5167691666667,-119.809532916667,,,,
UNIFORMITY,,2205 GLENDALE AVE,,SPARKS,NV,89431,US,(775) 358-9100,39.5276711155643,-119.771461928284,,,,
Sportsman's Warehouse - RENO - 11,,3306 KIETZKE LN,,RENO,NV,89502,US,(775) 828-1500,39.4926275,-119.78914,,,,
Work World - Reno - 109,,"6598 S VIRGINIA STREET,\nSTE 300",,RENO,NV,89511,US,(775) 853-0388,39.46521,-119.78347,,,,
Scheels Sports - Sparks,,1200 SCHEELS DR.,,SPARKS,NV,89434,US,(775) 331-2700,39.5300219801575,-119.721412071102,,,,
Cabela's - RENO - 22,,8650 BOOMTOWN RD,,RENO,NV,89439,US,,39.5154757305403,-119.972675437514,,,,
Lighthouse for the Blind - AbilityOne BSC - Fallon #1,,"BLDG 8,\n4755 PASTURE ROAD",,FALLON,NV,89406,US,(775) 426-2587,39.4029958,-118.7262018,,,,
Academy Sports & Outdoors - LAFAYETTE - 113,,3001 LOUISIANA AVE,,LAFAYETTE,LA,70501,US,(337) 521-6920,30.2607535428319,-91.9965929143362,,,,
GUIDRY'S UNIFORMS,,3909-A MOSS ST.,,LAFAYETTE,LA,70507,US,(337) 234-1363,30.29065,-92.00695,,,,
BARNEY'S OF LAFAYETTE,,218 FOURPARK RD.,,LAFAYETTE,LA,70507,US,(337) 896-3667,30.2982300404056,-92.030794632395,,,,
All American Sports Center Stores Lafayette,,"110 OLD CAMP ROAD, C100/200",,Lafayette,LA,70508,US,,30.1545321,-92.0441132,,,,
Academy Sports & Outdoors - LAFAYETTE - 54,,4232 AMBASSADOR CAFFERY,,LAFAYETTE,LA,70508,US,(337) 371-4750,30.1616308740251,-92.0545926863626,,,,
Academy Sports & Outdoors - ALEXANDRIA - 52,,3205 SOUTH MACARTHUR DR,,ALEXANDRIA,LA,71301,US,,31.2658743434343,-92.4543256565657,,,,
CAPLAN'S INC,,916 THIRD STREET,,ALEXANDRIA,LA,71301,US,(318) 487-4231,31.31177,-92.4452604081633,,,,
DOMINION OUTDOORS,,15 ANGELA CT,,FISHERSVILLE,VA,22939,US,5403379218,38.0767271428571,-78.9980871428571,,,,
SHENANDOAH AWARDS & APPAR,,220 FRONTIER DR.,,STAUNTON,VA,24401,US,(540) 886-6872,38.1274450768308,-79.0513989058904,,,,
TACTICAL & SURVIVAL SPEC.,,PO BOX 1890,,HARRISONBURG,VA,22801,US,(540) 434-8974,38.41764,-78.87476,,,,
Curtis Blue Line,,9364 W FRANKLIN RD,,BOISE,ID,83709,US,,43.60491,-116.29854244898,,,,
First Responders,,10525 WEST OVERLAND,,BOISE,ID,83704,US,,43.5902875167785,-116.313308724832,,,,
Sportsman's Warehouse - MERIDIAN - 8,,3797 EAST FAIRVIEW AVE,,MERIDIAN,ID,83642,US,(208) 884-3000,43.6194708588957,-116.347497055215,,,,
THE OUTDOORSMAN #696,,50 NE 2ND ST,,ONTARIO,OR,97914,US,5418893135,44.026365,-116.958565,,,,
HOOVER TACTICAL FIREARMS,,1561 MONTGOMERY HWY,,HOOVER,AL,35216,US,2058223600,33.404752,-86.806252,,,,
Field & Stream (Birmingham),,3851 CHAPEL LANE,,Hoover,AL,00000,US,(205) 421-9971,33.3768994379986,-86.8145893023932,,,,
Academy Sports & Outdoors - HOOVER - 64,,2810 JOHN HAWKINS PKWY,,HOOVER,AL,35244,US,2054036145,33.36601,-86.82273,,,,
Academy Sports & Outdoors - TRUSSVILLE - 68,,1612 GADSDEN HIGHWAY,,TRUSSVILLE,AL,35235,US,2056615500,33.6004413636364,-86.6406629545455,,,,
Academy Sports & Outdoors - BIRMINGHAM - 63,,310 DOUG BAKER BLVD,,BIRMINGHAM,AL,35242,US,2059814150,33.4086112095001,-86.6668502300249,,,,
Bass Pro - LEEDS - 32,,5000 BASS PRO BLVD,,LEEDS,AL,35094,US,(205) 702-7500,33.54321,-86.59093,,,,
WORK 'N GEAR #28712,,3800 MERLE HAY ROAD,,DES MOINES,IA,50310,US,(515) 278-5670,41.62941,-93.69781,,,,
CARPENTER UNIFORMS,,5801 THORNTON AVE.,,DES MOINES,IA,50321,US,(515) 283-1985,41.55384,-93.69126,,,,
Crossroads Shooting Sports,,5550 Johnston Drive,,Johnston,IA,50131,US,(515) 334-8863,41.6577580536913,-93.6869544295302,,,,
Bass Pro - ALTOONA - 43,,1000 BASS PRO DRIVE NW,,ALTOONA,IA,50009,US,(515) 957-5500,41.65905,-93.51657,,,,
Sportsman's Warehouse - ANKENY - 23,,921 SE ORALABOR RD.,,ANKENY,IA,50021,US,(515) 963-3500,41.7028568194739,-93.5857377647421,,,,
Scheels Sports - West Des Moines,,101 JORDAN CREEK PKWY,,WEST DES MOINES,IA,50266,US,(515) 727-4065,41.56849,-93.8092,,,,
JAX OUTDOOR GEAR,,4723 WEST LINCOLNWAY,,AMES,IA,50014,US,(515) 292-2276,42.0231476691752,-93.6816674811859,,,,
Bass Pro - AUBURN - 22,,1579 CLARK STREET ROAD,,AUBURN,NY,13021,US,(315) 258-2700,42.9280252852263,-76.6114640273272,,,,
UNIFORMS ETC. LLC,,129 CAYUGA ST,,FULTON,NY,13069,US,(315) 592-4117,43.3240485714286,-76.4172485714286,,,,
LEWIS UNIFORM COMPANY,,325 BUTTERNUT ST,,SYRACUSE,NY,13208,US,(315) 471-4616,43.0582424489796,-76.1508483673469,,,,
UNITED UNIFORM CO. INC,,506 EAST WASHINGTON ST,,SYRACUSE,NY,13202,US,(315) 475-8450,43.0495281632653,-76.1455316326531,,,,
Gander Mountain - CICERO - 253,,5864 CARMENICA DRIVE,,CICERO,NY,13039,US,(315) 698-1100,43.1813570130649,-76.1145937668309,,,,
GALLS INCORPORATED - BLUMENTHAL - Spokane,,1306 N. HOWARD,,SPOKANE,WA,99201,US,(800) 777-3847,47.6692848979592,-117.42109877551,,,,
TIMBERLINE DISTRIBUTORS,,DBA: BLACK SHEEP 3585 N CEDERBLOM ST,,COEUR D ALENE,ID,83815,US,2086677831,47.70995,-116.78915,,,,
Emergency Equipment Professionals,,31 Monroe Drive,,Pelham,AL,35124,US,,33.2676781818182,-86.7956175757576,,,,
Gander Mountain - TUSCALOOSA - 312,,3325 MCFARLAND BLVD EAST STE 1300,,TUSCALOOSA,AL,35405,US,,33.1786520411233,-87.5248423748518,,,,
Academy Sports & Outdoors - TUSCALOOSA - 160,,710 SKYLAND BLVD,,TUSCALOOSA,AL,35405,US,(205) 391-6860,33.1653408196721,-87.54709,,,,
"THE SURE SHOT, LLC",,1891 HWY 280,,ALEXANDER CITY,AL,35010,US,2563290080,32.9460955242527,-85.9861483468441,,,,
Academy Sports & Outdoors - DECATUR - 164,,1205 WIMBERLY DRIVE SW,,DECATUR,AL,35603,US,2563407800,34.5593499385721,-87.0011760273237,,,,
"NAFECO, INC.",,1515 WEST MOULTON ST.,,DECATUR,AL,35601,US,(256) 353-7100,34.6042702439024,-87.0075112195122,,,,
Bass Pro - PRATTVILLE - 52,,2553 ROCKY MOUNT ROAD,,PRATTVILLE,AL,36066,US,(334) 290-3400,32.4632576923077,-86.3945207692308,,,,
Scheels Sports - Cedar Falls,,402 VIKING PLAZA DR,,Cedar Falls,IA,50613,US,(319) 277-3033,42.48335,-92.44535,,,,
Academy Sports & Outdoors - PRATTVILLE - 167,,1557 COTTON EXCHANGE,,PRATTVILLE,AL,36066,US,3342906600,32.4546464,-86.4063855,,,,
DUTY GEAR,,2200 GOVERNORS DR. SW,,HUNTSVILLE,AL,35805,US,(256) 534-6891,34.72005,-86.59603,,,,
GULF STATE DIST. INC.,,6000 E. SHIRLEY LANE,,MONTGOMERY,AL,36117,US,(334) 271-2010,32.3665533198061,-86.2047644328895,,,,
Academy Sports & Outdoors - MONTGOMERY - 163,,8610 EASTCHASE PKWY,,MONTGOMERY,AL,36117,US,,32.3635833333333,-86.1399966666667,,,,
EMERGENCY WEAR,,513 WOODWARD AVE.,,MUSCLE SHOALS,AL,35661,US,(256) 386-7770,34.7558671431371,-87.6675912698378,,,,
Gander Mountain - DOTHAN - 313,,5105 MONTGOMERY HWY STE 1300,,DOTHAN,AL,36303,US,3349840084,31.2726228815273,-85.4506845328298,,,,
Academy Sports & Outdoors - DOTHAN - 182,,3950 MONTGOMERY HWY,,DOTHAN,AL,36303,US,,31.2607305479452,-85.437054109589,,,,
Seminole Communications / SCI-2-WAY,,1426 HARTFORD HWY,,DOTHAN,AL,36301,US,(334) 792-5054,31.2130236493933,-85.4156326504181,,,,
Gander Mountain - ALBANY - 311,,832 N WESTOVER BLVD STE 1300,,ALBANY,GA,31707,US,2295184090,31.6210200937469,-84.2195697187593,,,,
GALLS INCORPORATED - BEST UNIFORMS - Wilmington,,2716 EXCHANGE DR,,WILMINGTON,NC,28405,US,(800) 482-0515,34.2842212359094,-77.8710738664707,,,,
AMERICAN UNIFORM SALES,,107 CINEMA DR.,,WILMINGTON,NC,28403,US,(910) 343-0411,34.2410840173601,-77.8933557204996,,,,
EASTERN OUTFITTERS,,21241 US HWY 17 STE 01,,HAMPSTEAD,NC,28443,US,9103191125,34.4162,-77.65026,,,,
TOTAL SOLUTIONS & CONSULT,,212 NC HWY 210,,HOLLY RIDGE,NC,28445,US,(910) 353-3177,34.5881993205614,-77.4709897545521,,,,
Bass Pro - MYRTLE BEACH - 17,,10177 N KINGS HIGHWAY,,MYRTLE BEACH,SC,29572,US,(843) 361-4800,33.7908921428571,-78.7638596428571,,,,
EXTREME HOLDINGS LLC,,102 Western Blvd,,JACKSONVILLE,NC,28546,US,9103552118,34.7449571674956,-77.3791947817235,,,,
Gander Mountain - MYRTLE BEACH - 330,,1049 GLENFOREST RD,,MYRTLE BEACH,SC,29579,US,0,33.7556627110066,-78.9633118339163,,,,
Bass Pro - BOSSIER CITY - 19,,100 BASS PRO DRIVE,,BOSSIER CITY,LA,71111,US,(318) 549-8800,32.52048,-93.74145,,,,
"RANCHLAND BOSSIER, INC",,1130 AIRLINE DR.,,BOSSIER,LA,71112,US,(318) 747-0902,32.5056176238674,-93.6971889427197,,,,
Academy Sports & Outdoors - BOSSIER CITY - 150,,2801 BEENE BLVD,,BOSSIER CITY,LA,71111,US,(318) 759-1300,32.56036,-93.70791,,,,
Barney's Police Supplies - Bossier City,,Barney's of Bossier City\n\n1701 Old Minden Road\n\nSuite 25,,Bossier City,LA,71111,US,,32.56205,-93.70331,,,,
Academy Sports & Outdoors - SHREVEPORT - 59,,140 BERT KOUNS IND LOOP,,SHREVEPORT,LA,71106,US,(318) 682-4660,32.3984455882353,-93.7547941176471,,,,
Academy Sports & Outdoors - LONGVIEW - 69,,445 FOREST SQUARE,,LONGVIEW,TX,75605,US,9037571300,32.5380373469388,-94.7558881632653,,,,
NARDIS PUBLIC SAFETY,,500 E. MAIN ST.,,KILGORE,TX,75662,US,(903) 984-8900,32.38346,-94.87308,,,,
Academy Sports & Outdoors - TEXARKANA - 102,,1101 WALTON DR,,TEXARKANA,TX,75501,US,(903) 831-2460,33.4501354580824,-94.1064440254748,,,,
Gander Mountain - TEXARKANA - 409,,UNIVERSITY & HWY 30,,TEXARKANA,TX,75503,US,(903) 832-3607,33.4901523,-94.1032228,,,,
Academy Sports & Outdoors - WEST MONROE - 62,,111 CONSTITUTION DRIVE,,WEST MONROE,LA,71292,US,(318) 324-5720,32.5029220434464,-92.1586815353889,,,,
TYNER PETRUS CO.,,101 MILL ST,,WEST MONROE,LA,71291,US,,32.50422,-92.12652,,,,
Academy Sports & Outdoors - AMARILLO - 71,,4400 SONCY RD,,AMARILLO,TX,79119,US,(806) 457-2460,35.1624485427136,-101.938112462312,,,,
Gander Mountain - AMARILLO - 401,,10300 WEST INTERSTATE 40,,AMARILLO,TX,79124,US,(806) 354-9096,35.1878980788548,-101.95807926919,,,,
MES - ILLINOIS,,124 East First Street,,Deer Creek,IL,61733,US,(800) 322-8402,40.6275724489796,-89.3320369387755,,,,
CRUSE UNIFORMS & EQUIP.,,1201 BARROW RD,,LITTLE ROCK,AR,72205,US,(501) 223-2778,34.74148,-92.3723,,,,
Gander Mountain - SHERWOOD - 470,,5450 LANDERS RD,,SHERWOOD,AR,72117,US,(501) 945-4070,34.8025222545613,-92.2125927865929,,,,
Academy Sports & Outdoors - LITTLE ROCK - 93,,11400 WEST MARKHAM STREET,,LITTLE ROCK,AR,72211,US,5012173700,34.7539827078695,-92.4017325237639,,,,
Academy Sports & Outdoors - SHERWOOD - 94,,6100 WARDEN ROAD,,SHERWOOD,AR,72120,US,5012106030,34.81249,-92.205,,,,
Academy Sports & Outdoors - BENTON - 227,,20790 I-30 NORTH,,BENTON,AR,72019,US,0,34.607042666049,-92.5312125796514,,,,
UNIFORM BY JOHN-GA,,511 BROAD ST.,,AUGUSTA,GA,30901,US,(706) 722-1500,33.473265522,-81.9593752725001,,,,
Academy Sports & Outdoors - EVANS - 191,,4210 WASHINGTON ROAD,,EVANS,GA,30809,US,(706) 210-6100,33.5239524275484,-82.1192883284309,,,,
US Patriot - Fort Gordon - 13,,BLDG 29722 B STREET,,FORT GORDON,GA,30905,US,(706) 910-0680,33.42454,-82.13789,,,,
US Patriot - Fort Gordon - 12,,BLDG 35202 3RD AVE,,FORT GORDON,GA,30905,US,(706) 910-0851,33.4017,-82.12746,,,,
Academy Sports & Outdoors - AIKEN - 183,,321 FABIAN DRIVE,,AIKEN,SC,29803,US,,33.520855154357,-81.7212584530085,,,,
CI Shooting Sports,,700 Wylie Dr.,,Normal,IL,61764,US,(309) 820-1008,40.49406,-89.03546,,,,
Gander Mountain - PEORIA - 281,,5114 HOLIDAY DRIVE,,PEORIA,IL,61615,US,(309) 692-4110,40.7747815151515,-89.6733478787879,,,,
Bass Pro - EAST PEORIA - 59,,1000 BASS PRO SHOP DRIVE,,EAST PEORIA,IL,61611,US,(309) 427-3400,40.68393,-89.58086,,,,
Academy Sports & Outdoors - ANDERSON - 154,,3423 CLEMSON BLVD,,ANDERSON,SC,29621,US,,34.5475748383475,-82.6716920137557,,,,
GRADY'S GREAT OUTDOORS,,3440 CLEMSON BLVD,,ANDERSON,SC,29621,US,8642265283,34.54922,-82.67394,,,,
"READ'S UNIFORMS, INC. - Anderson",,"4128 CLEMSON BLVD,\nUNIT A",,ANDERSON,SC,29621,US,(864) 224-8790,34.56071,-82.69449,,,,
Academy Sports & Outdoors - EASLEY - 148,,201 ROLLING HILLS CIRCLE,,EASLEY,SC,29640,US,,34.82732,-82.54294,,,,
L.N. CURTIS - SLC,,1195 SOUTH 300 WEST,,SALT LAKE CITY,UT,84101,US,0,40.742714,-111.89967,,,,
5.11 Tactical Salt Lake City,,369 W 1830 South,,Salt Lake City,UT,84115,US,(801) 467-8691,40.730363877551,-111.902398367347,,,,
Curtis Blue Line,,"3060 West California Ave, Suite I",,Salt Lake City,UT,84104,US,(877) 778-8834,40.7405,-111.964422258065,,,,
SKAGGS PUBLIC SAFETY,,3828 S. MAIN ST.,,SALT LAKE CITY,UT,84115,US,(800) 879-1787,40.6884406976744,-111.89113,,,,
"OPS GEAR, INC.",,890 W CENTER ST,,N. SALT LAKE,UT,84054,US,,40.8419074,-111.932707,,,,
"OPS GEAR, INC.",,386 NORTH REDWOOD RD,,N. SALT LAKE,UT,84054,US,(801) 936-2322,40.8491382035596,-111.929642541855,,,,
Sportsman's Warehouse - MIDVALE - 3,,165 W 7200 SOUTH,,MIDVALE,UT,84047,US,0,40.6205994090571,-111.896602901244,,,,
Scheels Sports - Sandy,,11282 S STATE STREET,,SANDY,UT,84070,US,(801) 948-7080,40.5464655555556,-111.891074444444,,,,
Sportsman's Warehouse - RIVERDALE - 2,,1137 W RIVERDALE RD.,,RIVERDALE,UT,84405,US,0,41.1756928072901,-112.007564177408,,,,
GUNNIES,,396 S STATE ST,,OREM,UT,84058,US,8012267080,40.2898157142857,-111.691779285714,,,,
"LESLEE SCOTT, INC.",,475 S DEPOT DRIVE,,OGDEN,UT,84404,US,(801) 622-5741,41.25489,-111.9979,,,,
Sportsman's Warehouse - PROVO - 18,,1075 S UNIVERSITY AVE,,PROVO,UT,84601,US,(801) 818-2000,40.2190161005874,-111.65898,,,,
SMITH AND EDWARDS,,3936 NO HWY 126,,OGDEN,UT,84404,US,,41.3322243243243,-112.035413783784,,,,
"G. WILLIE'S UNIFORMS, INC",,1407 MAHAN DR.,,TALLAHASSEE,FL,32308,US,(850) 878-0204,30.4485758940397,-84.2597158940397,,,,
THE SHOE BOX,,2820 SOUTH MONROE ST.,,TALLAHASSEE,FL,32301,US,(850) 877-9174,30.4117279591837,-84.28063,,,,
Academy Sports & Outdoors - TALLAHASSEE - 112,,3122-9 MAHAN DRIVE,,TALLAHASSEE,FL,32308,US,,30.4611265217391,-84.2248671739131,,,,
MCCOYS FOOD MART INC,,2823 JEFFERSON ST,,MARIANNA,FL,32448,US,,30.7705,-85.22681,,,,
Academy Sports & Outdoors - VALDOSTA - 170,,455 NORMAN DR,,VALDOSTA,GA,31602,US,,30.829362341726,-83.3193555731942,,,,
Gander Mountain - VALDOSTA - 426,,278 NORMAN DR,,VALDOSTA,GA,31601,US,,30.82521,-83.31657,,,,
ADEL OUTFITTERS,,1221 WEST 4TH STREET,,ADEL,GA,31620,US,(229) 896-7105,31.1364636170213,-83.439995106383,,,,
Summit Uniforms,,2901 E Magnolia,,Knoxville,TN,37914,US,(865) 454-8194,35.99222,-83.8892,,,,
GREENE MILITARY,,7215 KINGSTON PIKE,,KNOXVILLE,TN,37919,US,(865) 588-5945,35.9304833046682,-84.0287021898048,,,,
Academy Sports & Outdoors - KNOXVILLE - 142,,145 MOSS GROVE BLVD,,KNOXVILLE,TN,37922,US,(865) 357-3450,35.9076247,-84.0926033,,,,
Gander Mountain - KNOXVILLE - 320,,11501 PARKSIDE DRIVE,,KNOXVILLE,TN,37934,US,(865) 671-2790,35.89867,-84.16693,,,,
Bass Pro - KODAK - 29,,3629 OUTDOOR SPORTSMANS P,,KODAK,TN,37764,US,(865) 932-5600,35.9853088872781,-83.6152954558634,,,,
SMOKY MOUNTAIN KNIFE WORK,,2320 WINFIELD DUNN PKWY,,SEVIERVILLE,TN,37876,US,(865) 453-5871,35.933190595995,-83.5831656476796,,,,
SMOKY MOUNTAIN KNIFE WORK,,"DANDRIDGE WAREHOUSE,\n1000 EPCO DRIVE",,DANDRIDGE,TN,37725,US,,36.035517,-83.4257182,,,,
"READ'S UNIFORMS, INC.",,"1906 SOUTH MAIN ST,\nSTE D",,WAYNESVILLE,NC,28786,US,(828) 456-5350,35.4679227299834,-83.0052609663539,,,,
Gander Mountain - FLORENCE - 428,,340 SEVILLE ST,,FLORENCE,AL,35630,US,,34.8356953663238,-87.6282416035388,,,,
Gander Mountain - CHATTANOOGA - 322,,5877 GRUBB ROAD STE 1300,,CHATTANOOGA,TN,37343,US,,35.1573609903198,-85.2467926932239,,,,
Academy Sports & Outdoors - HIXSON - 28,,5993 HWY 153,,HIXSON,TN,37343,US,4238707930,35.1668482608696,-85.2478556521739,,,,
All American Sports Center Stores Mobile,,1390 TRINGLE CIRCLE WEST,,Mobile,AL,36606,US,(251) 450-1334,30.6511652,-88.1165291,,,,
Academy Sports & Outdoors - MOBILE - 65,,3725 AIRPORT BLVD,,MOBILE,AL,36608,US,(251) 380-5340,30.6759109090909,-88.1365681818182,,,,
Bass Pro - SPANISH FORT - 41,,20000 BASS PRO DRIVE,,SPANISH FORT,AL,36527,US,(251) 607-5900,30.66006,-87.90933,,,,
Academy Sports & Outdoors - MOBILE - 153,,7460 AIRPORT BLVD,,MOBILE,AL,36608,US,,30.686769186139,-88.2163747671273,,,,
Sunbelt Fire Inc,,8058 McGowin Dr,,Fairhope,AL,36532,US,,30.4610282828283,-87.8850780808081,,,,
Academy Sports & Outdoors - MOBILE - 242,,2410 S MCKENZIE STREET,,MOBILE,AL,36535,US,0,30.3808269566659,-87.6833055137881,,,,
Academy Sports & Outdoors - PENSACOLA - 173,,7171 N DAVIS HWY,,PENSACOLA,FL,32504,US,,30.4989866666667,-87.2217516666667,,,,
Gander Mountain - PENSACOLA - 356,,1220 AIRPORT BLVD STE 1300,,PENSACOLA,FL,32504,US,,30.4804231047755,-87.2155366785459,,,,
Field & Stream Asheville,,"800 BREVARD RD, STE 901",,Asheville,NC,28806,US,(828) 633-3182,35.53307,-82.60427,,,,
Harrisons Workwear,,6 Old Brevard Rd.,,Asheville,NC,28806,US,(828) 633-6000,35.5228751977053,-82.6066603380424,,,,
Academy Sports & Outdoors - JOHNSON CITY - 235,,925 HAMILTON PLACE,,JOHNSON CITY,TX,37604,US,0,36.3325956957639,-82.4069649079193,,,,
"READ'S UNIFORMS, INC.",,"701 N STATE OF FRANKLIN,\nSTE 11",,JOHNSON CITY,TN,37604,US,(423) 915-0033,36.31667,-82.39062,,,,
MAHONEY'S,,830 SUNSET DR,,JOHNSON CITY,TN,37604,US,(423) 282-5413,36.3347290710182,-82.3869443833273,,,,
GLOBAL SUPPLY SOLUTIONS,,"1988 LEWIS TURNER BLVD,\nUNIT 1",,FORT WALTON BEACH,FL,32547,US,(877) 667-4327,30.4684133333333,-86.6111233333333,,,,
Gander Mountain - HATTIESBURG - 315,,4501 HARDY STREET,,HATTIESBURG,MS,39402,US,(601) 268-6845,31.3247467567568,-89.3556094594595,,,,
Academy Sports & Outdoors - HATTIESBURG - 108,,6173 US HWY 98,,HATTIESBURG,MS,39402,US,6012612900,31.3209145454545,-89.3867145454546,,,,
Bass Pro - DESTIN - 16,,4301 LEGENDARY DRIVE,,DESTIN,FL,32541,US,(850) 269-6200,30.3906271042218,-86.4238305636547,,,,
NYE UNIFORM COMPANY,,1030 Scribner Ave. NW,,Grand Rapids,MI,49504,US,(616) 459-5065,42.982615,-85.6766675,,,,
TELE-RAD INC.,,2306 CLYDE PARK SW,,GRAND RAPIDS,MI,49509,US,(616) 452-4591,42.9221125446286,-85.68602,,,,
Gander Mountain - GRAND RAPIDS - 172,,2890 ACQUEST AVE SE,,GRAND RAPIDS,MI,49512,US,(616) 975-1000,42.9123197160849,-85.5587892390694,,,,
Gander Mountain - GRANDVILLE - 168,,4655 CANAL AVE,,GRANDVILLE,MI,49418,US,(616) 249-0400,42.8800373972603,-85.77235,,,,
BOB'S GUN & TACKLE SHOP,,2208 W M43 HWY,,HASTINGS,MI,49058,US,2699454106,42.64573,-85.3315351051565,,,,
"JAY'S SPORTING GOODS, INC",,8800 S CLARE AVE,,CLARE,MI,48617,US,9893861523,43.861026674192,-84.7681064614666,,,,
MANNY'S MENS WEAR,,DBA: MANNY'S UNIFORMS\n1507 E. Madison St.,,BROWNSVILLE,TX,78520,US,(956) 548-0053,25.9061894,-97.4982182,,,,
Academy Sports & Outdoors - BROWNSVILLE - 30,,4305 OLD HIGHWAY 77,,BROWNSVILLE,TX,78520,US,9565546900,25.9665614141414,-97.5133388888889,,,,
Bass Pro - HARLINGEN - 60,,101 BASS PRO DRIVE,,HARLINGEN,TX,78552,US,(956) 291-5200,26.1920171,-97.7219406,,,,
Academy Sports & Outdoors - WESLACO - 106,,535 E EXPRESSWAY 83,,WESLACO,TX,78596,US,9564475533,26.09608,-97.9535727870304,,,,
Academy Sports & Outdoors - EDINBURG - 130,,651 EAST TRENTON ROAD,,EDINBURG,TX,78539,US,9563162650,26.2611115189873,-98.1663127848101,,,,
Academy Sports & Outdoors - MCALLEN - 131,,3901 EXPRESSWAY 83,,MCALLEN,TX,78503,US,956217760,26.1946590110194,-98.2655546608335,,,,
Academy Sports & Outdoors - MCALLEN - 34,,716 EAST EXPRESSWAY 83,,MCALLEN,TX,78503,US,9566323000,26.21593,-98.25632,,,,
MID SOUTH UNIFORM,,"AND SUPPLY, INC. 1825 TERRY ROAD",,JACKSON,MS,39204,US,(800) 325-3958,32.2822208333333,-90.2100496527778,,,,
Bass Pro - PEARL - 35,,100 BASS PRO DRIVE,,PEARL,MS,39208,US,(601) 933-3700,32.2720509488837,-90.1492859124559,,,,
Academy Sports & Outdoors - FLOWOOD - 198,,115 FREEDOM BEND,,FLOWOOD,MS,39232,US,,32.3441144,-90.0664493,,,,
Academy Sports & Outdoors - JACKSON - 99,,1187 E COUNTY LINE RD,,JACKSON,MS,39211,US,(601) 572-3660,32.3995028571429,-90.1330728571429,,,,
VAN'S SPORTING GOODS,,777 HWY 468,,BRANDON,MS,39042,US,(601) 825-9087,32.2252221428571,-90.03235,,,,
Scheels Sports - Sioux Falls,,2101 WEST 41ST ST,,SIOUX FALLS,SD,57105,US,(605) 334-7767,43.51487,-96.75105,,,,
RUNNINGS SUPPLY INC.,,911 MICHIGAN RD PO BOX 64537,,MARSHALL,MN,56258,US,5075329566,44.4666810204082,-95.8005624489796,,,,
Bass Pro Outddor World LLC,,1935 S CAMPBELL AVE,,Springfield,MO,65807,US,(417) 887-7334,37.1790905555556,-93.2951205555556,,,,
Bass Pro - SPRINGFIELD - 1,,2300 E. TURNER,,SPRINGFIELD,MO,65898,US,(417) 873-5000,37.2376289345436,-93.2501675740535,,,,
BASS PRO SHOPS/DROP SHIPS,,KEY CUSTOMER ADDRESS FOR,,SPRINGFIELD,MO,65898,US,0,37.235499,-93.2478638,,,,
Bass Pro - SPRINGFIELD,,2500 E. KEARNEY,,Springfield,MO,65898,US,,37.2395176581253,-93.2446280343843,,,,
KELLEY'S POLICE AND,,TACTICAL SUPPLY,,SPRINGFIELD,MO,65807,US,(417) 831-3106,37.16505,-93.32262,,,,
Academy Sports & Outdoors - SPRINGFIELD - 117,,610 W EL CAMINO ALTO DR,,SPRINGFIELD,MO,65810,US,(417) 890-3800,37.1314879,-93.3000612,,,,
Bass Pro - BRANSON,,1 BASS PRO DRIVE,,Branson,MO,65616,US,,36.64092,-93.21391,,,,
Bass Pro - FT MEYERS - 33,,10040 GULF CENTER DRIVE,,FT MEYERS,FL,33913,US,(239) 431-7800,26.4890994266563,-81.7913582874166,,,,
SOUTHERN UNIFORM & EQUIP.,,2030 WEST FAIRVIEW AVE,,CARTHAGE,MO,64836,US,(800) 493-2684,37.1548403448276,-94.3442793103448,,,,
Academy Sports & Outdoors - JOPLIN - 168,,1717 RANGE LINE ROAD,,JOPLIN,MO,64804,US,,37.07175,-94.4777781632653,,,,
"JOHN'S SPORT CENTER, INC.",,1806 N. BROADWAY,,PITTSBURG,KS,66762,US,(620) 231-7740,37.42459,-94.70488,,,,
Academy Sports & Outdoors - ROGERS - 89,,3855 S 26TH STREET,,ROGERS,AR,72758,US,(479) 619-1900,36.2905483572895,-94.158276386037,,,,
CRUSE UNIFORMS & EQUIP.,,5320 W SUNSET  SUITE 184,,SPRINGDALE,AR,72764,US,(479) 756-8182,36.1755345859873,-94.1917617197452,,,,
Academy Sports & Outdoors - FAYETTEVILLE - 180,,3864 N STEELE BLVD,,FAYETTEVILLE,AR,72703,US,,36.1190463370258,-94.1566654732595,,,,
CHIEF SUPPLY CORP,,2630B W. 7TH PLACE,,EUGENE,OR,97402,US,(800) 733-9281,44.051806122449,-123.134879591837,,,,
BI-MART CORPORATION,,"3111 OCEAN BLVD SE, 598 N WILBUR AVE",,COOS BAY,OR,97420,US,5418682740,43.3819941342159,-124.249274540885,,,,
Mohawk Army & Navy,,905 NEW LOUDON RD,,LATHAM,NY,12110,US,,42.757045,-73.757875,,,,
All American Sports Center Stores Latham,,"579 TROY SCHENECTADY RD, STE 101",,Latham,NY,12110,US,(518) 213-3478,42.75191,-73.76664,,,,
Mohawk Army & Navy,,3514 STATE ST,,SCHENECTADY,NY,12304,US,,42.77065125,-73.8930575,,,,
Mohawk Army & Navy,,"3057 WILTON PLAZA RD, RTE 50",,SARATOGA SPRINGS,NY,12866,US,,43.10429,-73.74222,,,,
Gander Mountain - DAVENPORT - 145,,3940 ELMORE AVE,,DAVENPORT,IA,52807,US,(563) 344-8880,41.5603,-90.52717,,,,
All American Sports Center Stores Champaign,,"2000 N NEIL STREET, STE 200",,CHAMPAIGN,IL,61820,US,(217) 402-8366,40.13998,-88.2449,,,,
Gander Mountain - CHAMPAIGN - 283,,2006 N  PROSPECT AVE STE 1300,,CHAMPAIGN,IL,61822,US,,40.1399771130724,-88.2578988837578,,,,
Bass Pro - SAVANNAH - 23,,14045 ABERCORN STREET,,SAVANNAH,GA,31419,US,(912) 961-4200,31.9817125916356,-81.1722124035195,,,,
US Patriot - Fort Stewart - 14,,"345 LINDQUIST ROAD,\nBLDG 71",,FORT STEWART,GA,31314,US,(912) 877-3075,31.8678885078145,-81.6050956797341,,,,
US Patriot - Hinesville - 4,,108 WEST HENDRY ST.,,HINESVILLE,GA,31313,US,(803) 513-8748,31.8436117171717,-81.5976715151515,,,,
"READ'S UNIFORMS, INC. - Charleston",,"946 ORLEANS ROAD,\nSTE D",,CHARLESTON,SC,29407,US,(864) 852-7878,32.79654,-80.02834,,,,
UNIFORM BY JOHN,,4450 DORCHESTER RD.,,N CHARLESTON,SC,29405,US,(843) 747-3011,32.854116122449,-80.0125859183673,,,,
Tactical511,,4956 CENTER POINTE DRIVE,,CHARLESTON,SC,29418,US,(843) 779-3374,32.8735848591601,-80.020985542252,,,,
FLETC RECREATION ASSOC.,,2000 BAINBRIDGE AVE,,CHARLESTON,SC,29405,US,(843) 746-0854,32.84758,-79.94909,,,,
Tactical511,,3021 Old Husbands Rd,,Paducah,KY,42003,US,(270) 709-5494,37.00946,-88.59609,,,,
HULTMAN INC,,2500 WAYNE SULLIVAN DR.,,PADUCAH,KY,42003,US,(270) 443-0000,37.06171,-88.57627,,,,
Gander Mountain - PADUCAH - 390,,3240 JAMES SANDERS BLVD,,PADUCAH,KY,42001,US,(270) 538-0444,37.0806253060853,-88.6848310612171,,,,
Gander Mountain - NEW HARTFORD - 257,,8635 CLINTON ST,,NEW HARTFORD,NY,13413,US,0,43.0899304081633,-75.3158753061225,,,,
Gander Mountain - VILLAGE JOHNSON CITY - 259,,528 HARRY L DRIVE STE 1300,,VILLAGE JOHNSON CITY,NY,13790,US,,42.12351,-75.96837,,,,
Gander Mountain - WATERTOWN - 261,,21182 SALMON RUN MALL WST,,WATERTOWN,NY,13601,US,(315) 779-1200,43.9814417114773,-75.9500334115833,,,,
FRANK'S GREAT OUTDOORS,,1212 N M-13,,LINWOOD,MI,48634,US,9896975341,43.73075,-83.97443,,,,
Gander Mountain - CEDAR RAPIDS - 142,,2140 EDGEWOOD ROAD SW,,CEDAR RAPIDS,IA,52404,US,(319) 654-8700,41.9585932290502,-91.7164518634389,,,,
Scheels Sports - Coralville,,CORAL RIDGE MALL,,CORALVILLE,IA,52241,US,(319) 625-9959,41.70152,-91.60823,,,,
Academy Sports & Outdoors - LAKE CHARLES - 53,,3401 DEREK DRIVE,,LAKE CHARLES,LA,70607,US,3375624000,30.1956353730491,-93.1741303901517,,,,
BARNEY'S OF LAKE CHARLES,,1700 E PRIEN LAKE RD #8,,LAKE CHARLES,LA,70601,US,0,30.19821,-93.19712,,,,
Acadian Promotional Products,,3710 Common Street,,Lake Charles,LA,70607,US,(337) 480-1945,30.1904954545455,-93.2140072727273,,,,
Academy Sports & Outdoors - MIDLAND - 96,,5300 W WADLEY AVE,,MIDLAND,TX,79707,US,(432) 522-6000,32.0122462962963,-102.156884444444,,,,
Academy Sports & Outdoors - ODESSA - 100,,6201 EAST HWY 191,,ODESSA,TX,79762,US,(432) 363-7240,31.89758,-102.31372,,,,
SIEGEL'S,,101 S.E. 4TH ST.,,EVANSVILLE,IN,47708,US,(812) 425-2268,37.9707,-87.5704,,,,
HARMON MEDICAL SUPPLY,,415 VIGO ST.,,VINCENNES,IN,47591,US,(812) 882-3636,38.6775539890421,-87.5317589047367,,,,
Academy Sports & Outdoors - ABILENE - 70,,3950 JOHN KNOX DR,,ABILENE,TX,79606,US,(325) 795-5440,32.4038001303548,-99.7679801303548,,,,
OUTDOORSMAN,,2231 W BEAUREGARD AVE,,SAN ANGELO,TX,76901,US,3259478859,31.4508308163265,-100.465013061224,,,,
Academy Sports & Outdoors - SAN ANGELO - 127,,4351 SUNSET DR,,SAN ANGELO,TX,76901,US,(325) 223-6260,31.4346411650125,-100.501443128343,,,,
Academy Sports & Outdoors - WICHITA FALLS - 72,,3201 LAWRENCE ROAD,,WICHITA FALLS,TX,76308,US,(940) 235-3360,33.87578,-98.53992,,,,
Gander Mountain - PENSDALE - 216,,66 MALL PARKWAY,,PENSDALE,PA,17756,US,(570) 546-1040,41.238708801911,-76.8292675863654,,,,
RURAL KING SUPPLY,,4216 DEWITT AVE PO BOX 64537,,MATTOON,IL,61938,US,,39.4908313410585,-88.4139551738156,,,,
FARM KING,,730 BOWER RD PO BOX 64537,,MACCOMB,IL,61455,US,3098379929,40.4660041479561,-90.6379237184197,,,,
NELSON CLOTHNG,,104 N SIDE SQ,,MACOMB,IL,61455,US,(309) 833-2493,40.4592791836735,-90.6716316326531,,,,
Academy Sports & Outdoors - LUFKIN - 83,,2912 BRENTWOOD DR,,LUFKIN,TX,75901,US,(936) 631-3700,31.2967051515152,-94.7266742424242,,,,
Scheels Sports - Fargo,,4550 15TH AVE S,,FARGO,ND,58103,US,(701) 364-0300,46.8583372599102,-96.8627109691184,,,,
Scheels Sports - Fargo,,1551 45TH ST SOUTH,,FARGO,ND,58103,US,(701) 298-2918,46.8573252608069,-96.8620146299056,,,,
Gander Mountain - FARGO - 380,,2121 43RD ST SW,,FARGO,ND,58104,US,(701) 277-9979,46.8467857034368,-96.8561106074141,,,,
Scheels Sports - Grand Forks,,2800 S COLUMBIA RD,,GRAND FORKS,ND,58201,US,(701) 780-9424,47.89215,-97.06667,,,,
PURDY'S SHOE STORE,,209 LABREE AVE NORTH,,THIEF RIVER,MN,56701,US,(218) 681-2608,48.1194896644295,-96.17996,,,,
Gander Mountain - BEMIDJI - 484,,1313 PAUL BUNYAN DRIVE,,BEMIDJI,MN,56601,US,218755615,47.44849,-94.8538297674419,,,,
Bass Pro - COLUMBIA - 21,,3101 BASS PRO DRIVE,,COLUMBIA,MO,65202,US,(573) 886-7100,38.9711391506093,-92.2913434907822,,,,
MIDWAY USA INC.,,5875 W. VAN HORN TAVERN,,COLUMBIA,MO,65203,US,(800) 243-3220,38.9685724508742,-92.4216812981372,,,,
Gander Mountain - ONALASKA - 115,,1200 CROSSING MEADOWS DR,,ONALASKA,WI,54650,US,(608) 779-0453,43.86944,-91.21724,,,,
ARMY BARRACKS,,ROUTE 16,,CONWAY,NH,03818,US,(603) 447-6323,44.02158,-70.99762,,,,
BIG BEAR SPORTS,,2618 KING AVE W,,BILLINGS,MT,59102,US,(406) 652-5999,45.7551341505318,-108.580997720207,,,,
Scheels Sports - Billings,,1121 SHILOH CROSSING BLVD,,BILLINGS,MT,59102,US,(406) 656-9220,45.7511978787879,-108.61576,,,,
Joint Force Tactical,,7-45575 KEITH WILSON ROAD,,CHILLIWACK,,V2R 5Z9,CA,,49.10195,-122.0804,,,,
M.D. CHARLTON CO. LTD.,,20253 Fraser Highway,,Langley,,V3A 4E7,CA,(604) 527-0189,49.105799187092,-122.661530875052,,,,
DS Tactical Ltd.,,742 12 ST,,"NEW WESTMINSTER, BC",,V3M 4W5,CA,(604) 524-5867,49.2101476470588,-122.933705294118,,,,
WARRIORS AND WONDERS,,UNIT 21,,VANCOUVER,,V5Z 3X7,CA,(604) 875-1867,49.2297036,-123.1179555,,,,
Gander Mountain - GREEN BAY - 135,,2323 WOODMAN DRIVE,,GREEN BAY,WI,54303,US,(920) 491-9110,44.5447382051282,-88.0739725641026,,,,
Gander Mountain - ROTHSCHILD - 126,,1560 COUNTY HWY XX,,ROTHSCHILD,WI,54474,US,(715) 355-5500,44.8589028166392,-89.6366933648447,,,,
S.M.I.L.E.S.,,3435 SOUTH ZERO ST.,,FT. SMITH,AR,72908,US,0,35.3274998318148,-94.3974228538825,,,,
Academy Sports & Outdoors - FORT SMITH - 143,,5001 PHOENIX AVENUE,,FORT SMITH,AR,72903,US,(479) 494-1740,35.33816,-94.37815,,,,
Elk County Ammo and Arms,,246 BRUSSELLES ST,,ST Marys,PA,15857,US,,41.4277198558466,-78.5580078966184,,,,
Talos Tactical,,"4096 W VAN GIESEN, SUITE C",,West Richland,WA,99353,US,(509) 967-7200,46.2980210714286,-119.341178928571,,,,
KENNEWICK RANCH AND HOME,,845 NORTH COLUMBIA CTR BL,,KENNEWICK,WA,99336,US,(509) 737-1966,46.2187040560456,-119.224263679374,,,,
SPRAGUE'S OUTDOOR,,345 W 32ND STREET,,YUMA,AZ,85364,US,,32.6693742302444,-114.623940721998,,,,
Sportsman's Warehouse - REDDING - 32,,1659 HILLTOP DR,,REDDING,CA,96002,US,0,40.582657,-122.357811,,,,
Work World - Redding - 111,,"905 DANA DRIVE #1A, STE 3",,REDDING,CA,96003,US,5302228618,40.5863097286627,-122.356855077453,,,,
Gander Mountain - HERMANTOWN - 490,,4275 HAINES ROAD,,HERMANTOWN,MN,55811,US,(218) 786-9800,46.8205214296218,-92.1747789264519,,,,
Gander Mountain - BAXTER - 486,,14275 EDGEWOOD DR,,BAXTER,MN,56425,US,(218) 828-1736,46.3584084260542,-94.2448111584002,,,,
All American Sports Center Store Medford,,293 Rossanley Drive,,Medford,OR,97501,US,(541) 930-3254,42.34063,-122.89483,,,,
Sportsman's Warehouse - MEDFORD - 14,,1710 DELTA WATERS RD.,,MEDFORD,OR,97504,US,(541) 732-3700,42.3623960524693,-122.85938,,,,
BI-MART CORPORATION,,598 N WILBUR AVE,,WALLA WALLA,WA,99362,US,(541) 868-2740,46.07856,-118.3046,,,,
D & B SUPPLY #11,,"850 SOUTHGATE ROAD, PO BOX 64537",,PENDLETON,OR,97801,US,5412760102,45.6583902740674,-118.809138939392,,,,
Sportsman's Warehouse - ST. GEORGE - 27,,2957 EAST 850 NORTH,,ST. GEORGE,UT,84790,US,(435) 634-7300,37.1233786221322,-113.520953047695,,,,
BULLSEYE SPORTSHOP LLC,,1201 S CENTRAL AVE,,MARSHFIELD,WI,54449,US,7153846580,44.65684,-90.18064,,,,
Scheels Sports - Rapid City,,1225 EGLIN ST.,,RAPID CITY,SD,57701,US,(605) 342-9033,44.1017759276774,-103.191321936132,,,,
BOB WARD AND SONS INC,,3015 PAXSON STREET,,MISSOULA,MT,59801,US,4067283220,46.8428473872287,-114.028986302764,,,,
BOB WARD AND SONS INC,,1120 NORTH 1ST STREET,,HAMILTON,MT,59840,US,4063636204,46.2588355700528,-114.157331545037,,,,
BOB WARD AND SONS INC,,1925 DEWEY BLVD,,BUTTE,MT,59701,US,4064944452,45.9834624489796,-112.511239387755,,,,
BOB WARD AND SONS INC,,3323 DREDGE DRIVE,,HELENA,MT,59601,US,4064432138,46.6207077528794,-112.022673786069,,,,
Uniform Center,,1118 N 3RD ST,,BISMARCK,ND,58501,US,(701) 255-3331,46.8171223132935,-100.78743,,,,
Scheels Sports - Bismarck,,800 KIRWOOD MALL,,BISMARCK,ND,58504,US,(701) 255-7255,46.7983362,-100.7846469,,,,
SPORTSMAN'S LOFT,,2800 S BROADWAY,,MINOT,ND,58701,US,7018524000,48.205045,-101.295995,,,,
Scheels Sports - Minot,,MINOT DAKOTA SQUARE,,MINOT,ND,58701,US,(701) 852-1010,48.206467,-101.3124807,,,,
CREATIONS BY JA MEL,,371 27 1/2 RD,,GRAND JCT,CO,81501,US,(970) 255-1998,39.058838,-108.542988,,,,
JERRYS OUTDOOR SPORTS,,2999 NORTH AVE,,GRAND JUNCTION,CO,81504,US,,39.07737,-108.49692,,,,
Sportsman's Warehouse - GRAND JUNCTION - 20,,2464 US HIGHWAY 6&50,,GRAND JUNCTION,CO,81505,US,(970) 243-8100,39.1126398,-108.6450608,,,,
TREADZ,,812 GRAND AVE,,GLENWOOD SPRINGS,CO,81601,US,(970) 928-0620,39.5465308163265,-107.324757346939,,,,
Sportsman's Warehouse - CASPER - 24,,4120 EAST 2ND ST,,CASPER,WY,82609,US,(307) 233-3700,42.8489020408163,-106.274453877551,,,,
WYOMING WORK WAREHOUSE,,4330 E 2ND STREET,,CASPER,WY,82609,US,3072378011,42.8489521276596,-106.270398510638,,,,
Scheels Sports - Great Falls,,1200 10TH AVE S STE 92,,GREAT FALLS,MT,59405,US,(406) 453-7666,47.49415,-111.28695,,,,
BIG BEAR SPORTS,,121 NORTH WEST BYPASS,,GREAT FALLS,MT,59404,US,,47.5163121276596,-111.314735744681,,,,
Sportsman's Warehouse - IDAHO FALLS - 31,,2909 S 25TH E,,IDAHO FALLS,ID,83406,US,0,43.471438083613,-111.9844176188,,,,
FIRST RESPONDERS,,2788 EAST 14TH NORTH,,IDAHO FALLS,ID,83401,US,(208) 542-1608,43.5086525712526,-111.977400808853,,,,
Gander Mountain - CHARLESTON - 240,,2700 BLOCK OF MOUNTAINEER,,CHARLESTON,WV,25309,US,(304) 746-6130,38.3193584,-81.7131346,,,,
CLASSIC JEWELRY & LOAN,,6339 U.S. ROUTE 60 EAST,,BARBOURVILLE,WV,22504,US,(304) 733-1840,38.4233669,-82.3182804,,,,
ARTESIA FIRE EQUIPMENT IN,,1014 S 1ST ST.,,ARTESIA,NM,88211,US,(575) 746-2426,32.8314887227401,-104.396829685641,,,,
SIMMONS SPORTING GOODS,,918 N WASHINGTON,,BASTROP,LA,71220,US,(318) 283-2688,32.7858449904526,-91.9137030975113,,,,
Sportsman's Warehouse - TWIN FALLS - 10,,1940 BRIDGEVIEW BLVD,,TWIN FALLS,ID,83301,US,(208) 737-9900,42.5962876042048,-114.454347109461,,,,
THE GRAPHIC DESIGNER,,4002 E MAIN,,FARMINGTON,NM,87402,US,(505) 326-1652,36.75609,-108.15655,,,,
Sportsman's Warehouse - Farmington - 37,,4905 E Main St,,Farmington,NM,87402,US,,36.766903051903,-108.14812152562,,,,
Gander Mountain - PLATTSBURGH - 255,,CHAMPLAIN CTR MALL,,PLATTSBURGH,NY,12901,US,(518) 566-6100,44.65433,-73.44226,,,,
"IMRICO, LTD. / PREFAIR",,1055 LOUIS MARCHAND,,BELOEIL CANADA,,J3G 6S4,CA,(450) 446-7060,45.5957636307302,-73.2164167517902,,,,
Fundy Tactical,,1795 SAINT-MARTIN BLVD W,,Laval,,H7S 1N2,CA,,45.5673534,-73.7306468,,,,
BOB WARD AND SONS INC,,3011 MAX AVENUE,,BOZEMAN,MT,59715,US,4065864381,45.7105583741648,-111.069039020045,,,,
"BALCO UNIFORM CO., INC",,200 NORTH STAR LANE,,BOZEMAN,MT,59718,US,(406) 624-0010,45.67888,-111.18981959596,,,,
SHEDHORN SPORTS,,103 WEST MAIN,,ENNIS,MT,59729,US,4066824210,45.3488484488487,-111.730257755756,,,,
